LAST NAME	FIRST NAME	EMAIL	ZIPCODE	CITY	STATE	ADDRESS
Jenine	Jofe	1/1/09 0:39 
Julie	Miller	1/1/09 15:10 
Caitlin	Chung	1/1/09 16:37 
Kristin	Picard	1/1/09 19:40 
Ian	Glaser	1/1/09 20:26 
Justin	Stowel	1/1/09 23:54 
Joanie	Strunnikova	1/10/09 0:41 
James	Rogine	1/10/09 11:00 
Sarah	Ojeh	1/10/09 12:44 
Sarah	Sparrow	1/10/09 17:38 
Bryan	Edmondson	1/11/09 14:41 
Rachel	Wingate	1/11/09 19:20 
Megan	Turcious-Wiswe	1/11/09 20:17 
Kara	Feldman	1/11/09 20:22 
Emily	Marshall	1/11/09 20:27 
Mika	Frazier	1/11/09 20:31 
Alison	Greenfeld	1/11/09 20:37 
Katrina	Marshall	1/11/09 20:40 
Zachary	Lemaitre	1/11/09 20:44 
Jackson	Narotzky	1/11/09 20:48 
Zakaria	Sklare	1/11/09 20:53 
Leah	Ball	1/11/09 20:56 
Kimberly	Dowling	1/11/09 21:00 
Andrew	Stockhausen	1/11/09 21:04 
Jennifer	Goldreich	1/11/09 21:06 
Weston	Gibson	1/11/09 21:40 
Robin	McBroom	1/12/09 11:51 
Erin	Boyd	1/12/09 13:46 
Amber	Bucci	1/12/09 15:20 
Stephen	McCabe	1/12/09 17:10 
Gabby	Jones	1/12/09 1:33 
Coral	Null	1/12/09 1:37 
Lawrence	Langone	1/12/09 1:39 
Lester	Clavens	1/12/09 1:41 
Sophie	Lade	1/12/09 2:55 
Lala	Leung	1/12/09 2:57 
Evan	Hoak	1/13/09 12:46 
Cody	Martinez	1/13/09 15:25 
Lily	Bradley	1/13/09 16:22 
Jessica	Winder	1/14/09 14:21 
Taylor	Kazyak	1/14/09 20:20 
Madelyn	Lambert	1/14/09 20:50 
Caitlin	Schilero	1/14/09 20:54 
Komal	Dahlin	1/14/09 22:18 
Marissa	Sen	1/14/09 22:32 
Alex	Garrett	1/14/09 23:31 
Gabe	Younger	1/15/09 12:57 
Bryson	Magruder	1/15/09 13:48 
Zamara	Uwaibi	1/15/09 13:51 
Dusty	Van rossem	1/15/09 14:27 
Alexandra	Khandros	1/15/09 14:28 
Jenna	Matz	1/15/09 14:41 
Dan	Kroll	1/15/09 14:48 
Stephanie	Udell	1/15/09 15:34 
Jose	Markley	1/15/09 15:46 
Richard	Holin	1/15/09 15:53 
Jo	Fauber	1/15/09 15:57 
Anna	Moreno	1/15/09 15:59 
Pauline	Beatrice	1/15/09 16:02 
Medini	Johnson	1/15/09 16:05 
Woody	Snyder	1/15/09 16:07 
Daryl	Gutbrod	1/15/09 16:08 
Elizabeth	Faust	1/15/09 16:10 
Pedro	Manglik	1/15/09 16:47 
Jenny	Weyl	1/15/09 17:11 
Yelena	Kelly	1/15/09 17:15 
Anna	Martin	1/15/09 17:39 
Colleen	Kizner	1/15/09 17:45 
Iveta	Edmundson	1/15/09 17:51 
Lucien	Donnelly	1/15/09 17:54 
Ryan	Jorgensen	1/15/09 17:56 
John	Buckner	1/15/09 18:01 
Teen	Ralph	1/15/09 18:05 
Michael	Krizel	1/15/09 18:06 
Laura	Paykin	1/15/09 18:11 
Eric	Wilson	1/15/09 18:13 
Martha	Tobi	1/15/09 18:15 
Melinda	Norris	1/15/09 18:17 
Katie	Phillips	1/15/09 18:23 
Michael	Turpin	1/15/09 18:27 
Mandy	Powell	1/15/09 18:31 
Eriko	Hertz	1/15/09 18:36 
Andy	Brockbank	1/15/09 18:47 
Matthew	Welty	1/15/09 18:50 
Matthew	Smith	1/15/09 18:55 
Dea	Frey	1/15/09 19:11 
Kye	Dsouza	1/15/09 19:43 
Naomi	Kraus	1/15/09 19:58 
Paul	Sullivan	1/15/09 21:44 
Devika	Gordon	1/15/09 22:43 
Nicki	Willis	1/16/09 12:25 
Hunter	Otte	1/16/09 12:37 
Maggie	Flerlage	1/16/09 14:36 
Ava	Scheibel	1/16/09 14:44 
Joe	Rizzo	1/16/09 15:05 
Martina	Panacionne	1/16/09 15:29 
Joel	Fragua	1/16/09 16:04 
Catherine	Weeks	1/16/09 16:07 
Sharon	Maurer	1/16/09 16:08 
Danny	McAlpine	1/16/09 16:11 
Terrell	Alexander	1/16/09 16:15 
Ruth	Lee	1/16/09 16:23 
Hannah	Reckard	1/16/09 16:29 
Fiona	Murphey	1/16/09 16:32 
Amanda	Peck	1/16/09 16:35 
Mohatma	Tolin	1/16/09 16:38 
Meg	Rogner	1/16/09 16:40 
Elizabeth	Achstatter	1/16/09 20:52 
Ashley	Mehta	1/16/09 2:18 
Leah	Melillo	1/16/09 2:21 
Camille	Henderson	1/16/09 2:24 
Olivia	Adler	1/16/09 2:27 
Molly	Ladd	1/16/09 2:29 
Dee	Curtis	1/16/09 8:46 
Daniel	Peters	1/16/09 9:34 
Christopher	Bookstein	1/16/09 9:37 
Sean	Swayman	1/16/09 9:39 
Megan	Craig	1/17/09 0:38 
Rebecca	Thayer	1/17/09 0:38 
Kate	Cebulski	1/17/09 14:21 
Jane	Carsky	1/17/09 15:02 
Jen	Hershkowitz	1/17/09 18:45 
Christiaan	Smith	1/17/09 19:07 
Kyle	Scaffa	1/17/09 20:23 
Morgan	DeVries	1/17/09 22:54 
Laura	Kemmick	1/17/09 2:01 
Jeet	Taylor	1/18/09 11:27 
Amelia	Moriarty	1/18/09 13:52 
Sharon	Strain	1/18/09 13:59 
Kristen	Bracken	1/18/09 14:29 
Paige	Griffin	1/18/09 17:43 
Dan	Wolk	1/18/09 19:36 
Elaine	Dutta	1/18/09 21:03 
ETSU	Guzman	1/18/09 21:12 
Kevin	Robinson	1/18/09 22:09 
Tess	Cooke	1/18/09 23:19 
Laura	Xx	1/18/09 2:48 
Jeannie	Bryant	1/19/09 11:22 
Rachel	Haut	1/19/09 11:29 
Rachel	Calvi	1/19/09 11:29 
Julian	Rosenberg	1/19/09 11:33 
Lucia	Karoluk	1/19/09 11:35 
James	12	1/19/09 11:40 
Jenna	B	1/19/09 11:43 
Ryan	Wolverton	1/19/09 11:45 
Lucy	Frick	1/19/09 11:46 
Alan	Stoneking	1/19/09 11:49 
Steve	Boehnlein	1/19/09 11:50 
Vax	Doe	1/19/09 11:52 
Max	Dean	1/19/09 11:55 
Erik	Beardsley	1/19/09 11:58 
Guy	Halter	1/19/09 12:02 
Bessie	Boyd	1/19/09 12:03 
Juliette	Alvarez	1/19/09 12:05 
Robert	Press	1/19/09 12:06 
Fiona	Mclaren	1/19/09 12:07 
Edward	Erario	1/19/09 12:09 
Mary	Joyce	1/19/09 12:12 
Tyler	Foxley	1/19/09 13:06 
Natalie	Erlich	1/19/09 13:10 
Rachel	Wang	1/19/09 13:10 
Emily	Purita	1/19/09 13:13 
Lillian	Allen	1/19/09 13:28 
Shelby	Santiago	1/19/09 14:56 
Nathan	Fletcher	1/19/09 15:02 
Danielle	Chapman	1/19/09 15:05 
Becky	Livingston	1/19/09 15:06 
Homer	Larcom	1/19/09 15:09 
X	Oquendo	1/19/09 15:10 
Julia	Gruber	1/19/09 15:12 
Meghan	Vargas	1/19/09 15:13 
Jay	Forbes	1/19/09 15:15 
Aliza	Bawany	1/19/09 15:16 
Tanya	Moriarty	1/19/09 15:18 
Hester	Munoz	1/19/09 15:19 
Julia	Worrall	1/19/09 16:13 
Laura	Leaver	1/19/09 16:28 
Sarah	Deutschmann	1/19/09 17:32 
Sarah	Alilionis	1/19/09 17:39 
Maria	Fogg	1/19/09 17:46 
Natalie	Halpern	1/19/09 17:50 
William Alexander	Miller	1/19/09 17:59 
Katie	Chu	1/19/09 17:59 
Aaron	Dugan	1/19/09 18:12 
Avery	Null	1/19/09 18:19 
Zachary	D'Ambrosio	1/19/09 18:20 
Caitlin	Hotaka	1/19/09 18:25 
Ginger	Delanghe	1/19/09 18:41 
Holly	Beal	1/19/09 18:52 
Ashleigh	Aravind	1/19/09 19:11 
Josh	Frenkel	1/19/09 19:16 
Jenna	Lebowitz	1/19/09 19:18 
Tyrone	Xx	1/19/09 19:20 
Ilana	Lummus	1/19/09 19:21 
Ben	Tsuchiya	1/19/09 19:29 
Engin	Liptak	1/19/09 19:31 
Jinny	Null	1/19/09 19:35 
Fiona	Courtman	1/19/09 19:37 
Levi	Martin	1/19/09 19:37 
John	Bishop	1/19/09 19:40 
Caitlin	Schmucker	1/19/09 19:44 
Evie	Francisci	1/19/09 19:45 
Amy	Gray	1/19/09 19:46 
Madeline	Wilson	1/19/09 19:49 
Daniel	Keith	1/19/09 19:49 
One	Four	1/19/09 19:53 
Lacy	Bulis	1/19/09 19:53 
Kevin	Rickard	1/19/09 19:56 
Laura	Bergman	1/19/09 1:28 
Max	Doneske	1/19/09 20:02 
John	Cooray	1/19/09 20:03 
Simon	Gary	1/19/09 20:03 
Emily	Mayforth	1/19/09 20:12 
Amanda	Kardos	1/19/09 20:13 
Rachel	Hentz	1/19/09 20:17 
Alex	Krumholz	1/19/09 20:24 
Emily	Fries	1/19/09 20:33 
Caroline	Isetts	1/19/09 20:38 
Dylan	Oldach	1/19/09 20:41 
Asia	Weaver	1/19/09 20:51 
Alex	Gilmore	1/19/09 20:54 
Lizzie	Levine	1/19/09 20:55 
Chris	Henderson	1/19/09 21:09 
Madeline	Krystel-Whittemore	1/19/09 2:34 
Nina	Ward	1/2/09 10:30 
Brian	Fleck	1/2/09 10:35 
Michael	Siegwald	1/2/09 10:39 
Jason	Safran	1/2/09 10:43 
Katie	Hernandez	1/2/09 10:44 
Danielle	Blanton	1/2/09 10:47 
David	Doe	1/2/09 10:49 
Karen	Johnson	1/2/09 10:51 
Kate	Coffey	1/2/09 10:53 
Philip	Goch	1/2/09 10:55 
Abigail	Lansdale	1/2/09 10:57 
Sarabeth	Jennings	1/2/09 11:01 
Jeo	Finn	1/2/09 11:04 
Kristen	Snoblen	1/2/09 11:06 
Engin	Kather	1/2/09 11:08 
Alexandra	Ward	1/2/09 11:10 
Jenna	Toombs	1/2/09 11:12 
Samantha	Boudart	1/2/09 11:14 
Kevin	Nitta	1/2/09 11:16 
Richard	Martin	1/2/09 11:18 
Gregory	Katembo	1/2/09 11:20 
Shuchee	Chan	1/2/09 11:23 
X	Snider	1/2/09 12:55 
Evan	Kohli	1/2/09 9:43 
Juan	Siegrest-Jones	1/2/09 9:45 
Bryce	Xx	1/20/09 10:34 
Anna	Tazewell	1/20/09 10:56 
D	Bruntz	1/20/09 11:09 
Paul	Colon	1/20/09 11:21 
Susan	Kemp	1/20/09 11:31 
Lauren	Jennings	1/20/09 11:35 
Bryan	Laninga	1/20/09 11:36 
Ben	Becker	1/20/09 11:38 
Chett	Herzer	1/20/09 11:40 
Keskim	Nguyen	1/20/09 11:41 
Fred	Urfer	1/20/09 11:43 
Joy	Manlapig	1/20/09 11:45 
David	Jameson	1/20/09 11:46 
Ryan	Lambe	1/20/09 11:48 
Andrea	Quinn	1/20/09 11:48 
Zachary	Bowling	1/20/09 11:50 
Null	Costa	1/20/09 11:51 
Patricia	Graff	1/20/09 11:52 
Jan	Schneider	1/20/09 11:53 
James	Schneiderman	1/20/09 11:57 
Anna	Heureux	1/20/09 12:15 
Michael	Yin	1/20/09 12:36 
Brenda	Philips	1/20/09 12:49 
Miguel A.	Madhavan	1/20/09 13:08 
Ben	Lufkin	1/20/09 13:42 
Krista	Cowan	1/20/09 13:51 
Brenna	Rotenberg	1/20/09 13:53 
Nathonn	Lawson	1/20/09 14:14 
Will	Merriweather	1/20/09 14:42 
Steve	Delphia	1/20/09 14:48 
Cara	Meicke	1/20/09 14:52 
Noah	Worden	1/20/09 15:05 
Hyo	Ackoff	1/20/09 15:11 
Hannah	Richmond	1/20/09 15:12 
Jeremy	McQuaid	1/20/09 15:18 
Daniel	Pack	1/20/09 15:18 
Ian	Koehler	1/20/09 15:22 
Colin	Cutting	1/20/09 15:24 
Karissa	Corbett	1/20/09 15:26 
Emily	Kufner	1/20/09 15:29 
Scott	Webster	1/20/09 15:32 
Alex	Combs	1/20/09 15:35 
Parag	French	1/20/09 15:51 
Karissa	Crumpler	1/20/09 15:55 
Walter	Georgia	1/20/09 15:55 
Robyn	Rouy	1/20/09 15:59 
Anthony	Edwards	1/20/09 16:01 
Lee	DiFranco	1/20/09 16:03 
Chris	B	1/20/09 16:03 
David	Kroonick	1/20/09 16:05 
Lisa	Balducci	1/20/09 16:09 
Katie	Czech	1/20/09 16:11 
Katie	Murphy	1/20/09 16:13 
Erika	Ndlovu	1/20/09 16:13 
Theresa	Johnson	1/20/09 16:15 
Patrick	Poole	1/20/09 16:17 
Anamika	Warshauer	1/20/09 16:20 
Jane	Rolon	1/20/09 16:24 
Sierra	Durrett	1/20/09 16:24 
X	Massino	1/20/09 16:37 
Claire	Kasper	1/20/09 16:44 
Robert	Lin	1/20/09 16:58 
Leland	Forni	1/20/09 17:05 
Olivia	Duzak	1/20/09 17:10 
Emily	Gerlock	1/20/09 17:14 
Jay	Lazarz	1/20/09 17:18 
Jen	McGraw	1/20/09 17:18 
Lauren	Chase	1/20/09 17:24 
Rebecca	Kovacs	1/20/09 17:26 
Tina	Wolfgang-Smith	1/20/09 17:35 
J	Dewitt	1/20/09 17:42 
Teen	Names	1/20/09 17:46 
Michael	Medina	1/20/09 17:49 
Beverly	Walsh	1/20/09 17:50 
Paul	Scruggs	1/20/09 17:58 
Sharon	Agrawal	1/20/09 18:02 
Jessy	Doe	1/20/09 18:08 
Acacia	Kaviar	1/20/09 18:13 
Your	Stehli	1/20/09 18:18 
Daniel	Collins	1/20/09 18:43 
Guilia	Berent	1/20/09 18:49 
Brian	Doe	1/20/09 19:12 
Null	Beadle	1/20/09 19:54 
Alexander	Asad	1/20/09 19:54 
David	Guard	1/20/09 19:57 
Ben	Stafne	1/20/09 19:58 
Audrie	Judge	1/20/09 20:03 
Annie	Young	1/20/09 20:08 
Dylan	Boyd	1/20/09 20:13 
Andrew	Bauer	1/20/09 20:13 
Elizabeth	Derek	1/20/09 20:17 
Emily	Tighe	1/20/09 20:22 
Kaitlin	Theve	1/20/09 20:22 
Chris	Sperling	1/20/09 20:26 
Dakota	Kearns	1/20/09 20:27 
Chuck	Evans-Verret	1/20/09 20:27 
Claire	Kingsley	1/20/09 20:28 
Mollie	Piccinini	1/20/09 20:29 
Anna	Silvestri	1/20/09 20:32 
Ali	Maurer	1/20/09 20:32 
Greg	Carroll	1/20/09 20:35 
Sylvana	Reny	1/20/09 20:35 
Kasey	Reaves	1/20/09 20:36 
John	Huber	1/20/09 20:38 
Parna	Reynosa	1/20/09 20:42 
Thomas	Levine	1/20/09 20:43 
Miles	Besl	1/20/09 20:47 
Katie	Canada	1/20/09 20:48 
Paige	Fowler	1/20/09 20:49 
Valeska	Saxon	1/20/09 20:53 
Sarah	Meyer	1/20/09 20:55 
Stephanie	Miao	1/20/09 20:56 
Matt	Van Noppen	1/20/09 20:56 
Kellyann	D'Arcy	1/20/09 20:56 
Justin	Kessler	1/20/09 20:57 
Kathleen	Haque	1/20/09 21:01 
Kristyn	Brandsletter	1/20/09 21:03 
Roxanna	Springer	1/20/09 21:08 
Kassie	Anca	1/20/09 21:09 
SArah	Doe	1/20/09 21:12 
Angelo	Jagannathan	1/20/09 21:16 
Katie	Benjamin	1/20/09 21:18 
Stefanie	Howard-Foley	1/20/09 21:18 
Kyle	Ayres	1/20/09 21:18 
Jillian	Teel	1/20/09 21:21 
Kevin	Friedman	1/20/09 21:25 
Michelle	Reilly	1/20/09 21:28 
Emma	Kodama	1/20/09 21:29 
Mary	Schuster	1/20/09 21:34 
Teresa	Doe	1/20/09 21:35 
Kiara	Hamm	1/20/09 21:37 
Chester	Brown	1/20/09 21:38 
Lauren	Hazlett	1/20/09 21:39 
Marley	Fox	1/20/09 21:39 
Nellie	Weikle	1/20/09 21:40 
Emma	Echeverria	1/20/09 21:43 
Matthew	Batterman	1/20/09 21:46 
Rachel	Lord	1/20/09 21:49 
Frances	Klagsbrun	1/20/09 21:52 
Sarah	Beck	1/20/09 21:53 
Eva	Jessee	1/20/09 21:54 
Mike	Jordan	1/20/09 21:55 
Cody	Atkinson	1/20/09 21:55 
Ariel	Parnell	1/20/09 21:57 
Sara	Wade	1/20/09 21:57 
Viveka	Edwards	1/20/09 21:57 
David	Null	1/20/09 21:58 
Lacey	Lee	1/20/09 21:59 
Larry	Riggs	1/20/09 22:02 
Dan	Dipaola	1/20/09 22:03 
X	Newbold	1/20/09 22:03 
Dustin	Landis	1/20/09 22:05 
Kaela	Thorton	1/20/09 22:06 
Mark	Olszewski	1/20/09 22:07 
Amanda	Alexander	1/20/09 22:07 
Meredith	Akinpelu	1/20/09 22:07 
Kate	Crilly	1/20/09 22:08 
Seth	Roseen	1/20/09 22:09 
Johanna	Shahidi	1/20/09 22:10 
Ryan	Cruikshank	1/20/09 22:11 
Devon	Dresch	1/20/09 22:11 
Kyla	Lako-Sarah	1/20/09 22:12 
Sarah	Miner	1/20/09 22:13 
David	Bedell	1/20/09 22:14 
Sarah	Krumholz	1/20/09 22:14 
Becky	Frye	1/20/09 22:15 
Shelby	Goyer	1/20/09 22:16 
Ashley	Mossip-Balkwill	1/20/09 22:16 
David	Jepsen	1/20/09 22:17 
Eleanor	Bennett	1/20/09 22:17 
Joshua	Capato	1/20/09 22:19 
Sonya	Zarowin	1/20/09 22:21 
Alex	Cornelius	1/20/09 22:22 
Kimia	Wool	1/20/09 22:22 
Kathryn	Anderson	1/20/09 22:22 
Monika	Udvardi	1/20/09 22:22 
Teen	Buck	1/20/09 22:25 
Zoey	Kless	1/20/09 22:25 
Kerry	Dunno	1/20/09 22:26 
Erica	Anderson	1/20/09 22:28 
Katy	Diddams	1/20/09 22:29 
A	Plumb	1/20/09 22:30 
Victor	Houtz	1/20/09 22:30 
Hannah	Dolan	1/20/09 22:31 
Joanna	D	1/20/09 22:31 
Noah	McKnight	1/20/09 22:32 
Dustin	Vito	1/20/09 22:33 
Asha	Nawrot	1/20/09 22:35 
Colin	Yeager	1/20/09 22:36 
Anna	Freund	1/20/09 22:36 
Cam	Dawson	1/20/09 22:37 
Cindy	Helferstay	1/20/09 22:38 
Dominique	Quarles	1/20/09 22:38 
Jie	Gowen	1/20/09 22:39 
Dorothea	Green	1/20/09 22:40 
Whitney	Finkel	1/20/09 22:41 
Eddie	Smith	1/20/09 22:42 
Robert	Fine	1/20/09 22:43 
Emily	Becker	1/20/09 22:43 
Melody	Goff	1/20/09 22:44 
Elisabeth	Walker	1/20/09 22:44 
Flannery	Rauch	1/20/09 22:45 
Jesse	Brown	1/20/09 22:45 
Rebekah	Duffy	1/20/09 22:46 
Garett	Kosoff	1/20/09 22:47 
Marcella	Greenbeerg	1/20/09 22:48 
Mac	Merrell	1/20/09 22:49 
Beth	Shellen	1/20/09 22:51 
Elisabeth	Wool	1/20/09 22:51 
Kiersten	Kane	1/20/09 22:51 
Cayla	Goodwin	1/20/09 22:54 
Philip	Sharcot	1/20/09 22:55 
Stuart	Easterling	1/20/09 22:56 
Marisa	Pack	1/20/09 22:57 
Alaina	Davey	1/20/09 22:57 
Courtney	Reid	1/20/09 22:57 
Michael	Burt	1/20/09 22:58 
Alex	Bushman	1/20/09 22:59 
David	Brown	1/20/09 23:00 
Smurfy	Valsdottir	1/20/09 23:00 
Jesse	Spitz	1/20/09 23:01 
Derron	Kopec	1/20/09 23:01 
Maria	Garcia	1/20/09 23:02 
Tremaine	Ferg	1/20/09 23:02 
Margo	Simpson	1/20/09 23:03 
Lara	Porterfield	1/20/09 23:03 
Bryndis	Jones	1/20/09 23:04 
Julianne	Munn	1/20/09 23:04 
Moira	Sheinkin	1/20/09 23:05 
Sanjay	Shindler	1/20/09 23:06 
Maria	Gwyn	1/20/09 23:06 
Leslie	Askins	1/20/09 23:07 
Matthew	Lopez	1/20/09 23:08 
Emma	Sherman	1/20/09 23:08 
Jane	Skeels	1/20/09 23:09 
Odin	Saldaña	1/20/09 23:10 
Laurel	Murphy	1/20/09 23:11 
Aaron	Seay	1/20/09 23:11 
Christopher	Marshall	1/20/09 23:14 
Patricia	Hutchinson	1/20/09 23:14 
Stefanie	Monje	1/20/09 23:15 
Shannon	Zaragoza-Ballesteros	1/20/09 23:15 
Kaleigh	Ladd	1/20/09 23:16 
Jessica	Ryan	1/20/09 23:17 
Brandon	Smedsrud	1/20/09 23:18 
Student	Thrower III	1/20/09 23:18 
Null	D'Arcy	1/20/09 23:21 
Maria	Arnold	1/20/09 23:22 
Katherine	Menking	1/20/09 23:22 
Catherine	Ng	1/20/09 23:22 
Kate	Williams	1/20/09 23:22 
Christopher	Chee	1/20/09 23:22 
Kendal	Fleming	1/20/09 23:24 
Durrell	Treuer	1/20/09 23:27 
Dominika	Calderado	1/20/09 23:28 
Nick	Kruger	1/20/09 23:28 
Caitlyn	Hamilton	1/20/09 23:28 
Jen	Peavler	1/20/09 23:29 
Sasha	Segar	1/20/09 23:30 
Katie	Bemis	1/20/09 23:30 
John	Hall	1/20/09 23:32 
Tim	Miller	1/20/09 23:33 
Andrew	Conlin	1/20/09 23:33 
Chris	Campbell	1/20/09 23:34 
Null	Null	1/20/09 23:35 
Laura	Oh	1/20/09 23:35 
Corey	Morris	1/20/09 23:36 
Zack	Astrove	1/20/09 23:38 
Hugo	Hudgens	1/20/09 23:39 
One	Fitzgerald	1/20/09 23:40 
Julie	Martone	1/20/09 23:41 
Nichol	Lally	1/20/09 23:42 
Meghan	Vanegas	1/20/09 23:43 
Whitney	Brehm	1/20/09 23:44 
Lauren	Berlin	1/20/09 23:45 
Corey	Rice	1/20/09 23:45 
Andrew	Waisbren	1/20/09 23:46 
Allison	Gracey	1/20/09 23:48 
Clifton	Ranganathan	1/20/09 23:49 
Danielle	Chan	1/20/09 23:50 
Lindsay	Aronoff	1/20/09 23:50 
Liana	Trombley	1/20/09 23:51 
Lana	Jordan	1/20/09 23:51 
Sam	Bates	1/20/09 23:51 
Jessica	Schwartz	1/20/09 23:51 
Jennifer	Avalos	1/20/09 23:51 
Stephanie	Baird	1/20/09 23:52 
Christina	Force	1/20/09 23:54 
Kendra	Xx	1/20/09 23:55 
Amelia	Huggenkiss	1/20/09 23:57 
John	Klar	1/20/09 23:57 
Katey	Benders	1/20/09 23:57 
Bart	Zwicker	1/20/09 23:59 
Adrian	Andrus	1/20/09 9:10 
Angela	Hannan	1/21/09 0:01 
Vrinda	Carver	1/21/09 0:01 
Keith	Perez	1/21/09 0:01 
Fred	Vourlides	1/21/09 0:01 
Manreet	Christ	1/21/09 0:03 
Ty	Thomas	1/21/09 0:03 
Jessie	Moore	1/21/09 0:03 
Alyssa	Abraham	1/21/09 0:06 
Jane	Yancey	1/21/09 0:06 
Daniel	Lewis	1/21/09 0:09 
Sierra	Langone	1/21/09 0:09 
Megan	J	1/21/09 0:11 
Tara	Municchi	1/21/09 0:13 
Adam	Starodaj	1/21/09 0:14 
Roxanne	Carbajo	1/21/09 0:16 
Stacey	Theurer	1/21/09 0:18 
Adriana	Zapfel	1/21/09 0:18 
R.E.	Stephan	1/21/09 0:21 
Medina	Cao	1/21/09 0:22 
Althea	Xx	1/21/09 0:24 
Max	Magnuson	1/21/09 0:26 
Cali	Kriegel	1/21/09 0:30 
Christina-Alexa	Kajer	1/21/09 0:34 
Megan	Cottom	1/21/09 0:37 
Marissa	Clark	1/21/09 0:42 
Keith	Dean	1/21/09 0:43 
Susan	Kenney	1/21/09 0:47 
Luke	Kilmer	1/21/09 0:51 
Ananda	Gomez	1/21/09 0:54 
Asia	Shaw	1/21/09 0:57 
Joana	Castelli	1/21/09 10:09 
Sarah	Ogle	1/21/09 10:09 
Katie	Willmoth	1/21/09 10:17 
Samantha	Feinman	1/21/09 10:17 
Graham	Norell	1/21/09 10:19 
Michael	Altemose	1/21/09 10:20 
Danny	Romain	1/21/09 10:21 
Hanna	Foster	1/21/09 10:23 
Laura	Edoo	1/21/09 10:23 
DeVaughn	Alnasur	1/21/09 10:25 
Melissa	Swanson	1/21/09 10:26 
Arlen	Drago	1/21/09 10:28 
Kelly	Doe	1/21/09 10:30 
Jourdi	Serpa	1/21/09 10:35 
Michael	Doe	1/21/09 10:38 
Chelsea	Barwick	1/21/09 10:40 
Olivia	Roman	1/21/09 10:44 
Lauren	Costello	1/21/09 10:47 
Hayley	Papi-Wark	1/21/09 10:52 
Audrey	Shindel	1/21/09 10:55 
Joe	Horter	1/21/09 11:58 
Amy	Dison	1/21/09 12:06 
Grant	Henicle	1/21/09 12:10 
Desiree	Kalan	1/21/09 12:17 
Seth	Cole	1/21/09 12:22 
Kevin	White	1/21/09 12:27 
Corinne	Cronier	1/21/09 12:29 
Holly	Xx	1/21/09 12:32 
Miriam	Kowalski	1/21/09 12:34 
Irina	Seven	1/21/09 12:38 
Spencer	Blackwell	1/21/09 12:41 
Craig	Crickman	1/21/09 12:44 
Ruth	Lownie	1/21/09 12:46 
Allison	Orr	1/21/09 12:47 
Charles	Jackson	1/21/09 12:51 
Toni	Porter	1/21/09 12:53 
Tess	Friedlander	1/21/09 12:53 
Student	Bazirak	1/21/09 12:56 
Daniel	Dong	1/21/09 12:56 
Caitlin	O'Meara	1/21/09 12:58 
Marissa	Gasner	1/21/09 13:00 
Joshua	Horan	1/21/09 13:05 
Elizabeth	Solleveld	1/21/09 13:27 
Preeti	Xx	1/21/09 13:27 
Meredith	Gainor	1/21/09 13:28 
Katie	Tuttle	1/21/09 13:29 
Cynthia	Kassner	1/21/09 13:30 
Sara	Smith	1/21/09 13:32 
Arturs	Spangrud	1/21/09 13:33 
Emily	Adler	1/21/09 13:35 
Rebecca	Batista	1/21/09 13:36 
Nicole	Neal	1/21/09 13:37 
Quinnie	Czerwiec	1/21/09 13:38 
Megan	Utsch	1/21/09 13:39 
Ryan	O'Neill	1/21/09 13:42 
Lily	Poland	1/21/09 13:42 
Sierra	Guth	1/21/09 13:42 
Barbie	Pandolfi	1/21/09 13:43 
Emily	Cohen	1/21/09 13:44 
Khaleelah	Marsh	1/21/09 13:44 
X	Du	1/21/09 13:45 
Pai	McDougall	1/21/09 13:47 
Jane	Chin-Tai	1/21/09 13:47 
Neha	Xx	1/21/09 13:50 
Athena	Yates	1/21/09 13:50 
Audrey	Jaunakais	1/21/09 13:51 
Maya	Tanaka	1/21/09 13:52 
Amanda	Jolles	1/21/09 13:52 
Tom	Dungan	1/21/09 13:54 
Daniel	Levitsky	1/21/09 13:55 
Kim	Murad	1/21/09 13:57 
Melissa	4	1/21/09 13:59 
Bartosz	Yu	1/21/09 14:01 
Wade	Deshaies	1/21/09 14:02 
Emily	Ravier	1/21/09 14:07 
Flora	Black	1/21/09 14:10 
Amanda	Haley	1/21/09 14:15 
David	Pulito	1/21/09 14:20 
Murui	Chiarito	1/21/09 14:23 
Justin	Hering	1/21/09 14:27 
Brenda	Legge	1/21/09 14:30 
Dave	Haugh	1/21/09 14:32 
Lindsey	Muller	1/21/09 14:41 
Milene	Dickerson	1/21/09 14:46 
Elly	Doe 2	1/21/09 14:52 
Madeline	Hawes	1/21/09 14:56 
Stephanie	Brown	1/21/09 14:56 
Ryan	DeBuck	1/21/09 14:57 
Eli	Hull	1/21/09 15:01 
James	Thomas	1/21/09 15:04 
X	Caron	1/21/09 15:17 
Jenny	Barrett	1/21/09 15:18 
Morgan	Alderfer	1/21/09 15:25 
Monica	Wilson	1/21/09 15:27 
Amelia	Dubrovina	1/21/09 15:27 
Elizabeth	Levene	1/21/09 15:34 
Adella	Collins	1/21/09 15:37 
Leah	Zhou	1/21/09 15:38 
Lisa	Hester	1/21/09 15:39 
Rose	11	1/21/09 15:41 
Sandy	Mike-Bidtah	1/21/09 15:41 
Amanda	Burke	1/21/09 15:43 
John	White	1/21/09 15:44 
Sarah	Hagan	1/21/09 15:46 
Jacob	Two	1/21/09 15:47 
Josie	Whaley-Tobin	1/21/09 15:47 
Patrick	Geager	1/21/09 15:49 
Abraham	Becker-Parton	1/21/09 15:50 
Erika	Guilbeault	1/21/09 15:51 
Pilar	Koch	1/21/09 15:51 
Uche	Doe	1/21/09 15:54 
Rachel	Kazyak	1/21/09 15:55 
Marcela	Cockram	1/21/09 15:55 
Claire	Kornacki	1/21/09 15:55 
Ethan	Hancock	1/21/09 15:57 
Kristin	Lauer	1/21/09 15:57 
Alejandro	Anderson	1/21/09 15:58 
Nicolas	Schiller	1/21/09 15:59 
Jeff	Marshall Main	1/21/09 15:59 
Megan	Burgess	1/21/09 16:00 
Jennifer	Silva	1/21/09 16:02 
Shea	Weber	1/21/09 16:03 
Madeline	Shamel	1/21/09 16:03 
Justin	Sherman	1/21/09 16:04 
Samuel	Carpenter	1/21/09 16:05 
Meredith	Lochner	1/21/09 16:06 
Elizabeth	Doe	1/21/09 16:06 
Lauryn	Moore	1/21/09 16:06 
Ashton	Warnow	1/21/09 16:07 
James	Doe	1/21/09 16:09 
Josh	Evarts	1/21/09 16:09 
Alicia	Veysey	1/21/09 16:10 
Albert	Catanoso	1/21/09 16:10 
Nick	Null	1/21/09 16:13 
Grant	Le	1/21/09 16:13 
Mayrah	Hecht	1/21/09 16:14 
Maria	Lane	1/21/09 16:14 
Jared	Smith	1/21/09 16:15 
Kim	Pharr	1/21/09 16:16 
Jessica	Mellen	1/21/09 16:16 
Jamie3	Crutcher	1/21/09 16:18 
Emily	Thibodeaux	1/21/09 16:18 
Shane	Harcourt	1/21/09 16:22 
Kelsy	Weitner	1/21/09 16:23 
Andrew	Castillo	1/21/09 16:24 
Ashley	Vandeputte	1/21/09 16:25 
Sarah	Doe	1/21/09 16:26 
Meaghan	Cunningham	1/21/09 16:27 
Corey	Kjos	1/21/09 16:27 
Laura	Peterson	1/21/09 16:28 
Natalie	Otukoya	1/21/09 16:29 
Lindsey	McGlinchey	1/21/09 16:30 
Karl	Courtney	1/21/09 16:31 
Alicia	Weisberg	1/21/09 16:31 
Olivia	Costa	1/21/09 16:32 
Rachel	Traft	1/21/09 16:33 
Winslow	Hanson	1/21/09 16:34 
Matthew	Gabriel	1/21/09 16:34 
Kathleen	Hinsch	1/21/09 16:35 
Jenna	Myers	1/21/09 16:36 
Leah	Ayers	1/21/09 16:36 
Jason	Lenc	1/21/09 16:36 
Uncw1	Kolins	1/21/09 16:37 
Sara	Krill	1/21/09 16:37 
Meagan	Siegel	1/21/09 16:38 
Laura	Jennings	1/21/09 16:39 
Mike	Rosett	1/21/09 16:39 
Alexandra	Jenkins	1/21/09 16:40 
Will	Rush	1/21/09 16:40 
Sarah	Goblirsch	1/21/09 16:41 
Trisha	Ridgeway	1/21/09 16:41 
Jesse	Farrell	1/21/09 16:42 
Grassy	Rubin	1/21/09 16:43 
Alex	Arginteanu	1/21/09 16:43 
Adam	Zimmerman	1/21/09 16:44 
Grady	Cleveland	1/21/09 16:44 
Ian	O'Shaughnessy	1/21/09 16:45 
Mari	Morales	1/21/09 16:45 
Abigail	Keith	1/21/09 16:45 
Barbara	Burns	1/21/09 16:46 
Kayla	Stevens	1/21/09 16:47 
Melissa	Meraz	1/21/09 16:48 
Laurel	Gerber	1/21/09 16:48 
Jane	Green	1/21/09 16:49 
Gabe	Tremblay	1/21/09 16:50 
Ashley	Tourneville	1/21/09 16:51 
Jeff	Lewis	1/21/09 16:51 
Kelsey	Sarkar	1/21/09 16:52 
Chelsea	Gaudin	1/21/09 16:52 
Jalecia	Babbitt	1/21/09 16:53 
Jordan	Indvik	1/21/09 16:54 
Hanna	Maggetti	1/21/09 16:54 
Harper	Granovskaya	1/21/09 16:56 
Cassandra	Booker	1/21/09 16:57 
Alison	Hilliard	1/21/09 16:57 
Bridget	Marbury	1/21/09 16:57 
Amy	Dey	1/21/09 16:59 
Meghan	Puccio	1/21/09 16:59 
Lyndon	Tinling	1/21/09 17:01 
Lorraine	Araman	1/21/09 17:03 
Nora	Wiley	1/21/09 17:03 
Nelson	Wolf	1/21/09 17:05 
Tim	Estes	1/21/09 17:06 
Jane	Saini	1/21/09 17:10 
Courtney	Stern	1/21/09 17:12 
Julia	Hamel	1/21/09 17:14 
Leland	Davies	1/21/09 17:16 
John	Dolstad	1/21/09 17:18 
Lea	Dulak	1/21/09 17:28 
Patricia	Schmidt	1/21/09 17:33 
Benjamin	Hunt	1/21/09 17:37 
Elyssa	Berger	1/21/09 17:42 
Nora	Carlson	1/21/09 17:45 
Mark	Geck	1/21/09 17:47 
Melissa	Carunchia	1/21/09 17:50 
Rebecca	Northern	1/21/09 17:52 
Charlie	Boxer	1/21/09 17:55 
Krystin	Gongwer	1/21/09 17:56 
Kelly	Calder	1/21/09 17:58 
Sidny	Douglas	1/21/09 17:59 
Ana	Richards	1/21/09 18:03 
Kevin	COBB	1/21/09 18:04 
Rachel	Bombasaro-Brady	1/21/09 18:05 
Lauren	Madhusoodanan	1/21/09 18:07 
Travis	Strelsin	1/21/09 18:07 
Mark	Katz	1/21/09 18:10 
Dominique	Padasak	1/21/09 18:12 
Alexandra	Colwell	1/21/09 18:12 
Tracy	Burdiss	1/21/09 18:13 
Cassandra	Lerback	1/21/09 18:14 
Tatiana	Maccabe	1/21/09 18:17 
Shannon	Miller	1/21/09 18:19 
Catherine	Pellowe	1/21/09 18:19 
X	Palley	1/21/09 18:19 
Visvesvaran	Muldoon	1/21/09 18:21 
Joe	Lepore	1/21/09 18:22 
Sara	Taylor	1/21/09 18:23 
Sean	Nicol	1/21/09 18:23 
Will	Peterson	1/21/09 18:25 
Kelly	Ver Burg	1/21/09 18:28 
Bryan	Somor	1/21/09 18:29 
Jesus	Xx	1/21/09 18:29 
Jennifer	Theodorou	1/21/09 18:31 
Ben	Powell	1/21/09 18:33 
Lukas	Thelen	1/21/09 18:35 
Erin	Russo	1/21/09 18:35 
Jordan	Bookstein	1/21/09 18:38 
Keith	McKeon	1/21/09 18:39 
Melissa	Mandrell	1/21/09 18:40 
Ashley	Macmillan	1/21/09 18:41 
Alexa	Santana	1/21/09 18:41 
Briana	Deng	1/21/09 18:44 
Patrick	Moeller	1/21/09 18:44 
Aaron	Weyer	1/21/09 18:45 
Theresa	Hudson	1/21/09 18:48 
Patrick	Albrecht	1/21/09 18:48 
Jaclyn	Tsai	1/21/09 18:48 
Andrew	Cine	1/21/09 18:48 
Ian	Knowles	1/21/09 18:50 
Gideon	Terry	1/21/09 18:51 
Delphine	Clenney	1/21/09 18:51 
Michael	Tsitrian	1/21/09 18:52 
Jessica	Stockman	1/21/09 18:53 
Oliver	Lynch	1/21/09 18:54 
Jennifer	Jennings	1/21/09 18:54 
Eliza	Consroe	1/21/09 18:54 
Yiting	Gamache	1/21/09 18:56 
Mera	Oakes	1/21/09 18:56 
Amber	Rentz	1/21/09 18:57 
Alexis	Jenkins	1/21/09 18:57 
Jessica	Lumbert	1/21/09 18:57 
Wren	Shaw	1/21/09 18:58 
Jessica	Shreve	1/21/09 18:58 
Chris	Her	1/21/09 18:59 
Joe	Rothenberg	1/21/09 19:00 
Taylor	Hollis	1/21/09 19:00 
Dave	Null	1/21/09 19:01 
Catherine	Placey	1/21/09 19:01 
Tara	Madry	1/21/09 19:01 
Stephanie	Pontisakos	1/21/09 19:02 
Ethan	Wilke	1/21/09 19:02 
Joshua	Gorman	1/21/09 19:03 
Lena	East	1/21/09 19:03 
Amy	Dakay	1/21/09 19:04 
Elizabeth	Hindes	1/21/09 19:04 
Katie	Langdon	1/21/09 19:05 
Elena	Finn	1/21/09 19:06 
Kevin	Shlobohn	1/21/09 19:07 
Chelsea	Kowsky	1/21/09 19:07 
Jane	Hastings	1/21/09 19:07 
Sarah	Pickoff	1/21/09 19:08 
Brandon	Bruckner	1/21/09 19:08 
Travell	Sachnoff	1/21/09 19:09 
Eva	Smith	1/21/09 19:10 
Shannon	Phillips	1/21/09 19:10 
Jamie	Syndor	1/21/09 19:10 
Lila	Phillips	1/21/09 19:10 
Evan	Sekban	1/21/09 19:11 
Daniel	Colson	1/21/09 19:11 
Kristin	King	1/21/09 19:12 
Gabriela	Kiener	1/21/09 19:12 
Leslie	Nair	1/21/09 19:12 
Mary	Grant	1/21/09 19:12 
Nina	Halbfinger	1/21/09 19:14 
Ryan	Duncombe	1/21/09 19:14 
Joseph	Masterson	1/21/09 19:14 
Courtney	Grossmann	1/21/09 19:14 
Joanna	Raymond	1/21/09 19:15 
Kim	Weiner-Kaplow	1/21/09 19:16 
Ben	Spagnuolo	1/21/09 19:18 
Chris	Daole-Wellman	1/21/09 19:20 
Corina	Habersham	1/21/09 19:22 
John	Wikler	1/21/09 19:23 
Bill	Kinney	1/21/09 19:24 
Robyn	Phillips	1/21/09 19:24 
Corey	Liu	1/21/09 19:26 
Robby	Luong	1/21/09 19:26 
Shawn	Iacovone	1/21/09 19:27 
Ben	Metzman	1/21/09 19:28 
Jane	O'Hara	1/21/09 19:29 
Shannon	DiFrancesco	1/21/09 19:29 
Jason	Kokuba	1/21/09 19:30 
Jane	Metzel	1/21/09 19:31 
Damon	Odland	1/21/09 19:32 
Claire	Gaithe	1/21/09 19:33 
Rochelle	Lichti	1/21/09 19:33 
Ja	Spraggs	1/21/09 19:33 
Camilla	O'Reilly	1/21/09 19:34 
Allison	Hatch	1/21/09 19:34 
Jonathan	Callum	1/21/09 19:35 
John	Venegas	1/21/09 19:35 
Kate	Suemnicht	1/21/09 19:35 
Kara	Boisvert	1/21/09 19:36 
Rebecca	Guaderrama	1/21/09 19:37 
Matt	Webster	1/21/09 19:38 
Katelyn	Jenkins	1/21/09 19:39 
Connor	Tamplin	1/21/09 19:39 
Eli Marie	Segal	1/21/09 19:40 
Diane	Baker	1/21/09 19:42 
Nathan	Morales	1/21/09 19:42 
Allison	Lang	1/21/09 19:43 
Rebecca	Goodlaw-Morris	1/21/09 19:45 
Raphael	Lukehart	1/21/09 19:47 
Mateh	Curtis	1/21/09 19:47 
Null	Bernacett	1/21/09 19:47 
Max	Smile	1/21/09 19:49 
Ava	Emmerman	1/21/09 19:51 
Peter	Peshek	1/21/09 19:52 
Jomar	McNeil	1/21/09 19:52 
Peter	Chan	1/21/09 19:53 
Ian	Wallace	1/21/09 19:53 
Meryn	Soper	1/21/09 19:55 
Shelby	Waterfoot	1/21/09 19:56 
Dyanna	Finck-Haynes	1/21/09 19:58 
Zach	Olesh	1/21/09 19:58 
Eric	Hoffman	1/21/09 19:59 
Lindsey	Metevier	1/21/09 19:59 
David	Eysenbach	1/21/09 1:00 
Kate	Gloss	1/21/09 1:08 
Jenifer	Clay	1/21/09 1:11 
Kirsten	Ege	1/21/09 1:13 
Neah	Friends2	1/21/09 1:15 
Null	Slocombe	1/21/09 1:17 
Erin	Moore	1/21/09 1:19 
Jessica	Godfrey	1/21/09 1:20 
Eric	Harden	1/21/09 1:20 
John	Honani	1/21/09 1:22 
Timothy	Engel	1/21/09 1:23 
Cara	Slavik	1/21/09 1:25 
Emily	Finklestein	1/21/09 1:39 
Matthew	Defrancisco	1/21/09 20:01 
Zoe	Wenzel	1/21/09 20:04 
Monica	Lippincott	1/21/09 20:05 
Nicholas	Bochner	1/21/09 20:06 
Justine	DeCamp	1/21/09 20:06 
Sarah	Brunton	1/21/09 20:08 
John	Copenhaver	1/21/09 20:08 
Autumn	Hartley	1/21/09 20:09 
Dominique	Greenberg	1/21/09 20:09 
Shannon	Kowsz	1/21/09 20:09 
Laurie	Plouff	1/21/09 20:10 
Garcia	Song	1/21/09 20:11 
Carolyn	Tuttle	1/21/09 20:12 
Kaycee	Chang	1/21/09 20:12 
Jackie	Vickery	1/21/09 20:12 
Amanda	Silkes	1/21/09 20:12 
Bryan	Vates	1/21/09 20:13 
Ashton	Childers	1/21/09 20:14 
Zachary	Schettino	1/21/09 20:15 
Marina	Hill	1/21/09 20:15 
Laura	Bergstrom	1/21/09 20:15 
Dan	Nash	1/21/09 20:15 
Juliette	Pepper	1/21/09 20:16 
Laughlin	Marcolini	1/21/09 20:17 
Linda	Lencsak	1/21/09 20:17 
Connor	Szczpanski	1/21/09 20:17 
Abbey	Freedman	1/21/09 20:18 
Brooke	Searle	1/21/09 20:18 
Kelly	Berry	1/21/09 20:18 
Ed	Talluri	1/21/09 20:19 
Rob	Frye	1/21/09 20:19 
Julia	Hatcher	1/21/09 20:20 
Annalise	Hluchy	1/21/09 20:20 
Yolanda	Pollard	1/21/09 20:21 
Nick	Shafman	1/21/09 20:21 
Ali	Easterling	1/21/09 20:21 
Sara	Fuccillo	1/21/09 20:21 
Miriam	Kropf	1/21/09 20:22 
I	Moore	1/21/09 20:22 
Sarah	Xx	1/21/09 20:22 
Ben	Fitzgerald	1/21/09 20:23 
Sabina	McGraw	1/21/09 20:24 
Marisa	Perkins	1/21/09 20:24 
Phil	Steinberger	1/21/09 20:24 
Alyse	Brown	1/21/09 20:24 
Chelsea	Houser	1/21/09 20:25 
Darryn	Sharma	1/21/09 20:25 
Rio	Van Alstyne	1/21/09 20:25 
Chelsea	Turadek	1/21/09 20:26 
Erica	Seman	1/21/09 20:26 
Holly	Handzo	1/21/09 20:26 
Rachel	Smith	1/21/09 20:26 
Kathryn	Schemkes	1/21/09 20:28 
Kyle	Harvey	1/21/09 20:28 
Luke	Nieto	1/21/09 20:28 
Tam	Hale	1/21/09 20:28 
Katherine	Bustos	1/21/09 20:29 
Debra	Carlisle	1/21/09 20:30 
Juliana	Mikusa	1/21/09 20:31 
Margaret	Lamoy	1/21/09 20:32 
Bria	Adler	1/21/09 20:32 
Heather	Sealy	1/21/09 20:32 
Michael	Akers	1/21/09 20:32 
Julie	Winegrad	1/21/09 20:33 
Jonathan	Shott	1/21/09 20:34 
Maren	Olsen	1/21/09 20:34 
Kate	Garcia Jr.	1/21/09 20:35 
Colin	Sosa	1/21/09 20:35 
Joshua	McCleery	1/21/09 20:35 
Lura	Orban	1/21/09 20:35 
X	Pagnoni	1/21/09 20:37 
Taylor	Anderson	1/21/09 20:37 
Leigh	Brady	1/21/09 20:38 
Steven	Bender	1/21/09 20:39 
Sonia	Holak	1/21/09 20:39 
Mira	Roos	1/21/09 20:39 
Emily	Fitzgerald	1/21/09 20:39 
Kate	McGinnis	1/21/09 20:39 
Jennifer	Plotsky	1/21/09 20:40 
Nikki	Erb	1/21/09 20:41 
Mike	D	1/21/09 20:41 
Jonathan	Schwartzman	1/21/09 20:42 
Erin	Keene	1/21/09 20:43 
Aaron	Whitridge	1/21/09 20:43 
Miriam	Godwin	1/21/09 20:44 
Ian	Casati	1/21/09 20:44 
Arthur	Jimenez	1/21/09 20:44 
Lena	Tesdal	1/21/09 20:44 
Kevin	Ward	1/21/09 20:45 
YOA	Nordstrom	1/21/09 20:45 
Sara	Penniman	1/21/09 20:46 
Santa	Doe	1/21/09 20:46 
Samantha	9	1/21/09 20:46 
David	Henmueller	1/21/09 20:47 
Cassie	Hoffman	1/21/09 20:47 
Jennifer	Dodd	1/21/09 20:47 
Liesel	Kosakowski	1/21/09 20:48 
Libby	Schall	1/21/09 20:48 
Patricia	Drury	1/21/09 20:48 
David	Andrews	1/21/09 20:48 
Hilary	Rogowski	1/21/09 20:48 
Jesse	Kramer	1/21/09 20:49 
Christopher	Kroon VanDiest	1/21/09 20:50 
Mike	Rohlf	1/21/09 20:50 
Leanna	D'Acunto	1/21/09 20:50 
Pablo	Malchoff	1/21/09 20:51 
David	Two	1/21/09 20:51 
Jessica	Horvath	1/21/09 20:51 
John	Bigwood	1/21/09 20:51 
Hannah	Fleming	1/21/09 20:51 
John	Sharrow	1/21/09 20:52 
Daria	Pessemier	1/21/09 20:52 
Joe	Waterman	1/21/09 20:53 
Kathryn	Brown	1/21/09 20:53 
Amy	Cronan Jr	1/21/09 20:54 
John	Ng	1/21/09 20:54 
Carly	Talbot	1/21/09 20:55 
Kathleen	Renaud	1/21/09 20:55 
Emilie	Doe	1/21/09 20:55 
Ariana	Douglas	1/21/09 20:55 
Yuxiang	Ryan	1/21/09 20:55 
Becky	Baker	1/21/09 20:56 
Kalin	Action	1/21/09 20:56 
Deb	Davis	1/21/09 20:57 
Anna	Zeng	1/21/09 20:57 
Jane	Nazdin	1/21/09 20:57 
David	Cohen-Fuentes	1/21/09 20:58 
Micah	Waughtel	1/21/09 20:58 
Jonah	Shiflett	1/21/09 20:59 
Alison	King	1/21/09 20:59 
Dana	Garvey-Hall	1/21/09 20:59 
Bruce	Tse	1/21/09 20:59 
Tanvi	Smoot	1/21/09 21:00 
Andrew	Strano	1/21/09 21:00 
Meagan	Bombard	1/21/09 21:00 
May	Gillard	1/21/09 21:00 
Amanda	McGrain	1/21/09 21:01 
Hilary	Bernhardt	1/21/09 21:01 
Shane	Dawe	1/21/09 21:01 
Natalie	Pizzo	1/21/09 21:02 
Jesse	Wadsworth	1/21/09 21:02 
Keiichiro	Johnston	1/21/09 21:02 
Ami	Matthews	1/21/09 21:03 
Jessica	Clark	1/21/09 21:03 
Gavin	Perry	1/21/09 21:04 
Amy	Clark	1/21/09 21:04 
Rachel	Marsalek	1/21/09 21:04 
Clare	Smith	1/21/09 21:05 
Christov	Jaffe	1/21/09 21:05 
Stephen	Russ	1/21/09 21:05 
Srdjk	Pavao	1/21/09 21:05 
Tayler	Stedtler	1/21/09 21:05 
Ewen	Duncan Smith	1/21/09 21:06 
Elizabeth	Sinozich	1/21/09 21:07 
Leah	Altendorfer	1/21/09 21:07 
Peter	McShane	1/21/09 21:08 
Hannah	Berchenko	1/21/09 21:08 
D	Bast	1/21/09 21:09 
Candice	Hung	1/21/09 21:09 
Joseph	Metcalf	1/21/09 21:09 
Diana	O'Donnell	1/21/09 21:09 
John	Eller	1/21/09 21:10 
Jordan	Wolf	1/21/09 21:11 
Randall	Noe	1/21/09 21:11 
Scott	Dahlberg	1/21/09 21:12 
Amy	Carpenter	1/21/09 21:12 
Jerry	Hallman	1/21/09 21:13 
Ian	Stevenson	1/21/09 21:13 
Maureen	Alia	1/21/09 21:13 
Roz	Fries	1/21/09 21:13 
Cassandra	Cano	1/21/09 21:14 
Larry	Caldwell	1/21/09 21:14 
Arthur	Doe	1/21/09 21:15 
Juliana	Murrey	1/21/09 21:15 
Ruby	Wells	1/21/09 21:15 
Maren	Gill	1/21/09 21:16 
Lauren	Clarke	1/21/09 21:16 
CC	Soto	1/21/09 21:17 
Teen	Kirby	1/21/09 21:17 
William	Gardner	1/21/09 21:17 
Mareeha	Curtis	1/21/09 21:17 
Aaron	Krasner	1/21/09 21:18 
Laura	Thompson	1/21/09 21:18 
Andrew	Ikebe	1/21/09 21:18 
Kelsi	Gorman	1/21/09 21:18 
Molly	Harbert	1/21/09 21:20 
Daoyen	Pagan	1/21/09 21:21 
John	White	1/21/09 21:21 
Francisco	Rush	1/21/09 21:22 
Alexandra	Rubenstein	1/21/09 21:22 
Null	Rossmeissl	1/21/09 21:23 
Carl	Tsosie	1/21/09 21:23 
Andrew	Xx	1/21/09 21:24 
David	Bosworth	1/21/09 21:24 
Alyssa	Copeland	1/21/09 21:24 
Benjamin	Gray	1/21/09 21:24 
Ben	Newcomer	1/21/09 21:25 
Ivey	Sapelli	1/21/09 21:25 
Xarissa	Stilwell	1/21/09 21:26 
Kentaro	Jin	1/21/09 21:26 
Janine	Estes	1/21/09 21:26 
Stephanie	Sebasky	1/21/09 21:26 
Brenna	Wang	1/21/09 21:27 
Casey	Haley	1/21/09 21:28 
Null	Manley	1/21/09 21:28 
Hassan	Packard	1/21/09 21:28 
Ashleigh	Fialkow	1/21/09 21:28 
Maria	Safren	1/21/09 21:29 
Shannon "Kat"	Beatty	1/21/09 21:29 
Elliot	Earnest	1/21/09 21:30 
Rhys	Hart	1/21/09 21:30 
Leah	Lapointe	1/21/09 21:30 
Sarah	Haber	1/21/09 21:30 
Michelle	Malone	1/21/09 21:31 
Mark	Birnbaum	1/21/09 21:31 
Kelly	Mazanec	1/21/09 21:31 
Avery	Smith	1/21/09 21:32 
Lauren	Jones	1/21/09 21:33 
Liana	Baron	1/21/09 21:33 
Craig	Mitchell	1/21/09 21:34 
Hayley	Jacobson	1/21/09 21:34 
Clare	Cooper	1/21/09 21:35 
Matt	Schanz-Garbassi	1/21/09 21:35 
Jessica	Barrows	1/21/09 21:36 
Kristin	Capili	1/21/09 21:36 
Matthew	Brown	1/21/09 21:36 
Redmond	Conti	1/21/09 21:36 
Khari	Kahane	1/21/09 21:37 
Derek	Chen	1/21/09 21:37 
Chance	Mason	1/21/09 21:38 
Barbara	Dornbush	1/21/09 21:38 
Paula	Thomp	1/21/09 21:38 
Shane	Littlehale	1/21/09 21:38 
John	Cannon	1/21/09 21:39 
Carey	Thomas	1/21/09 21:39 
Amanda	Titus	1/21/09 21:39 
Jack	Richards	1/21/09 21:40 
Thomas	Collins	1/21/09 21:41 
Rowan	Fetzer	1/21/09 21:41 
Kyle	Breham	1/21/09 21:42 
HyeJin	MacDonald	1/21/09 21:42 
Makiko	Ehrenwerth	1/21/09 21:42 
Amanda	Cicala	1/21/09 21:43 
Daniel	Potter	1/21/09 21:43 
Rachel	Annex	1/21/09 21:43 
Ariel	Forootanshad	1/21/09 21:43 
Kaitlin	Santiago	1/21/09 21:44 
Null	Tanner	1/21/09 21:46 
Abigail	Gooding	1/21/09 21:46 
Laura	Almquist	1/21/09 21:46 
Josiah	Mckenna	1/21/09 21:46 
Ashley	Abrams	1/21/09 21:47 
Laura	Fox	1/21/09 21:47 
Claudia	Gilchrist	1/21/09 21:48 
Eliav	Merrill	1/21/09 21:48 
X	Nasirudin	1/21/09 21:48 
Sean	Salm	1/21/09 21:49 
Trevor	Calabrese	1/21/09 21:51 
Kara	Modak	1/21/09 21:52 
Lauren	Two	1/21/09 21:52 
Nina	Kane	1/21/09 21:52 
Sophia	Tecleab	1/21/09 21:53 
Lauren	Mann	1/21/09 21:53 
You	Gagnon	1/21/09 21:53 
Sarah	Poffenbarger	1/21/09 21:53 
Elizabeth	Heil	1/21/09 21:54 
Null	Xx	1/21/09 21:54 
Julie	Null	1/21/09 21:55 
Catharine	Sedlet	1/21/09 21:55 
Sara	Wimberly	1/21/09 21:55 
Caitlin	Bowden	1/21/09 21:56 
Tammy	Aye	1/21/09 21:57 
Ryan	White	1/21/09 21:57 
Elaine	Seblova	1/21/09 21:57 
Elliot	Miller	1/21/09 21:58 
Dave	Saucier	1/21/09 21:59 
Robert	Oorthuys	1/21/09 22:00 
Karolina	Akebrand	1/21/09 22:00 
Megan	Engel	1/21/09 22:00 
Mollie	Mussehl	1/21/09 22:00 
Sarah	Hairabedian	1/21/09 22:01 
Null	Heshan	1/21/09 22:02 
Alex	Severson	1/21/09 22:02 
Carroll	Spencer	1/21/09 22:02 
Tess	Hoss	1/21/09 22:03 
Joshua	Mathews	1/21/09 22:03 
Kristen	Gilbert	1/21/09 22:03 
Sumedha	Murphy	1/21/09 22:04 
Holly	Costello	1/21/09 22:05 
Sarah	Uhl	1/21/09 22:05 
5175	Doe	1/21/09 22:05 
Kirby	Rivell	1/21/09 22:05 
Gabriel	Nadasdy	1/21/09 22:06 
Ashley	Taylor	1/21/09 22:06 
Blair	Pradhan	1/21/09 22:07 
Student	Myett	1/21/09 22:07 
Micahel	Roby	1/21/09 22:08 
Alima	Pontious	1/21/09 22:08 
Allegra	Lopez	1/21/09 22:08 
Adrienne	Xx	1/21/09 22:09 
Jacqueline	Tinker	1/21/09 22:09 
Isabel	Harder	1/21/09 22:09 
Cliff	Siler	1/21/09 22:10 
Jessica	Doe	1/21/09 22:10 
Eileen	Ludmer	1/21/09 22:11 
Andrew	Holloway	1/21/09 22:11 
Julia	Hale	1/21/09 22:11 
Ginny	Bartlett	1/21/09 22:11 
Liz	Kamsutchom	1/21/09 22:11 
Andrew	Wasmuth	1/21/09 22:11 
Leny	Meaney	1/21/09 22:13 
Alex	Boozel	1/21/09 22:13 
Elizabeth	Glick	1/21/09 22:13 
Lauren	Smith	1/21/09 22:13 
X	Baker	1/21/09 22:13 
William	Stevens	1/21/09 22:14 
Suzanne	Tanner	1/21/09 22:14 
Susan	Berkley	1/21/09 22:15 
Miwa	Meersman	1/21/09 22:15 
Thomas	Friend1	1/21/09 22:15 
Thomas	Okafor	1/21/09 22:16 
Katya	Oliver	1/21/09 22:16 
Brendan	Five	1/21/09 22:16 
Rachel	Kline	1/21/09 22:16 
Emma	Kopkin	1/21/09 22:17 
Victoria	Bangasser	1/21/09 22:17 
Laney	Tyson	1/21/09 22:17 
Adam	Read	1/21/09 22:17 
Mark	Farinacci	1/21/09 22:17 
Sarah	Rosenblad	1/21/09 22:18 
Dan	Weinberger	1/21/09 22:18 
Pelham	Paul	1/21/09 22:18 
Laura	Pearce	1/21/09 22:19 
Kate	Armacost	1/21/09 22:19 
Heather	Foley	1/21/09 22:19 
Rachel	Redmond	1/21/09 22:19 
Robin	Mylius	1/21/09 22:20 
Elizabeth	Rasmusser	1/21/09 22:20 
Addison	Joyce	1/21/09 22:20 
Ian	Nichols	1/21/09 22:20 
Taryn	Williams	1/21/09 22:20 
Ryan	Shope	1/21/09 22:21 
Rossi	Storrow	1/21/09 22:21 
Leah	Close	1/21/09 22:21 
Paul	Ackerman	1/21/09 22:21 
Kelly	Ambroselli	1/21/09 22:22 
Corinthia	Wong	1/21/09 22:22 
Ragini	Moss	1/21/09 22:22 
Michelle	Vescovo	1/21/09 22:23 
Rachael	Sinclair	1/21/09 22:23 
Matthew	Franko	1/21/09 22:23 
Julian	Miller	1/21/09 22:23 
Anne	Perret	1/21/09 22:23 
Jessica	Bradley	1/21/09 22:23 
Sasha	Norton	1/21/09 22:24 
Anna	Brown	1/21/09 22:24 
Leala	Hillery	1/21/09 22:24 
Preeta	Boatwright	1/21/09 22:24 
Ryan	Bryant	1/21/09 22:24 
Amanda	Singer	1/21/09 22:24 
Kimberly	Smith	1/21/09 22:26 
Kadie	Hillman	1/21/09 22:26 
Sean	Zastrow	1/21/09 22:26 
Erin	Schy	1/21/09 22:26 
Alex	Diaz	1/21/09 22:27 
Guillaume	Marx	1/21/09 22:27 
Jason	Arnold	1/21/09 22:27 
John	Tough	1/21/09 22:27 
Stephanie	Seyferth	1/21/09 22:27 
Glenn	Chao	1/21/09 22:28 
Aida	Nutter-Upham	1/21/09 22:28 
Rachel	Means	1/21/09 22:29 
Zach	Jones	1/21/09 22:29 
Anna	Turrell	1/21/09 22:29 
Clark	Tromba	1/21/09 22:29 
Whitney	Bartolacci	1/21/09 22:29 
Kayla	Jones	1/21/09 22:29 
Sarah	Leonard	1/21/09 22:30 
Jeremy	Matkin	1/21/09 22:30 
Jonathan	Swinton	1/21/09 22:31 
Lindsay	Migliorini	1/21/09 22:31 
Teen	Waldo	1/21/09 22:31 
Justin	Kazinka	1/21/09 22:31 
Kate	Parsons	1/21/09 22:31 
Paul	Porter	1/21/09 22:31 
Kimberley	Nelson	1/21/09 22:31 
Allegra	Rice	1/21/09 22:32 
Elizabeth	Bodnar	1/21/09 22:32 
Anna	Wykstra	1/21/09 22:32 
Maura	Batley	1/21/09 22:32 
Natalie	Kleinsasser	1/21/09 22:32 
John	Kerner	1/21/09 22:33 
Rebecca	Seeliger	1/21/09 22:33 
Marissa	Crosson	1/21/09 22:33 
Aida	Dow	1/21/09 22:33 
Matthew	Xx	1/21/09 22:33 
Simon	Shulman	1/21/09 22:33 
Trip	Raju	1/21/09 22:33 
Jessica	Dulys-Nusbaum	1/21/09 22:34 
Adam	Dordt	1/21/09 22:34 
Kaeli	Petty	1/21/09 22:34 
Jacob	Sheridan	1/21/09 22:35 
Stacy	Peeler	1/21/09 22:35 
Amy	Weinberger	1/21/09 22:35 
Ondine	Goodman	1/21/09 22:36 
Susanna	Hildreth	1/21/09 22:36 
Mona	Leimenstoll	1/21/09 22:36 
Hilary	Reed	1/21/09 22:36 
Linda	Peterson	1/21/09 22:37 
Alexandra	Smith-Herman	1/21/09 22:37 
Brandon	Hoh	1/21/09 22:37 
Student	Putko	1/21/09 22:37 
Hallie	Steger-Hoey	1/21/09 22:38 
X	Fitzgerald-Pittman	1/21/09 22:38 
Guan	Blaushild	1/21/09 22:38 
Luisana	Penniman	1/21/09 22:38 
James	WARDELL	1/21/09 22:38 
Nina	Mitchell	1/21/09 22:39 
Kaethin	Russo	1/21/09 22:39 
Vanessa	Beckman	1/21/09 22:39 
Nora	Bender	1/21/09 22:39 
Joseph	Thompson	1/21/09 22:39 
Katie	Rodriguez	1/21/09 22:39 
Rachel	Rustom	1/21/09 22:39 
Uncw2	Shamel	1/21/09 22:40 
Sean	Buggle	1/21/09 22:40 
Jennifer	Marvin	1/21/09 22:40 
D.C.	Upstill	1/21/09 22:40 
Michael	Parshley	1/21/09 22:40 
Jamie1	Dimitrievski	1/21/09 22:41 
Robert	Sandhu	1/21/09 22:41 
Brian	Gaskill	1/21/09 22:41 
Courtney	Kuria	1/21/09 22:41 
Alyssa	Saint Felix	1/21/09 22:41 
Nicole	Davis	1/21/09 22:42 
Alice	L	1/21/09 22:42 
Emily	Jadanova	1/21/09 22:42 
Tyler	Collins	1/21/09 22:43 
Sara	Collier	1/21/09 22:43 
Caleb	Rowleff	1/21/09 22:43 
Cloe	Lepping	1/21/09 22:43 
Casey	Jaroszewicz	1/21/09 22:43 
Ellen	Fayemi	1/21/09 22:44 
Ben	Chen	1/21/09 22:44 
Sarah	Sankey	1/21/09 22:44 
Joe	Jones	1/21/09 22:44 
Heather	Mansfield	1/21/09 22:44 
Madeleine	Dixon	1/21/09 22:45 
Michael	Doe	1/21/09 22:45 
Luke	Schaffer	1/21/09 22:45 
Laura	Thai	1/21/09 22:45 
Nicole	Perry	1/21/09 22:45 
Gabriel	Jakubowski	1/21/09 22:46 
Lauren	Bessette	1/21/09 22:46 
Mollie	Goodman	1/21/09 22:46 
John	Fink	1/21/09 22:46 
Erica	Lovell	1/21/09 22:46 
Dave	Waldorf	1/21/09 22:47 
Susan	Woodall	1/21/09 22:47 
Matthew	Gibbs	1/21/09 22:47 
Terrance	Fletcher	1/21/09 22:47 
Kelsea	Davis	1/21/09 22:47 
Emily	Lichty	1/21/09 22:47 
Matthew	Schweiger	1/21/09 22:47 
Blair	Hickerson	1/21/09 22:47 
Myriam	Chase	1/21/09 22:47 
Alex	Roper	1/21/09 22:48 
Caitlin	Cain	1/21/09 22:48 
Gabriela	Veytsman	1/21/09 22:49 
Monica	Macko	1/21/09 22:49 
Julia	Madden	1/21/09 22:49 
Taylor	Bauer	1/21/09 22:49 
Danielle	Warren	1/21/09 22:49 
Brittni	Walker	1/21/09 22:49 
Chris	Bradley	1/21/09 22:49 
Ladulé	Randazo	1/21/09 22:50 
Morgan	Garrett	1/21/09 22:50 
Erica	Jones	1/21/09 22:50 
Raphael	Burdette	1/21/09 22:50 
Calder	Bulger	1/21/09 22:50 
Karson	Dowd	1/21/09 22:50 
Faye	Rohmer	1/21/09 22:51 
X	McKinley	1/21/09 22:51 
Krisztina	Roelofs	1/21/09 22:51 
Lisa	Kearney	1/21/09 22:51 
Corey	Markowitz	1/21/09 22:51 
Alexandria	Williams	1/21/09 22:51 
Justin	Stanich	1/21/09 22:51 
Sarah	Du	1/21/09 22:51 
Holly	O'Brien	1/21/09 22:52 
Jena	Burtness-Adams	1/21/09 22:52 
Kimberly	Furey	1/21/09 22:52 
John	McMeekin	1/21/09 22:53 
Jake	Hall	1/21/09 22:53 
Ryan	Walker	1/21/09 22:53 
Sara	Campbell	1/21/09 22:53 
Gabrielle	Stoneking	1/21/09 22:53 
Vanessa	Slininger	1/21/09 22:54 
Grace	Reinoso	1/21/09 22:54 
Brigitte	Farrell	1/21/09 22:54 
Bret	Ebersole	1/21/09 22:54 
Ema	Olson	1/21/09 22:55 
Ken	Tate	1/21/09 22:55 
Nell	Houghton	1/21/09 22:55 
Charlotte	Dillon	1/21/09 22:55 
Jeff	Chan	1/21/09 22:55 
Chong	Hamilton	1/21/09 22:55 
Sarah	Lichtenauer	1/21/09 22:56 
Kerrie	Scheller	1/21/09 22:56 
Amanda	Geller	1/21/09 22:56 
Robert	Wein	1/21/09 22:56 
Kevin	Heil	1/21/09 22:56 
Kate	Wojtalewicz	1/21/09 22:56 
Tamara	Caruso	1/21/09 22:57 
Katie	Scott	1/21/09 22:57 
Katherine	Landau	1/21/09 22:57 
Andrew	Razryadov	1/21/09 22:57 
Shirmila	Follaytar	1/21/09 22:57 
Ashley	Lopez	1/21/09 22:58 
Kate	CRess	1/21/09 22:58 
Jennifer	Rothman	1/21/09 22:58 
Alejandro	Kane	1/21/09 22:58 
Max	Aprea	1/21/09 22:58 
Courtney	Davis	1/21/09 22:59 
Jessica	Campbell	1/21/09 22:59 
David	Enyew	1/21/09 22:59 
Brendan	Lyle	1/21/09 22:59 
Rachel	Milem	1/21/09 23:00 
Brittney	Null	1/21/09 23:00 
Hannah	Moskowitz	1/21/09 23:00 
John	Jahne	1/21/09 23:00 
Tony	Reay	1/21/09 23:01 
Christine	Leland	1/21/09 23:01 
Hala	Ziegler	1/21/09 23:01 
Sebastien	Maloney	1/21/09 23:01 
Eric	Spock	1/21/09 23:01 
Malia	Schnibbe	1/21/09 23:02 
Stormie	Brower	1/21/09 23:02 
Matt	Thomas	1/21/09 23:03 
Mary Claire	Kobaru	1/21/09 23:03 
Jennifer	Jones	1/21/09 23:04 
Amanda	Leving	1/21/09 23:04 
Michael	Chevalier	1/21/09 23:04 
Chelsea	Fink	1/21/09 23:04 
K	Duncan	1/21/09 23:04 
Abel	Doe	1/21/09 23:05 
Cress	Schafer	1/21/09 23:05 
Rob	Kohles	1/21/09 23:06 
Natalie	Jones	1/21/09 23:06 
Ryan	Freund	1/21/09 23:06 
Alex	Xx	1/21/09 23:06 
Will	Becenti	1/21/09 23:07 
Molly	Jackson	1/21/09 23:08 
Kate	Dodson	1/21/09 23:08 
Dante	Smith	1/21/09 23:08 
Finley	Davis	1/21/09 23:08 
Caterina	Meth	1/21/09 23:09 
David	Wendt	1/21/09 23:09 
Emma	Snitzer	1/21/09 23:10 
Abigail	Manjarra	1/21/09 23:10 
Martha	Hazlett	1/21/09 23:11 
Vanessa	Dawson	1/21/09 23:11 
Sara	Tyrrell	1/21/09 23:11 
Alex	Holt	1/21/09 23:11 
Taylor	Klinger	1/21/09 23:11 
Ethan	Atwood	1/21/09 23:12 
Lauren	Gould	1/21/09 23:12 
Raymond	Vyas	1/21/09 23:13 
Elena	Richardson	1/21/09 23:14 
Cate	O'Flaherty	1/21/09 23:15 
Jake	Lowe	1/21/09 23:15 
Kevin	Krause	1/21/09 23:16 
Nina	Storch	1/21/09 23:16 
Dhanya	Van Cleve	1/21/09 23:16 
Jenny	Bayne	1/21/09 23:17 
Jessica	Kinser	1/21/09 23:17 
Melissa	Landon	1/21/09 23:18 
Clay	Frigge-Hartlaub	1/21/09 23:18 
Mary	Jolly	1/21/09 23:19 
Brian	Simpson	1/21/09 23:19 
Christopher	Gwynn	1/21/09 23:19 
Danielle	Henderson	1/21/09 23:20 
Claire	Dahl	1/21/09 23:21 
Robert	Perkins-High	1/21/09 23:22 
Sophie	Weinmann	1/21/09 23:22 
Craig	Chapman	1/21/09 23:22 
Ginger	Smith	1/21/09 23:22 
Maggie	Samuels	1/21/09 23:23 
Kelly	Stegmaier	1/21/09 23:24 
Anna	Xx	1/21/09 23:24 
Erin	Broussard	1/21/09 23:24 
Audriaunna	McDonald	1/21/09 23:24 
Kartik	Piech	1/21/09 23:24 
Emma	Vargas	1/21/09 23:24 
X	Lee	1/21/09 23:24 
Jonathan	Bladis	1/21/09 23:25 
Kirsten	Arend	1/21/09 23:25 
Samantha	Miller-Hershon	1/21/09 23:25 
Madeline	DOE	1/21/09 23:25 
Jamie	Connor	1/21/09 23:25 
Elena	Ellis	1/21/09 23:26 
Kyle	Ege	1/21/09 23:26 
Anna	Drew	1/21/09 23:26 
Sunny	Alex	1/21/09 23:27 
Jackleen "Sarah"	Saltanis	1/21/09 23:28 
Katie	Fischer	1/21/09 23:28 
Janette	Carson	1/21/09 23:28 
Aakriti	Lloyd	1/21/09 23:29 
Nina	Leotta	1/21/09 23:29 
Jessica	Horton	1/21/09 23:29 
Darnell	Northern	1/21/09 23:29 
Serena	Im	1/21/09 23:29 
June	Donovan	1/21/09 23:30 
Jennifer	Doe	1/21/09 23:30 
Emma	Parikh	1/21/09 23:30 
Joe	Thomas	1/21/09 23:31 
Caroline	Lewis	1/21/09 23:31 
Jennifer	Clenergy	1/21/09 23:31 
Elizabeth	Montgomery	1/21/09 23:31 
Megan	Mauhs-Pugh	1/21/09 23:32 
Brooks	DiOrio	1/21/09 23:32 
Jane	Fournelle	1/21/09 23:32 
Anne	Begaye	1/21/09 23:32 
Lindsey	Wren	1/21/09 23:32 
Yo Yo	Radl	1/21/09 23:32 
Jared	Koch	1/21/09 23:33 
Meera	Walker	1/21/09 23:33 
Katherine	Halprin	1/21/09 23:33 
Sasha	Drakulich	1/21/09 23:33 
Peter	Student	1/21/09 23:34 
Rachel	Arnest	1/21/09 23:34 
Shonri	Wyatt	1/21/09 23:34 
Eddie	Brune	1/21/09 23:35 
Jordan	Sabatchi	1/21/09 23:35 
Kathryn	Peoples	1/21/09 23:35 
Elena	Blessington	1/21/09 23:36 
X	Chevalier	1/21/09 23:36 
Max	Doe	1/21/09 23:36 
Yangbo	Gabriel	1/21/09 23:37 
Sophia	Williams	1/21/09 23:37 
Jaime	Kloenne	1/21/09 23:37 
Shengzhi	Baer	1/21/09 23:37 
Daniel	Boeve	1/21/09 23:37 
Sarah	Roffe	1/21/09 23:38 
Jennifer	Miller	1/21/09 23:38 
Eric	Kearns	1/21/09 23:38 
Noel	Maru	1/21/09 23:40 
Eliza	Baker	1/21/09 23:40 
Benjamin	Bintliff	1/21/09 23:40 
Frank	McGrath	1/21/09 23:40 
Ginny	Ruiz	1/21/09 23:41 
Kevin	Hoffman	1/21/09 23:41 
Maia	Calvo	1/21/09 23:41 
Shereena	Swift	1/21/09 23:41 
Saffron	Walters	1/21/09 23:42 
John	Regan	1/21/09 23:42 
Natalie	Fowler	1/21/09 23:42 
Elinor	Kniffin	1/21/09 23:43 
Steven	Randall	1/21/09 23:43 
See	Hennessy	1/21/09 23:43 
David	Bauer	1/21/09 23:43 
Madeline	Falcaro	1/21/09 23:43 
Ari	Margaronis	1/21/09 23:44 
Erin	Gardner	1/21/09 23:44 
JC	Friedmann	1/21/09 23:44 
William	Davies	1/21/09 23:44 
Maddie	Lupo	1/21/09 23:45 
Noona	Wessel	1/21/09 23:45 
Heather	Lyon	1/21/09 23:45 
Chris	Uscilka	1/21/09 23:45 
Alma	Joffe	1/21/09 23:45 
Tommasina	Harty	1/21/09 23:45 
Deborah	Washington	1/21/09 23:45 
Starr	Kingsbury	1/21/09 23:45 
Jessica	Spink	1/21/09 23:46 
Sarah	Null	1/21/09 23:46 
Taylor	Wang	1/21/09 23:46 
Oren	Gutierrez	1/21/09 23:46 
Danielle	Westling	1/21/09 23:46 
Kimberly	Hawley	1/21/09 23:46 
Christian	Nelson	1/21/09 23:46 
Willa	Zichlin	1/21/09 23:47 
Jennifer	Donnelly	1/21/09 23:47 
Daniel	Yeh	1/21/09 23:47 
Tina	Kadlec	1/21/09 23:47 
JOhn	Freer	1/21/09 23:48 
Abby	Southworth	1/21/09 23:48 
Molly	Green	1/21/09 23:48 
Claire	Kay	1/21/09 23:48 
Bryce	Sweeney	1/21/09 23:48 
Tyeisha	Zieff	1/21/09 23:48 
Tracy	Holmberg	1/21/09 23:49 
Emily	Higgens	1/21/09 23:49 
Shelby	Sullivan	1/21/09 23:49 
Averyl	Rees	1/21/09 23:49 
Maureen	Smith	1/21/09 23:49 
Jonathan	Bijur	1/21/09 23:50 
Josephine	Barnett	1/21/09 23:50 
Shaun	Phifer	1/21/09 23:50 
Brittany	Eneguess	1/21/09 23:50 
Courtney	Evans	1/21/09 23:51 
Adam	Shanks	1/21/09 23:51 
Annie	Pilchen	1/21/09 23:51 
Temple	Hasz	1/21/09 23:51 
Casey	B	1/21/09 23:51 
John	Bicknell	1/21/09 23:52 
Drew	Ma	1/21/09 23:52 
Casey	Wilde	1/21/09 23:52 
Amanda	Earp	1/21/09 23:52 
Mikayla	Veidenheimer	1/21/09 23:53 
Benard	Stephens	1/21/09 23:53 
Amanda	Caruso	1/21/09 23:53 
Michael	Baxter	1/21/09 23:53 
Dustin	Reeder	1/21/09 23:53 
Wendy	Hunter	1/21/09 23:53 
Brooke	Xx	1/21/09 23:53 
Andrew	Metsker	1/21/09 23:54 
Amelia	Farley	1/21/09 23:54 
Elizabeth	Rosengard	1/21/09 23:54 
Lance	Ter Kuile	1/21/09 23:55 
Serena	Minich	1/21/09 23:55 
Stephen	Nobert	1/21/09 23:55 
Caitlin	Rifkin	1/21/09 23:55 
Whitney	Prentice	1/21/09 23:56 
Elinor	Wahlstrom	1/21/09 23:56 
Jasteena	McGrath	1/21/09 23:56 
Claude	Giordano	1/21/09 23:57 
Chris	Whitney	1/21/09 23:57 
Phoebe	Llop	1/21/09 23:57 
Mike	Fasic	1/21/09 23:58 
Ashley	Miller	1/21/09 23:58 
Victoria	Good	1/21/09 23:59 
Britt	Oohlmann	1/21/09 23:59 
Alicia	Schor	1/21/09 23:59 
Trevor	Berman-Cooper	1/21/09 2:33 
Erin	Britt	1/21/09 2:42 
Lauren	Camerino	1/21/09 3:02 
Weezer	Conrad	1/21/09 8:23 
James	Bruhn	1/21/09 8:27 
Dylan	Jimenez	1/21/09 8:30 
Monique	Morrison-Ketter	1/21/09 8:32 
John	Mclaughlin	1/21/09 8:34 
Rebecca	Fralich	1/21/09 8:36 
Elisabeth	Morse	1/21/09 8:41 
Nathan	Martin	1/21/09 8:43 
Colin	Juliano	1/21/09 8:45 
Kole	Reaves	1/21/09 8:46 
Gabriel	Gerhke	1/21/09 9:19 
Michael	Martin	1/21/09 9:31 
Kristen	Banks-Williams	1/21/09 9:39 
ETSU	Kelner	1/22/09 0:00 
Maya	10	1/22/09 0:01 
Nina	Brennan	1/22/09 0:01 
Kaili	Soloman	1/22/09 0:01 
Darcy	Smith	1/22/09 0:01 
Erin	Ausanka-crues	1/22/09 0:02 
John	Jacobi	1/22/09 0:02 
Matt	Havusha	1/22/09 0:02 
Ou	Hetz	1/22/09 0:03 
Jennifer	Marques	1/22/09 0:03 
Ludovic	Jones	1/22/09 0:03 
Samantha	Somers	1/22/09 0:04 
Annie	Martin	1/22/09 0:04 
Catherine	Cramer	1/22/09 0:04 
Danielle	Cronan	1/22/09 0:05 
Emma	Floyd	1/22/09 0:05 
Matthew	Clabby	1/22/09 0:05 
Andy	Wilson	1/22/09 0:06 
Victoria	Oliver	1/22/09 0:06 
Bethany	Richards	1/22/09 0:07 
Holly	Teach	1/22/09 0:07 
Paul	Sauer	1/22/09 0:07 
Wayne	Williams	1/22/09 0:08 
Evy	Bordeaux	1/22/09 0:08 
Allison	Turner	1/22/09 0:09 
Ursula	Me	1/22/09 0:09 
Kraig	Ott	1/22/09 0:09 
Lyndsay	Erskine	1/22/09 0:09 
Acer	Bell	1/22/09 0:09 
Jacob	Johnson	1/22/09 0:09 
Dana	Rusciano	1/22/09 0:10 
Theresa	Burgin	1/22/09 0:11 
Liz	Saburovs	1/22/09 0:11 
Molly	Seeds	1/22/09 0:11 
Olivia	Zivkovic	1/22/09 0:11 
Sierra	Adams	1/22/09 0:12 
Ben	Wright	1/22/09 0:13 
Alice	Barret	1/22/09 0:13 
Rebecca	Burroughs	1/22/09 0:13 
Michael	Martinez	1/22/09 0:14 
Ginny	LeClare	1/22/09 0:15 
Joaquina	Doolin	1/22/09 0:15 
Michelle	McBrien	1/22/09 0:15 
Dorothy	Weber	1/22/09 0:16 
Anne	McGuire	1/22/09 0:16 
Gabriela	Blank	1/22/09 0:17 
Juliette	Joseph	1/22/09 0:17 
X	McNerney	1/22/09 0:17 
Greg	Ali	1/22/09 0:17 
Jen	Zilberstein	1/22/09 0:18 
Cristian	Wagner	1/22/09 0:18 
Mark	Perry	1/22/09 0:19 
Null	Danfelt-Martin	1/22/09 0:19 
Samantha	Hamrick	1/22/09 0:19 
Julie	McCrory	1/22/09 0:20 
Lauren	Chin	1/22/09 0:20 
Helena	Scaffa	1/22/09 0:20 
Jordan	Kuhnline	1/22/09 0:21 
Anwar	Minnick	1/22/09 0:21 
Marissa	Sullivan	1/22/09 0:23 
Cheyenne	Strom	1/22/09 0:23 
Alex	Teschauer	1/22/09 0:23 
Katie	Boone	1/22/09 0:25 
Devin	Foster	1/22/09 0:25 
Anna	Milholland	1/22/09 0:25 
Eleni	Arana	1/22/09 0:26 
Olga	Fox	1/22/09 0:26 
Amy	Michonski	1/22/09 0:26 
Jamie	Sorzana	1/22/09 0:27 
Alyssa	Hill	1/22/09 0:27 
Josh	Hartman	1/22/09 0:27 
Abbey	Thompson	1/22/09 0:28 
Michelle	Xx	1/22/09 0:28 
Carmen	Meier	1/22/09 0:28 
Corinne	Damron	1/22/09 0:28 
Christina	Courtright	1/22/09 0:29 
Jogchum	Rossoff	1/22/09 0:30 
Maya	Taylor	1/22/09 0:30 
Maggie	Kelly	1/22/09 0:30 
Matt	Yarychkivska	1/22/09 0:31 
Beth	Tisler	1/22/09 0:31 
Jeremy	Berger	1/22/09 0:32 
Shawna	Williams	1/22/09 0:32 
Nicholas	Tecku	1/22/09 0:32 
Katherine	Rossman	1/22/09 0:34 
Pryce	Brumber	1/22/09 0:34 
Student	Reyes-Lopez	1/22/09 0:35 
James	Reith	1/22/09 0:36 
Meryl	Bradford	1/22/09 0:36 
Annalisa	Nuse	1/22/09 0:36 
Jevon	Shannon	1/22/09 0:37 
Wesley	Zhao	1/22/09 0:37 
Martin	DeSantis	1/22/09 0:37 
Danielle	Little	1/22/09 0:37 
Andrea	Dailey	1/22/09 0:38 
Geoff	Miller	1/22/09 0:38 
Victoria	McLeod	1/22/09 0:38 
Julian	Murdoch	1/22/09 0:39 
Michaela	Klein	1/22/09 0:40 
Alex	Stark	1/22/09 0:40 
Zach	Dihn	1/22/09 0:41 
Elizabeth	Goldstein	1/22/09 0:41 
Olivia	White	1/22/09 0:43 
Juliana	Willingham	1/22/09 0:43 
Kim	Gold	1/22/09 0:43 
Molly	Harmon	1/22/09 0:43 
Marc	McGaughey	1/22/09 0:44 
Andrea	Prier	1/22/09 0:45 
Jon	DeGeorge	1/22/09 0:46 
Vanessa	Rossi	1/22/09 0:46 
Susan	Heron	1/22/09 0:46 
Alison	Renzetti	1/22/09 0:46 
Sarah	Morgan	1/22/09 0:47 
Student	Mcfadden	1/22/09 0:47 
Katie	Kipersztok	1/22/09 0:48 
Kalyn	Lechota	1/22/09 0:48 
Elizabeth	Bradshaw	1/22/09 0:48 
Aaron	Shalloway	1/22/09 0:49 
Dordt	Wehrenberg	1/22/09 0:49 
Brandy	Shukla	1/22/09 0:50 
Kenneth	Morgan	1/22/09 0:52 
John	Judkins	1/22/09 0:52 
Liz	Silberman	1/22/09 0:54 
Katherine	Rymer	1/22/09 0:54 
Jennie	Jae	1/22/09 0:55 
Aliza	Mabe	1/22/09 0:56 
Jenna	Grimm	1/22/09 0:56 
Matt	Lacoco	1/22/09 0:57 
Casey	Miller	1/22/09 0:59 
Jeff	Goklish	1/22/09 10:16 
Noelle	Hofsiss	1/22/09 10:51 
Kerry	Jack	1/22/09 10:52 
Andrew	Cerimele	1/22/09 10:54 
Null	McCusker	1/22/09 13:22 
Chelsa	McCabe	1/22/09 14:00 
Meggan	Lee	1/22/09 14:31 
Christa	Hanna	1/22/09 15:08 
Enrico	Pickford	1/22/09 15:13 
Trisha	Hoffner	1/22/09 15:17 
Chelsea	Elder	1/22/09 15:19 
Ian	Bursch	1/22/09 15:21 
John	Wasserman	1/22/09 15:23 
Emily	Axt	1/22/09 15:24 
Ashim	Weisfeld	1/22/09 15:26 
Morgan	Clark	1/22/09 15:27 
X	Seeley	1/22/09 15:29 
Becca	Schwartz	1/22/09 15:30 
Mary	Corrado	1/22/09 18:00 
Eugene	Bradley	1/22/09 19:50 
NIcole	Podsiadlo	1/22/09 1:00 
Edgar	Hajzus	1/22/09 1:01 
Sergio	Bronson	1/22/09 1:02 
Lance	Engle	1/22/09 1:03 
Katie	Parkin	1/22/09 1:04 
Brian	Kasprzyk	1/22/09 1:07 
Ron	McCadden	1/22/09 1:10 
Camara	emrich	1/22/09 1:16 
Meredith	Dean	1/22/09 1:25 
Erica	Prucnal	1/22/09 1:27 
Garvi	DeGraad	1/22/09 1:29 
Jennifer	Horowitz	1/22/09 1:42 
Martha	Land	1/22/09 20:08 
Maxwell	Parra	1/22/09 20:58 
Andrew	King	1/22/09 21:01 
Alex	Donnellan	1/22/09 21:04 
Alana	Whitney	1/22/09 21:27 
Ben	Boochever	1/22/09 21:56 
Regina	Tyler	1/22/09 23:08 
Amanda	Coughlan	1/22/09 2:00 
Jennifer	Smith	1/22/09 2:09 
Lena	Nowak	1/22/09 2:10 
Sara	Pilati	1/22/09 2:21 
Eleanor	Bryan	1/22/09 2:22 
Paul	Drinkwine	1/22/09 2:32 
Hungyen	Raiser	1/22/09 3:03 
Roxanna	Mellace	1/22/09 8:16 
Stephanie	Blackwell	1/22/09 8:19 
Kate	Davis	1/22/09 8:46 
Nur	Landesman	1/22/09 9:49 
Tara	Zimmerman	1/23/09 0:17 
Lindsay	Null	1/23/09 10:47 
Yo	Hingle	1/23/09 11:03 
Julia	Engelfried	1/23/09 11:09 
Natasha	Alexander	1/23/09 11:50 
Holly	Moakley	1/23/09 12:42 
Denver	Mazurowski	1/23/09 12:59 
Brian	Zipin	1/23/09 13:03 
Lacey	Tran	1/23/09 13:36 
Allyson	McCole	1/23/09 13:40 
Rachel Sarah	McKinnon	1/23/09 13:40 
Elizabeth	Lenhart	1/23/09 13:43 
Kelsey	Walters	1/23/09 13:45 
Einer	Sorenson	1/23/09 13:47 
Lucia	Rojas	1/23/09 13:50 
Lauren	Kent	1/23/09 13:54 
Kim	Lobue	1/23/09 13:56 
Paula	Rowe	1/23/09 14:01 
Amanda	Flanagan	1/23/09 14:02 
Rachel	Mack	1/23/09 14:05 
Annelies	Vig	1/23/09 14:07 
Vanessa	Yeh	1/23/09 14:14 
Frances	Russell	1/23/09 14:22 
Rachel	Ila	1/23/09 14:43 
Jesse	Colburn	1/23/09 14:56 
Caitlin	Cross	1/23/09 15:52 
Will	Cook	1/23/09 16:30 
Yixin	Nichamin	1/23/09 17:09 
Amina	Jeffers	1/23/09 17:11 
Carly	Drewery	1/23/09 17:16 
Tavaruss	Austin	1/23/09 17:18 
Megan	Triana	1/23/09 17:21 
Stephen	Garland	1/23/09 18:30 
Jose	Huber	1/23/09 19:23 
Alice	Rogers	1/23/09 20:25 
Michael	Zulfiqar	1/24/09 0:42 
Taylor	Martin	1/24/09 13:09 
Joshua	Darden	1/24/09 14:29 
Xenia	Kimbrell	1/24/09 14:33 
Jen	Doe	1/24/09 14:54 
Vanessa	Lukow	1/24/09 15:01 
Nathaniel	LeClair	1/24/09 15:14 
Eric	Xx	1/24/09 17:32 
Sommer	Bruner	1/24/09 17:35 
Ellen	Freeland	1/24/09 17:49 
Ashley	Chan	1/24/09 17:59 
Minrose	Richards	1/24/09 19:54 
Keith	Waddle	1/24/09 21:17 
Kristen	Musten	1/24/09 21:51 
Christi	Two	1/24/09 22:01 
Heather	Hassel	1/24/09 2:00 
Molly	Rowan	1/25/09 13:05 
Sean	Kangas	1/25/09 13:42 
Jacinth	Eagle	1/25/09 14:47 
Nate	Wallner	1/25/09 16:17 
Brianna	Payton	1/25/09 17:19 
Andi	Shurmantine	1/25/09 17:30 
Carrie	Ohm	1/25/09 18:21 
Rebecca	Burnett	1/25/09 1:41 
Julie	Kirkhart	1/25/09 21:25 
Kaitlyn	Guerra	1/25/09 21:55 
Alysha	Six	1/25/09 22:41 
David	Francom Redstone	1/25/09 23:14 
John	Begay	1/25/09 23:17 
Jennifer	Johnson	1/25/09 23:50 
Jessica	Yes	1/26/09 0:15 
Jonathon	Burke	1/26/09 0:49 
Marta	Feldish	1/26/09 10:23 
Cassie	Goldman	1/26/09 11:21 
Erica	Xx	1/26/09 12:12 
Kyle	Melas	1/26/09 12:52 
Shilpa	Kokal	1/26/09 13:37 
Julia	Gleason	1/26/09 14:46 
Brad	Grogan	1/26/09 15:23 
Anne	Webb	1/26/09 15:24 
Amy	Lemons	1/26/09 15:24 
Benjamin	Doyle	1/26/09 15:25 
Antonia	Chenvey	1/26/09 15:28 
Julia	Flagg	1/26/09 15:48 
Kate	Slater	1/26/09 15:52 
Alisa	Spencer	1/26/09 16:17 
Juan	Scarano	1/26/09 17:27 
Jeff	Xx	1/26/09 17:41 
Matt	Laurila	1/26/09 17:45 
Paulina	Kuhns	1/26/09 17:48 
Leon	Smith	1/26/09 17:52 
Lindsy	Kollu	1/26/09 17:57 
Amanda	Reeves	1/26/09 18:06 
Brian	Plantak	1/26/09 18:11 
Yiran	Brown	1/26/09 18:20 
Daniel	Bryars	1/26/09 18:24 
X	Zaragoza	1/26/09 18:28 
Jason	Heller	1/26/09 18:38 
Sander	Doe	1/26/09 18:44 
Chelsey	Barge	1/26/09 18:48 
Rosina	Scaramellino	1/26/09 18:51 
Andrew	Meyers	1/26/09 18:56 
Megan	Podrasky	1/26/09 20:13 
Szor-Danner	Forrester	1/26/09 20:34 
Diana	Kolodin	1/26/09 20:47 
Tegan	Pfaltzgraff	1/26/09 20:47 
Julie	Doe	1/26/09 20:52 
Prya	Fenster	1/26/09 20:54 
Patrick	Meek	1/26/09 21:38 
Jennifer	Berlangera	1/26/09 21:41 
Katy	Burrows	1/26/09 21:44 
Brian	Upshur	1/26/09 21:44 
Louise	Schaffer	1/26/09 21:48 
Na'Taki	Two	1/26/09 22:02 
Eddie	Ostrin	1/26/09 22:06 
Rosemary	Hileman	1/26/09 22:18 
Maura	Viglietta	1/26/09 22:22 
Kevin	Balinsky-Baker	1/26/09 22:24 
Richard	Herman	1/26/09 22:27 
Michael	Embick	1/26/09 22:36 
Adam	Aitken	1/26/09 22:42 
X	Litzenberg	1/26/09 22:43 
Melissa	Stachowski	1/26/09 23:11 
Christopher	Wood	1/26/09 23:13 
Samantha	Mullaney	1/26/09 23:14 
B	Sinnes	1/26/09 23:16 
Eliza	Galanter	1/26/09 23:22 
Dani	Becker	1/26/09 23:23 
Jake	Carson	1/26/09 23:27 
Milton	Lister	1/26/09 23:27 
Nika	Vanderlee	1/26/09 23:31 
Brett	Johnson	1/26/09 23:39 
Jessi	Kim	1/26/09 23:43 
Sam	Trull	1/26/09 23:46 
Bess	Holmes	1/26/09 23:48 
Alyson	Edwards	1/26/09 23:50 
X	Pickert	1/26/09 23:52 
Clint	Zelasko	1/26/09 23:53 
Molly	Duckett	1/26/09 23:55 
Erica	Phifer	1/26/09 23:56 
Rebecca	Bower	1/26/09 23:57 
Anna	Laedtke	1/26/09 23:59 
Kelsey	Tylczak	1/26/09 3:28 
Elizabeth	Webster	1/27/09 0:00 
Student	Semon	1/27/09 0:01 
Arsalan	Asdfsdf	1/27/09 0:32 
Allison	Dolkart	1/27/09 0:36 
Jeremy	Westman	1/27/09 0:37 
X	Peach	1/27/09 0:45 
Mary	Ther	1/27/09 10:44 
Sasha	Reilly	1/27/09 10:48 
Matthew	Downing	1/27/09 10:56 
Jon	Boylan	1/27/09 11:48 
Amandeep	Currier	1/27/09 11:52 
Hilary	Gedney	1/27/09 12:09 
Elena	Matthews	1/27/09 12:43 
Melissa	Perez	1/27/09 13:01 
Catherine	Varlese	1/27/09 13:37 
Elena	Laddagjm	1/27/09 13:48 
Meagan	Gibbons	1/27/09 13:51 
Katie	Staunch	1/27/09 13:57 
Yu-hsun	Fillo	1/27/09 13:59 
Mackenzie	Nash	1/27/09 14:14 
Sam	Butler	1/27/09 14:43 
Kiley	Di Stephano	1/27/09 16:20 
Katelyn	Mcinvale	1/27/09 17:20 
Michael	Calaban	1/27/09 17:45 
Elizabeth	Mosley	1/27/09 19:32 
Michael	Dowd	1/27/09 19:48 
Jacob	Trent	1/27/09 19:52 
Jessica	Calandruccio	1/27/09 1:14 
Rick	Pan	1/27/09 20:03 
Katie	Griggs	1/27/09 20:04 
Peter	Briones	1/27/09 20:23 
Deborah	Freese	1/27/09 21:04 
Huini (Sarry)	Roberts	1/27/09 21:18 
Jesus	Small	1/27/09 21:19 
Laura	Voutour	1/27/09 21:47 
Jeff	Privot	1/27/09 22:58 
Leeor	Bigalke	1/27/09 23:06 
Katja	Hutchings	1/27/09 4:14 
Desiree	Dixon	1/27/09 9:36 
Alia	White	1/28/09 0:02 
Hannah	Webb	1/28/09 0:17 
Rachael	Kelly	1/28/09 10:06 
Elizabeth	Garlick	1/28/09 11:16 
Maggie	Mazar	1/28/09 11:19 
Sally	Carey	1/28/09 11:20 
Jesse	Doe	1/28/09 11:24 
Weldon	Byington	1/28/09 11:36 
Ferdnando	Chasse	1/28/09 11:55 
Sabrina	Almeida	1/28/09 12:19 
Abbey	Willett	1/28/09 12:29 
Tania	Davis	1/28/09 12:52 
Martha	Murphy	1/28/09 13:01 
Shanay	Bordewich	1/28/09 13:06 
Uncw5	Gross	1/28/09 13:09 
Basil	Xx	1/28/09 13:10 
Juliann	McDuff	1/28/09 13:15 
Megan	He	1/28/09 13:19 
Chris	Cover	1/28/09 13:20 
X	Gardner	1/28/09 13:22 
Christopher	Nunes	1/28/09 13:51 
Elliot	Langer	1/28/09 13:52 
Annie	Sheth	1/28/09 14:01 
Yen	DiTullio	1/28/09 14:04 
Ryan	Mijares	1/28/09 14:04 
Will	Cohen-Tangui	1/28/09 14:09 
Jane	Turk	1/28/09 14:09 
Paige	Hickman	1/28/09 14:15 
Carmella	Aizprua	1/28/09 14:18 
sierra	Moselle	1/28/09 14:22 
Noorah	Taylor	1/28/09 14:28 
Brent	Chandrashehar	1/28/09 14:32 
Alexandra	Brink	1/28/09 14:37 
Janel	Phelan	1/28/09 14:42 
Sophie	Rele	1/28/09 14:46 
Austin	Hubert	1/28/09 14:47 
Jessica	Fink	1/28/09 14:47 
Ross	French	1/28/09 14:52 
John	Rivera	1/28/09 14:58 
Katherine	Spring	1/28/09 15:02 
Ellen	Shyduroff	1/28/09 15:16 
Hana	Doe	1/28/09 15:18 
Jennifer	Hu	1/28/09 15:19 
Stephanie	Burgess	1/28/09 15:22 
Jamie	Gile	1/28/09 15:25 
Jingjing	Culbertson	1/28/09 15:30 
Tyler	B	1/28/09 15:34 
Sarah	Abreu	1/28/09 15:37 
Bethany	Sample	1/28/09 15:39 
Carl	Hsu	1/28/09 15:42 
Crystal	Green	1/28/09 15:42 
Ciara	Orlowski	1/28/09 15:49 
Laura	Frank	1/28/09 15:54 
Mechelle	Shaddock	1/28/09 15:56 
John	Gassam	1/28/09 15:58 
Elizabeth	Morrissey	1/28/09 16:36 
Jennifer	Olen	1/28/09 16:50 
Riley	Kohn	1/28/09 16:54 
Doug	Ohara	1/28/09 17:00 
Maddy	Tuhy	1/28/09 17:25 
Marissa	Alford	1/28/09 17:27 
Kelsey	Horne	1/28/09 17:29 
Daniel	Leon	1/28/09 18:02 
One	Max	1/28/09 18:04 
Jesse	Duane	1/28/09 18:07 
Kris	Grover	1/28/09 18:11 
Melanie	Lui	1/28/09 19:42 
Nicole	Gall	1/28/09 1:30 
Paradise	Tower	1/28/09 1:33 
AJ	Crocker	1/28/09 1:38 
Marcie	Powanda	1/28/09 20:07 
Jeffrey	Wilson	1/28/09 20:07 
Dan	Terry	1/28/09 20:24 
Alex	Lavaque	1/28/09 20:37 
Nick	Segil	1/28/09 21:23 
Sheila	Slote	1/28/09 21:54 
Joseph	Charnuska	1/28/09 22:04 
Bryan	Mackow	1/28/09 22:28 
Shane	Fog	1/28/09 23:09 
Hannah	Wang	1/28/09 23:10 
Kelsey	Benami	1/28/09 23:26 
Daniel	Nienaber	1/28/09 23:27 
Benjamin	Mahon	1/28/09 23:56 
Jessica	Svoboda	1/28/09 8:58 
Rosie	Doan	1/28/09 9:37 
Daniel	Doe	1/29/09 10:13 
Veronica	Brewer	1/29/09 10:19 
Neeharika	Dreyer	1/29/09 11:06 
Andrew	Wilhelm	1/29/09 11:23 
Katie	Hopkins	1/29/09 11:58 
Mark	Fantasia	1/29/09 11:59 
Melissa	Frys	1/29/09 12:08 
Andrea	D'Amore	1/29/09 12:15 
John	Gans	1/29/09 12:23 
Sydney	BurgunderJohnson	1/29/09 12:34 
Danny	Maruyama	1/29/09 12:47 
Kee	Doe	1/29/09 13:16 
John	Kidder	1/29/09 13:20 
Danny	Allen	1/29/09 13:30 
Daniel	Arvidson	1/29/09 13:30 
Tamer	Deveau	1/29/09 13:33 
Hanna	Detwiler	1/29/09 13:35 
Caroline	Martinez	1/29/09 13:55 
Courtney	Blomquist	1/29/09 14:03 
Ariel	Harb	1/29/09 14:08 
Ed	One	1/29/09 14:11 
Jing	Schleith	1/29/09 14:13 
Rachel	Cano	1/29/09 14:16 
Caitlin	Moreschi	1/29/09 14:19 
Alex	Flint	1/29/09 14:23 
Jolea	Brandvain	1/29/09 14:26 
Three	Newman	1/29/09 14:30 
Sara	Frey	1/29/09 14:34 
Elizabeth	Baron	1/29/09 14:37 
Cassie	Hadnot	1/29/09 14:40 
John	Gallagher	1/29/09 14:41 
Laura	Doe	1/29/09 14:41 
Monique	Wohns	1/29/09 14:44 
Nayantara	Gordon	1/29/09 14:44 
Laurice	Anderson	1/29/09 14:48 
Jay	Ewall	1/29/09 14:48 
Jade	Musher	1/29/09 14:48 
Kalila	Patel	1/29/09 14:51 
Katie	Borrelli	1/29/09 14:54 
Heather	Carlson	1/29/09 14:55 
Andrew	Maak	1/29/09 14:56 
Ben	Nowak	1/29/09 14:59 
Marguerite	Hutchison-Maxwell	1/29/09 14:59 
Jesse	Minich-Castro	1/29/09 15:02 
Casey	Ramos	1/29/09 15:03 
Edward	Xx	1/29/09 15:03 
Benjamin	Simpson	1/29/09 15:05 
Chrissy	Summers	1/29/09 15:07 
Michaella	Doe	1/29/09 15:08 
Kaira	Betts	1/29/09 15:09 
Emmett	Trudeau	1/29/09 15:12 
Laney	Letcheva	1/29/09 15:12 
Rees	Carlton	1/29/09 15:15 
Nancy	Pavelich	1/29/09 15:17 
Sean	Cyprian	1/29/09 15:18 
Joel	Lawrence	1/29/09 15:20 
Lindsay	Quagmire	1/29/09 15:20 
John	Walker	1/29/09 15:23 
Rocio	Johnson	1/29/09 15:23 
Daniel	Hiles	1/29/09 15:24 
Emily	Xx	1/29/09 15:25 
Caiti	High	1/29/09 15:25 
Jeff	Hake	1/29/09 15:27 
Rebecca	Ortega	1/29/09 15:27 
Molly	Farrell	1/29/09 15:29 
Danielle	Abbott	1/29/09 15:31 
Liz	Wagenknecht	1/29/09 15:31 
Jennifer Austin	Lodico	1/29/09 15:32 
Muhhamad	Short	1/29/09 15:33 
AJ	Savage	1/29/09 15:35 
Sarah	Markus	1/29/09 15:36 
Rob	Kennedy	1/29/09 15:37 
Abby	Richardson	1/29/09 15:39 
Marisol	Brown	1/29/09 15:42 
Anastasia	Livingstone	1/29/09 15:44 
Sara	Fancourt	1/29/09 15:45 
Nima	Knees	1/29/09 16:05 
Kimberley	Amsili	1/29/09 16:22 
Mandy	Nance	1/29/09 16:27 
Becca	McKaskill	1/29/09 16:27 
Katie	Daniel	1/29/09 16:27 
Lauren	Pereira	1/29/09 16:31 
Carra	Alintoff	1/29/09 16:49 
Christina	Booth	1/29/09 16:51 
Emily	Halder	1/29/09 16:52 
Lisa	Davis	1/29/09 16:53 
Brandon	Ginnan	1/29/09 16:55 
Andrew	Varitimidis	1/29/09 17:20 
Cody	Navarro	1/29/09 17:28 
Jessica	Zinger	1/29/09 17:58 
Ansally	Pfeiffer	1/29/09 18:04 
Timothy	Green	1/29/09 18:27 
Nathalie	Oblisk	1/29/09 18:39 
Leslye	Fong	1/29/09 18:43 
Wesley	Aroneanu	1/29/09 18:46 
Lauren	Morgan-Davie	1/29/09 18:49 
Anita	Singh	1/29/09 18:50 
Bruno	Bates	1/29/09 18:54 
Stephen	Oheim	1/29/09 18:56 
Donnie	Drix	1/29/09 18:59 
Victoria	Olson	1/29/09 19:17 
Celeste	Yugler	1/29/09 19:34 
Richard	Shuler	1/29/09 19:45 
Rob	Gorman	1/29/09 19:49 
Carl	See	1/29/09 19:54 
Lindsey	Litz	1/29/09 19:56 
Amina	Kulp	1/29/09 19:59 
Jonathan	Catalano	1/29/09 20:03 
Michele	Roseman	1/29/09 20:04 
Kim	Skinner	1/29/09 20:06 
Shea	Chopko	1/29/09 20:07 
Me	Saunders	1/29/09 20:16 
Amanda	Saeler	1/29/09 20:27 
Nathan	Daley	1/29/09 20:29 
Brian	Haslett	1/29/09 20:34 
Eric	Perry	1/29/09 20:37 
Hans	Mervak	1/29/09 20:40 
Laura	Kapadia	1/29/09 20:42 
Matthew	Borick	1/29/09 20:46 
Erin	Doherty	1/29/09 20:48 
Peter	Iglesias	1/29/09 21:01 
Matt	Page	1/29/09 21:02 
Alyse	Steele	1/29/09 21:09 
Kealy	O'Connor	1/29/09 21:09 
Ou	Morrow	1/29/09 21:12 
Elliott	Flanagan	1/29/09 21:15 
Veronica	Walter	1/29/09 21:15 
Chloe	Steed	1/29/09 21:16 
Shannon	Lyons	1/29/09 21:20 
X	Cameron	1/29/09 21:23 
Scott	Dail	1/29/09 21:26 
Jonathan	Crampton	1/29/09 21:29 
Daisy	Rudolph	1/29/09 21:31 
Eliza	Xx	1/29/09 21:33 
Erik	Owens	1/29/09 21:35 
Carly	Williams	1/29/09 21:37 
Erin	Xx	1/29/09 21:39 
Stephanie	Essah	1/29/09 21:41 
One	Fiorillo	1/29/09 21:43 
Tim	Santoyo	1/29/09 21:44 
Brian	Seiffer	1/29/09 21:53 
Pamela	Schulz	1/29/09 21:57 
Jim	Willy	1/29/09 21:59 
B	Greene	1/29/09 22:01 
Ivey	Albeck	1/29/09 22:01 
Jane	Bemis	1/29/09 22:07 
Tori	Phillips	1/29/09 22:28 
Erin	Ewert	1/29/09 22:32 
Oliver	Riddle	1/29/09 22:43 
Stephanie	Penner	1/29/09 22:54 
Michelle	Glessner	1/29/09 23:09 
Stella	Fellman Greene	1/29/09 23:39 
Mike	Herron	1/29/09 23:51 
Megan	Powe	1/29/09 23:54 
Layne	Wilson	1/29/09 2:26 
Josh	Hammerl	1/29/09 2:38 
Natalie	Ferrara	1/29/09 2:44 
Taylor	Lettow	1/29/09 2:47 
Elana	Wilmot	1/29/09 2:49 
Charles	Koch	1/29/09 2:50 
ONe	Shafer	1/29/09 2:51 
Alicia	Neal	1/29/09 2:53 
Abbe	Muoio	1/29/09 2:54 
Wes	Hardman	1/29/09 2:56 
Gus	Kosloff	1/29/09 3:33 
Liz	Miller	1/29/09 9:36 
Andrew	Price	1/3/09 10:05 
James	Reeves	1/3/09 13:15 
Karly	Enz	1/3/09 13:19 
Jens	Sulzbach	1/30/09 0:04 
Sarah	Gaber	1/30/09 0:47 
Brian	Buzek	1/30/09 10:21 
Bill	Ghosh	1/30/09 10:29 
Mackenzie	Pinette	1/30/09 10:33 
Alison	England	1/30/09 10:37 
Ashley	Shakib	1/30/09 10:38 
Valerie	Renville	1/30/09 10:38 
Alyssa	Nicholson	1/30/09 10:41 
Alexis	Kauffman	1/30/09 10:41 
Alexander	Rothbart	1/30/09 10:44 
Brynn	Sunderland	1/30/09 10:44 
Shanelle	Guster	1/30/09 10:46 
Danielle	Wierenga	1/30/09 10:49 
Sally	Miller	1/30/09 10:52 
Ya'ara	Williams	1/30/09 10:53 
Whitney	San Roman	1/30/09 10:53 
Jayme	Robinson	1/30/09 10:55 
Eleanor	Tran	1/30/09 10:57 
Brittany	Roberts	1/30/09 10:58 
Madeline	Claus	1/30/09 10:59 
Ben	Sibelman	1/30/09 11:01 
Lissa	Theys	1/30/09 11:01 
Isabelle	Thatcher	1/30/09 11:04 
Liana	Gent	1/30/09 11:07 
Dan	Oaks	1/30/09 11:10 
Jessica	Bissessar	1/30/09 11:10 
Jake	Matthews	1/30/09 11:13 
Thomas	Otter	1/30/09 11:15 
Stephen	Xx	1/30/09 11:15 
Pam	Johnston	1/30/09 11:17 
Laura	Boyle	1/30/09 11:18 
John	Westwood	1/30/09 11:21 
Andrew	Stedman	1/30/09 11:22 
Sadie	Sofer	1/30/09 11:22 
Laura	Webster	1/30/09 11:23 
Cassidy	Smith	1/30/09 11:26 
John	Asher	1/30/09 11:29 
Alix	Willson	1/30/09 11:31 
Catherine	Lugo	1/30/09 11:36 
Erin	Malanowicz	1/30/09 11:39 
Derek	Jacobs	1/30/09 11:42 
Danielle	Sherpa	1/30/09 11:44 
Alex	Watson	1/30/09 11:47 
Laurel	Zerhouni	1/30/09 11:47 
Jennifer	Hardekar	1/30/09 11:50 
Adaline	Kellas	1/30/09 11:53 
Alex	Brandenburg	1/30/09 11:55 
Aubrey	Bean	1/30/09 11:56 
Molly	Michael	1/30/09 11:58 
Hector	LaBove	1/30/09 12:01 
Christina	Smith	1/30/09 12:01 
Eric	Nicaise	1/30/09 12:01 
Robert	Cisneros	1/30/09 12:04 
Nate	Hurd	1/30/09 12:05 
Zachary	Hunt	1/30/09 12:06 
Cara	Enz	1/30/09 12:09 
Kyle	Howes	1/30/09 12:09 
Elle	Lacey	1/30/09 12:10 
Jesse	Tran	1/30/09 12:12 
Aram	Heir	1/30/09 12:14 
Kelly	Beisler	1/30/09 12:15 
X	McCleery	1/30/09 12:15 
Sherry	Khouang	1/30/09 12:16 
Julio	O'Leary	1/30/09 12:17 
Casper	Gruberg	1/30/09 12:18 
Keonna	Caldwell	1/30/09 12:19 
KEVIN	Bogardus	1/30/09 12:20 
Meghan	Student	1/30/09 12:21 
Meredith	Williams	1/30/09 12:21 
Ellyn	Husby	1/30/09 12:22 
Magical	Roseen	1/30/09 12:22 
Alex	Zhou	1/30/09 12:23 
Catherine	Dutton	1/30/09 12:23 
Claire	Howland	1/30/09 12:25 
Laura	Lensink	1/30/09 12:26 
Robert	Burris	1/30/09 12:27 
Philip	Sangha	1/30/09 12:27 
Esther	Schopieray	1/30/09 12:28 
Jessica	Johnson	1/30/09 12:28 
Neha	D'addario	1/30/09 12:29 
Russell	Kurs	1/30/09 12:30 
Charla	Burke	1/30/09 12:31 
Sarah	Bayer	1/30/09 12:31 
Sally	Walsh	1/30/09 12:32 
Tracy	Vlasic	1/30/09 12:33 
John	Desanctis	1/30/09 12:34 
Sara	Moore	1/30/09 12:34 
Bethany	Hardy	1/30/09 12:35 
Jordan	Goughary	1/30/09 12:37 
Jacob	Durkin	1/30/09 12:38 
Neele	Griffin	1/30/09 12:38 
Christopher	Schulz	1/30/09 12:40 
Aditi	Rizzo	1/30/09 12:40 
Jes	Whitney	1/30/09 12:41 
Rachel	Ennis	1/30/09 12:41 
Suzy	Welborn	1/30/09 12:42 
Tom	DiFranco	1/30/09 12:42 
Meredith	Zahorian	1/30/09 12:43 
Jessica	Solly	1/30/09 12:44 
Heather	Thompson	1/30/09 12:45 
Damon	Tiller	1/30/09 12:45 
Becca	Stout	1/30/09 12:46 
Emily	Konkle	1/30/09 12:47 
Taylor	Doe	1/30/09 12:48 
Ben	Johnson	1/30/09 12:50 
Ellen	Pollak	1/30/09 12:52 
Teen	Duckworth	1/30/09 12:54 
Eric	Roberts	1/30/09 12:55 
Preston	Williamson	1/30/09 12:57 
Laura	Keenan	1/30/09 12:58 
Shandra	Garcia	1/30/09 12:58 
Emilie	Stevenson	1/30/09 13:01 
Colin	Seifert	1/30/09 13:03 
James	Martin	1/30/09 13:05 
Alice	Kraus	1/30/09 13:07 
Kelly	Letendre	1/30/09 13:08 
Holly	Martinez	1/30/09 13:20 
Daniela	Catalano	1/30/09 13:26 
Louise	Gwynn Sackson	1/30/09 13:30 
Paul	Haynes	1/30/09 13:33 
Allison	Robinson	1/30/09 13:38 
Laurie	Ginsberg	1/30/09 13:39 
Jenna	Teubner	1/30/09 13:41 
Charles	Lee	1/30/09 13:43 
Andrew	Dong	1/30/09 13:45 
Antoinette	Merkel	1/30/09 13:46 
Ana	Laterza	1/30/09 13:50 
Taylor	Lei	1/30/09 13:52 
See-eun	Ianniello	1/30/09 13:54 
Matt	Sloan	1/30/09 13:57 
Abby	Schnibe	1/30/09 13:58 
Joseph	Kamerosky	1/30/09 14:01 
Shaen	Bohri	1/30/09 14:02 
María	Jordan	1/30/09 14:05 
Rohan	Ray	1/30/09 14:08 
Samantha	Rée	1/30/09 14:11 
Mary	Coomer	1/30/09 14:13 
Miriam	Danney	1/30/09 14:14 
Maria	Amster	1/30/09 14:16 
Null	Howard	1/30/09 14:16 
Emily	Giesche	1/30/09 14:16 
Eliza	Sweeney	1/30/09 14:19 
Anna	Davis	1/30/09 14:24 
Jessica	Sanders	1/30/09 14:28 
Annelise	Tsuji	1/30/09 14:29 
Melanie	Phillips	1/30/09 14:30 
Genevieve	Funck	1/30/09 14:31 
Becky	Wang	1/30/09 14:31 
Alicia	Smedick	1/30/09 14:31 
Caroline	Mershon	1/30/09 14:33 
Michael	Sprinzen	1/30/09 14:37 
Sophia	Burch	1/30/09 14:38 
Sandddd	Hoffbeck	1/30/09 14:38 
Holly	Derwin	1/30/09 14:39 
Diana	Downing	1/30/09 14:41 
Hannah	Lupkin	1/30/09 14:42 
Surron	Shankland	1/30/09 14:42 
Sarah	Waldman	1/30/09 14:43 
Sara	Levy	1/30/09 14:44 
Mary	Bell	1/30/09 14:44 
Megan	Arene-Morley	1/30/09 14:44 
Emily	Poitevin	1/30/09 14:45 
Sophia	Dobbins-Bucklad	1/30/09 14:46 
Bridget	Hawes	1/30/09 14:46 
Chelsea	Churchward	1/30/09 14:46 
Alec	Doe	1/30/09 14:46 
Philip	Cruickshank	1/30/09 14:47 
Robert	Kohnstamm	1/30/09 14:48 
Stephanie	Savely	1/30/09 14:49 
Jason	Law	1/30/09 14:49 
Eric	Owens	1/30/09 14:51 
Jillian	Dennis	1/30/09 14:52 
Michael	Foley	1/30/09 14:52 
Dylan	Wyckoff	1/30/09 14:53 
Christie	Pedicone	1/30/09 14:54 
Jessica	Spinelle	1/30/09 14:54 
Marcellus	Lane	1/30/09 14:55 
Valencia	Miller	1/30/09 14:56 
Jack	Palser	1/30/09 14:57 
Caroline	Coker	1/30/09 14:58 
Elizabeth	Parry	1/30/09 14:58 
Alison	Blomberg	1/30/09 14:58 
Abby	Hindshaw	1/30/09 14:59 
Juliet	Gill	1/30/09 15:00 
Jessica	Carter	1/30/09 15:00 
Catherine	Howell-Dinger	1/30/09 15:01 
Marissa	Reich	1/30/09 15:02 
Andrea	Marchessault	1/30/09 15:02 
Katie	Cordle	1/30/09 15:03 
John	Loftis	1/30/09 15:04 
Mattie	Noonan	1/30/09 15:04 
Jane	Mendez	1/30/09 15:04 
Sara	Kumpf	1/30/09 15:04 
Kyleen	Cui	1/30/09 15:05 
Alex	Tsukano	1/30/09 15:06 
J	Ray-Mazumder	1/30/09 15:06 
Catherine	Brown	1/30/09 15:08 
Lea	Finkel	1/30/09 15:09 
Louise	Costa	1/30/09 15:09 
Holly	Watson	1/30/09 15:09 
Whitney	Lynch	1/30/09 15:10 
Rachel	Rivas	1/30/09 15:10 
Maura	Wilson	1/30/09 15:11 
Michael	Moynahan	1/30/09 15:11 
Jolene	Coburn	1/30/09 15:12 
Avalon	Baranski	1/30/09 15:12 
Molly	Heile	1/30/09 15:13 
James	Webster	1/30/09 15:13 
Erin	Watson	1/30/09 15:15 
Catherine	Carodenuto	1/30/09 15:15 
Francesca	Heinichen	1/30/09 15:17 
Jeff	Veazey	1/30/09 15:18 
Elise	Shapiro	1/30/09 15:18 
Elizabeth	Johnson	1/30/09 15:19 
Andreah	Van Eck	1/30/09 15:20 
Sarah	Hall	1/30/09 15:20 
Nora	Cornejo	1/30/09 15:21 
Marci	Wright	1/30/09 15:21 
Lisa	Simovic	1/30/09 15:22 
Sueli	Bulger	1/30/09 15:23 
Townsend	Schweitzer	1/30/09 15:23 
Mary	Skaggs	1/30/09 15:23 
Rooney	Mathis	1/30/09 15:25 
Lorenzo	Coleman	1/30/09 15:25 
Crystal	Benes	1/30/09 15:27 
Andrew	Colehor	1/30/09 15:28 
Victoria	Walker	1/30/09 15:29 
Beth	Laird	1/30/09 15:29 
Maya	Hurowitz	1/30/09 15:29 
Melanie	Chandler	1/30/09 15:30 
Sarah	Schroder	1/30/09 15:30 
Arielle	Dooley-Feldman	1/30/09 15:31 
Christopher	Rosenstein	1/30/09 15:32 
Katherine	Maloney	1/30/09 15:33 
Dimitri	Gao	1/30/09 15:34 
Jon	Groh	1/30/09 15:34 
Rebecca	Uzuki	1/30/09 15:34 
Georgia	Brown	1/30/09 15:36 
Kate	holland	1/30/09 15:37 
Ossana	Von Alexander	1/30/09 15:37 
Euric	Griffin	1/30/09 15:38 
Lindsey	Portney	1/30/09 15:38 
Natalie	Jones	1/30/09 15:40 
Stacy	Reese	1/30/09 15:41 
Matt	Alwood	1/30/09 15:43 
Cori	Gore	1/30/09 15:47 
Gwen	Sweet	1/30/09 15:50 
Jesse	Chartier	1/30/09 15:53 
Julian	Castelli	1/30/09 15:56 
Michael	Inman	1/30/09 15:58 
Katherine	Fitzgibbon	1/30/09 16:09 
Tatiana	Ferry	1/30/09 16:10 
Matt	Moore	1/30/09 16:15 
Hector	Lamoreau	1/30/09 16:16 
Melissa	Gallegos	1/30/09 16:19 
Waqas	Doe	1/30/09 16:20 
KIRSTEN	Rehm	1/30/09 16:21 
Sarah	Shaikh	1/30/09 16:22 
Rachel	Anderson	1/30/09 16:24 
Chloe	Sharp	1/30/09 16:25 
Gabriel	Sonia	1/30/09 16:27 
John Gray	Howard	1/30/09 16:27 
Jesse	Jones	1/30/09 16:28 
Robert	Kazenel	1/30/09 16:29 
Kiari	3	1/30/09 16:31 
Frances	Greenfield	1/30/09 16:32 
Alex	Litt	1/30/09 16:32 
Lois	Hendricks	1/30/09 16:33 
Christina	Xx	1/30/09 16:35 
Nicole	Hagen	1/30/09 16:38 
Anastasia	Xx	1/30/09 16:44 
Reggie	Harless	1/30/09 16:45 
Debbie	Gu	1/30/09 16:47 
Lun	Diebold	1/30/09 16:47 
Katherine	Bulis	1/30/09 16:49 
Catherine	Chapin	1/30/09 16:50 
John	MacDonald	1/30/09 16:50 
Christy	Westervelt	1/30/09 16:51 
Sarah	Wroblewski	1/30/09 16:51 
Taylor	Eingold	1/30/09 16:53 
Jessica	Hogsett	1/30/09 16:53 
Alex	Heath	1/30/09 16:53 
Jamie	Fisher	1/30/09 16:55 
Joe	Prisby	1/30/09 16:56 
Connie	Stinson	1/30/09 16:58 
MacKenzie	Wingerter	1/30/09 16:58 
Jenna	Reitman	1/30/09 17:00 
Chris	Noland	1/30/09 17:00 
Adam	Sapp	1/30/09 17:00 
Brittany	Dunnigan	1/30/09 17:01 
Yang	Halloran	1/30/09 17:03 
Renee	Xx	1/30/09 17:03 
Mariah	Martin	1/30/09 17:05 
Teen	McMurtry	1/30/09 17:05 
Josh	Scherch	1/30/09 17:08 
Katie	Papes	1/30/09 17:09 
Emily	Hanson	1/30/09 17:10 
Jess	King	1/30/09 17:10 
Jeffrey	Shultz	1/30/09 17:12 
Ryan	Villa	1/30/09 17:13 
Kristen	Baechler	1/30/09 17:14 
Jordan	Shell	1/30/09 17:15 
Mika	Dunn	1/30/09 17:16 
Joanna	Skinner	1/30/09 17:18 
Michael	Drake	1/30/09 17:18 
Vasil	Lally	1/30/09 17:18 
Timothy	Almonte	1/30/09 17:20 
Sara	Novis	1/30/09 17:20 
Emily	Denham	1/30/09 17:21 
Robin	Rosenbaum	1/30/09 17:21 
Timothy	Medina	1/30/09 17:22 
Eliza	Mcneal	1/30/09 17:23 
Nicole	Sheridan	1/30/09 17:23 
Caitlin	Doe	1/30/09 17:24 
Brian	Guttman	1/30/09 17:24 
Catie	Prendergast	1/30/09 17:25 
Kate	Bennett	1/30/09 17:26 
Stephany	Wolfe	1/30/09 17:26 
Molly	Gethin-Jones	1/30/09 17:26 
Jessica	Holzhauer	1/30/09 17:27 
Chauneey	Ballou	1/30/09 17:27 
Jonathan	Quinn	1/30/09 17:28 
Diego	Blanton	1/30/09 17:28 
Dave	Hedges	1/30/09 17:29 
Arthi	Shugart-Schmidt	1/30/09 17:30 
Neva	Zlatev	1/30/09 17:31 
Qin	Wrightson	1/30/09 17:31 
Leigh-Golding	Joshi	1/30/09 17:32 
Jason	Juan	1/30/09 17:32 
Jheny	Hassan	1/30/09 17:33 
Jared	Mitchell	1/30/09 17:33 
Kristal	Trapp	1/30/09 17:35 
Vanessa	Blanchard	1/30/09 17:35 
Alexandra	Kelley	1/30/09 17:35 
Nancy	Patrick	1/30/09 17:37 
Ashley	Rooney	1/30/09 17:37 
Kat	Skwirz	1/30/09 17:38 
Patricia	Hawes	1/30/09 17:40 
Courtney	Gustafson	1/30/09 17:42 
Felicia	Signorella	1/30/09 17:43 
X	DeVine	1/30/09 17:46 
Mirwais	Holland	1/30/09 17:47 
Charles	Bolton	1/30/09 17:50 
Selenia	Smith	1/30/09 17:51 
Kyle	Schachter	1/30/09 17:51 
Chessa	Ghomeshi	1/30/09 17:51 
Lauren	Pipp	1/30/09 17:58 
Sarah	Elles	1/30/09 17:58 
Carissa	Melges	1/30/09 17:59 
Kristin	Statter	1/30/09 17:59 
Andreas	McGonagle	1/30/09 18:00 
Maile	Two	1/30/09 18:05 
Xiaohan	Hood	1/30/09 18:07 
Chuck	Morris	1/30/09 18:10 
Katrina	Lippold	1/30/09 18:11 
Sam	Sawtelle	1/30/09 18:13 
Christina	Khalaf	1/30/09 18:14 
Emma	Wheeler	1/30/09 18:14 
Carling	Liuzzi	1/30/09 18:14 
Leah	Han	1/30/09 18:15 
X	Detjen	1/30/09 18:16 
Uncw4	Olsen	1/30/09 18:17 
Laura	Tomaro	1/30/09 18:17 
Jesse	Walder-Hoge	1/30/09 18:19 
Temitayo	Drewett	1/30/09 18:19 
Kenneth	Marciano	1/30/09 18:20 
Devin	Sommers	1/30/09 18:21 
Brittany	Caves	1/30/09 18:21 
Mary	Shpino	1/30/09 18:22 
Angela	González	1/30/09 18:24 
Laurel	Hart	1/30/09 18:24 
Elena	Scoville-Weaver	1/30/09 18:27 
William	Sugg	1/30/09 18:28 
Laura	Goldberg	1/30/09 18:30 
Amanda	Wooddell	1/30/09 18:30 
Will	Duncombe	1/30/09 18:31 
Dan	Chimes	1/30/09 18:33 
Marc	Leduc	1/30/09 18:34 
Cassie	Mossey	1/30/09 18:35 
Katheryn	Neumann	1/30/09 18:37 
Aravind	Collidge	1/30/09 18:38 
Sarah	Liebst	1/30/09 18:39 
Leo	Caisse	1/30/09 18:40 
Isabelle	Hamm	1/30/09 18:42 
Julia	Mason	1/30/09 18:42 
Ana	McCrudden	1/30/09 18:43 
Rachel	Zatirka	1/30/09 18:44 
Caroline	O'Connor	1/30/09 18:45 
Amanda	Gagne	1/30/09 18:45 
Monique	Stultz	1/30/09 18:48 
Sawyer	Calabrese	1/30/09 18:48 
Kelli	Fallot	1/30/09 18:51 
Camilla	Doe	1/30/09 18:51 
Cassie	Ives	1/30/09 18:54 
Brian	Tracey	1/30/09 18:55 
Ally	McGinnis	1/30/09 18:57 
Kamil	Britton	1/30/09 18:59 
Michael	Null	1/30/09 18:59 
Vikram	Rosenberg	1/30/09 19:05 
Taylor	Two	1/30/09 19:06 
Hannah	Sheehan	1/30/09 19:09 
Vianna	Lloyd	1/30/09 19:17 
Joe	Sanders	1/30/09 19:20 
Dordt	Wong	1/30/09 19:21 
Morgan	Saumweber	1/30/09 19:29 
Caryn	Conflenti	1/30/09 19:34 
Josh	Luong	1/30/09 19:42 
Johnathon	Place	1/30/09 1:07 
Eleanor	Gideon	1/30/09 20:02 
Meredith	Trafton	1/30/09 20:09 
Ashley	Fargo	1/30/09 20:15 
Jamie	Shafer	1/30/09 20:19 
Molly	Bui	1/30/09 20:22 
Bee	Sweetser	1/30/09 20:25 
Devin	Parrish	1/30/09 20:29 
Nathaniel	Poodt	1/30/09 20:31 
Ian	Lipschutz	1/30/09 20:34 
Stephanie	DeRita	1/30/09 20:37 
Cheyenna	Tigner	1/30/09 20:38 
Joe	Czolba	1/30/09 20:41 
Mat	Pospisil	1/30/09 20:45 
Andria (Dee)	Norman	1/30/09 20:48 
Ye	Fonteyne	1/30/09 20:48 
Optimist	Conrad	1/30/09 20:49 
Chris	Doe	1/30/09 20:52 
Sarah	Parulekar	1/30/09 20:56 
Alex	Bedell-Stiles	1/30/09 20:57 
Steve	Roberts	1/30/09 21:10 
Claire	Simonds	1/30/09 21:14 
Lacey	Doe	1/30/09 21:22 
Karen	Schwartz	1/30/09 21:23 
Steph	Maddox	1/30/09 21:37 
Addison	B	1/30/09 21:38 
Perlum	Mida	1/30/09 21:44 
Julia	Jennings	1/30/09 22:12 
Cameron	Igo	1/30/09 22:12 
Rachel	Wesely	1/30/09 22:13 
Laura	Riley	1/30/09 22:14 
Janel	Splawski	1/30/09 22:29 
Gwyneth	Spalding	1/30/09 22:35 
Madeline	Boynton	1/30/09 22:38 
CiAnna	Begay	1/30/09 22:41 
Sarah	Last Name	1/30/09 22:47 
Kathleen	Lanzet	1/30/09 22:50 
Brandon	Lkjlkjklj	1/30/09 22:54 
Jessica	Axt	1/30/09 22:56 
K	Siddiqi	1/30/09 23:00 
Dan	Richards	1/30/09 23:02 
David	Payne	1/30/09 23:03 
Anna	Schultz	1/30/09 23:05 
Zo	Magill	1/30/09 23:07 
Emily	Dade	1/30/09 23:12 
Arthur	Cohen	1/30/09 23:13 
Mallory	Kaviar	1/30/09 6:30 
Heather	6	1/31/09 10:01 
Nina	Tansey	1/31/09 10:03 
Julia	Whiting	1/31/09 10:05 
David	Batanides	1/31/09 10:07 
Monica	Cox	1/31/09 10:09 
Sam	Mulfinger	1/31/09 10:11 
Rachel	Cassidy	1/31/09 10:13 
Laura	Liebig	1/31/09 10:15 
Jennifer	Hutton	1/31/09 10:17 
Savannah	Fox	1/31/09 10:21 
Kelly	Bakalova	1/31/09 10:23 
Andrew	Stephenson	1/31/09 10:25 
Patricia	Dunlap	1/31/09 10:48 
Denis	Lyons	1/31/09 11:09 
Loren	Imholt	1/31/09 11:16 
Jesse	Nokovic	1/31/09 11:18 
Brian	Stamm	1/31/09 11:26 
Arwen	Hand	1/31/09 11:29 
Faheem	Ahearn	1/31/09 11:41 
Jamie	Marden	1/31/09 12:02 
Eric	Swanson	1/31/09 12:06 
Tori	Wilhelm	1/31/09 12:09 
Austin	Bray	1/31/09 12:16 
Brennan	Streng	1/31/09 12:21 
Matt	Fu	1/31/09 12:35 
Adam	Foxley	1/31/09 12:49 
Chelsea	Seely	1/31/09 12:54 
Lillian	Repka	1/31/09 12:57 
Sam	Tiver	1/31/09 13:09 
Natalie	Payton	1/31/09 13:09 
Molly	Saretzky	1/31/09 13:14 
Skye	Bulis	1/31/09 13:19 
Jennifer	Elson	1/31/09 13:58 
Rosemary	Xx	1/31/09 14:08 
Natalie	Weinstein	1/31/09 14:19 
Andrew	Yiyuan	1/31/09 14:21 
Nicholas	Cooper	1/31/09 14:22 
Riley	Kelly	1/31/09 14:24 
Jennifer	Bigalke	1/31/09 14:27 
John	Raiho	1/31/09 14:30 
Nolan	Hall	1/31/09 14:34 
Keziyah	Vitello	1/31/09 14:36 
Emma	Pieroni	1/31/09 14:40 
Alayne	Bodeen	1/31/09 14:41 
Kenzie	Waldschmidt	1/31/09 14:44 
Shannon	Stewart	1/31/09 14:52 
Null	Gannascoli	1/31/09 14:53 
Lindsay	Stultz	1/31/09 14:54 
Noah	Schares	1/31/09 14:56 
Carolyn	Villafana	1/31/09 14:57 
Katie	Binck	1/31/09 15:03 
Ian	Ballesteros	1/31/09 15:03 
Kate	Hatton	1/31/09 15:04 
Marie	Bernard	1/31/09 15:05 
Student	Gilbert	1/31/09 15:06 
Rachel	Xx	1/31/09 15:08 
Marigrace	Clark	1/31/09 15:09 
Cleo	Blocher	1/31/09 15:10 
Julie	Rhoads	1/31/09 15:10 
Devon	Bailey	1/31/09 15:12 
Madison	Morgan	1/31/09 15:13 
Ferdaouis	Embry	1/31/09 15:15 
Abby	Anderson	1/31/09 15:15 
Keyla	Piche	1/31/09 15:16 
Susan	Smith	1/31/09 15:18 
Ayesha	Horanburg	1/31/09 15:18 
Allison	Martell	1/31/09 15:19 
Amanda	Johnson	1/31/09 15:19 
Alli	Persing	1/31/09 15:19 
Jane	Honaker	1/31/09 15:21 
Briana	Dunlap	1/31/09 15:21 
Cait	Hayes	1/31/09 15:21 
Annie	French	1/31/09 15:21 
Madison	Schofield	1/31/09 15:22 
Sarah	Belcher	1/31/09 15:23 
Asha	Maywhoor	1/31/09 15:23 
John	Tuck	1/31/09 15:24 
Alicia	Gagnon	1/31/09 15:25 
Mark	Lawrence	1/31/09 15:25 
Kathleen	Whiting	1/31/09 15:27 
Maura	Capelle	1/31/09 15:27 
Emily	Bisbey	1/31/09 15:29 
X	Mussleman	1/31/09 15:29 
Luke	Paslick	1/31/09 15:30 
Kathleen	Schaefer	1/31/09 15:31 
Andrew	Mitchell	1/31/09 15:31 
X	Moser	1/31/09 15:31 
Shannon	Jenkins	1/31/09 15:32 
Kevin	Shaw	1/31/09 15:33 
Elizabeth	Smith	1/31/09 15:34 
John	Popovitch	1/31/09 15:35 
Ezinne	Swauger	1/31/09 15:35 
Sam	Aitkens	1/31/09 15:35 
Katherine	Hristova	1/31/09 15:35 
Julie	Roots	1/31/09 15:37 
Rachel	Jka	1/31/09 15:37 
Zoua	Stutesman	1/31/09 15:37 
Kara	Beck	1/31/09 15:39 
Daniela	Yngve	1/31/09 15:39 
Rachel	Fry	1/31/09 15:39 
Anne-Lise	Bernath-Plaisted	1/31/09 15:41 
Ryan	Brunasso	1/31/09 15:41 
Rebecca	Gonzalez	1/31/09 15:42 
Pari	Alex	1/31/09 15:43 
Bari	Krupenye	1/31/09 15:44 
Catherine	Becker	1/31/09 15:45 
Matthew	Dorough	1/31/09 15:45 
Barbara	Allen	1/31/09 15:46 
Steve	Steele	1/31/09 15:48 
Marea	Gadbury	1/31/09 15:48 
Ryan	Shapiro	1/31/09 15:48 
Jeannette	King	1/31/09 15:48 
Laura	Silberman	1/31/09 15:49 
KB	Anderson	1/31/09 15:50 
Mollie	Enfinger	1/31/09 15:50 
Amy	Briggs	1/31/09 15:50 
Alayna	McCrystal	1/31/09 15:50 
Diana	Berger	1/31/09 15:52 
Matthew	Hutton	1/31/09 15:53 
Jameson	Sinclair	1/31/09 15:53 
Andy	Klinge	1/31/09 15:53 
Connor	Serna	1/31/09 15:53 
Lauren	Igeh	1/31/09 15:53 
Mansi	Weikle	1/31/09 15:54 
Dani	Schmid	1/31/09 15:55 
Jeremy	Bergstein	1/31/09 15:55 
Adam	Cusick	1/31/09 15:56 
Eli	Koplin	1/31/09 15:56 
Soohyang	Reimann-Philipp	1/31/09 15:56 
WenLi	Kirkpatrick	1/31/09 15:57 
Patrick	Bradshaw	1/31/09 15:58 
Rebecca	Armstrong	1/31/09 15:58 
Hannah	Brew	1/31/09 15:59 
Danny	Trahan	1/31/09 15:59 
Allison	Milette	1/31/09 16:00 
Daniel	Vees	1/31/09 16:01 
Hallie	Reese	1/31/09 16:01 
Molly	Kay	1/31/09 16:01 
Anna	Fisher	1/31/09 16:02 
Rosemary	Platt	1/31/09 16:03 
Jake	Stoughton	1/31/09 16:04 
Walker	Montpellier	1/31/09 16:04 
Leslie	Hartle	1/31/09 16:04 
Sunita	Kerr	1/31/09 16:04 
Stefanie	Becker	1/31/09 16:05 
Zachary	Sanchez	1/31/09 16:06 
Shalyn	Lawrence	1/31/09 16:08 
Alisha	Meints	1/31/09 16:08 
Adam	Spink	1/31/09 16:10 
Courtney	Simmet	1/31/09 16:10 
Sara	Lopez	1/31/09 16:11 
Nicholas	Hammond	1/31/09 16:12 
Zach	Friedlander	1/31/09 16:14 
Derek	Das	1/31/09 16:16 
Miranda	Hoose	1/31/09 16:17 
Pier	Antonakos	1/31/09 16:18 
Veronika	Student	1/31/09 16:18 
Erin	Doe	1/31/09 16:19 
Jamie	Park	1/31/09 16:21 
Annie	Ford	1/31/09 16:22 
Lauren	Anthony	1/31/09 16:22 
Sama	Schott	1/31/09 16:22 
Isabel	Raju	1/31/09 16:23 
Emily	Racicot	1/31/09 16:23 
Maggie	Skiles	1/31/09 16:24 
Daniel	Cluett	1/31/09 16:25 
Stephanie	Seay	1/31/09 16:25 
Melanie	Manchada	1/31/09 16:26 
Ben	Pinsky	1/31/09 16:28 
Marjorie	Stedtler	1/31/09 16:29 
Isham	Swabek	1/31/09 16:31 
Lindsey	Marticke	1/31/09 16:32 
Joe	Michaelson	1/31/09 16:33 
Albert	Carrier	1/31/09 16:34 
Michael	Looney	1/31/09 16:35 
Brinkley	Grey	1/31/09 16:35 
Molly	Ray	1/31/09 16:35 
Lauren	Keszey	1/31/09 16:38 
Erin	Licht	1/31/09 16:39 
Abbey	Zunes-Wolfe	1/31/09 16:39 
Marci	Yoder	1/31/09 16:40 
B	Cornwell	1/31/09 16:41 
Danielle	Stibitz	1/31/09 16:42 
Rebecca	Lovelace	1/31/09 16:42 
Marlon	Lockamy	1/31/09 16:43 
Natalie	Ball	1/31/09 16:43 
Nina	James	1/31/09 16:45 
Rei	Doe	1/31/09 16:45 
Tony	Carlisle	1/31/09 16:45 
Elaina	Rosenberg	1/31/09 16:46 
Annie Laurie	Quinn	1/31/09 16:48 
Alexander	8	1/31/09 16:48 
Gabrielle	Guillory	1/31/09 16:49 
Thomas	Richardson	1/31/09 16:50 
Ezra	Landrum	1/31/09 16:50 
Gwendolyn	Teran	1/31/09 16:51 
Kristy	Hodge	1/31/09 16:52 
Elizabeth	Brown	1/31/09 16:54 
Matt	Xx	1/31/09 16:55 
Lauren	Edon	1/31/09 16:56 
Andrew	White	1/31/09 16:59 
Sarah	Budd	1/31/09 17:02 
Null	Widner	1/31/09 17:02 
Dirk	Doyle	1/31/09 17:02 
Shannon	Laforce	1/31/09 17:05 
Zach	Merolli	1/31/09 17:07 
Elizabeth	Dame	1/31/09 17:10 
X	Null	1/31/09 17:13 
Alisha	Morrow	1/31/09 17:14 
David	Casey	1/31/09 17:15 
Gary	Jackson	1/31/09 17:16 
Erin	Chandler	1/31/09 17:19 
Erika	Wardell	1/31/09 17:24 
Kayla	Confer	1/31/09 17:25 
Hannah	Walker	1/31/09 17:25 
Jennifer	Hossain	1/31/09 17:25 
Tess	Doe	1/31/09 17:26 
Monica	Cormia	1/31/09 17:26 
Steph	Frederick	1/31/09 17:27 
Blayne	Gold-Ruvolo	1/31/09 17:36 
William	Stover	1/31/09 17:39 
Julia	Xx	1/31/09 17:39 
Tessa	Shaw	1/31/09 17:42 
Matt	Hoffman	1/31/09 17:45 
Rebecca	Campbell	1/31/09 17:46 
Laura	La Reau	1/31/09 17:47 
Abby	Lagrosa	1/31/09 17:48 
Tamara	Siegel	1/31/09 17:50 
Hana	Holley	1/31/09 17:52 
Jay	Jeff	1/31/09 17:53 
Vasilena	Maclellan	1/31/09 17:53 
Carlos	Rowles	1/31/09 17:56 
Frances	O'Neill	1/31/09 17:57 
Jeff	Wright	1/31/09 18:00 
Olivia	Safarian	1/31/09 18:01 
Nicholas	Nardon	1/31/09 18:03 
Lilia	Farber	1/31/09 18:06 
Caitlin	Strobl	1/31/09 18:07 
Mikhail	Doyle	1/31/09 18:08 
Laurie	Clancy	1/31/09 18:08 
Benjamin	Bantuelle	1/31/09 18:10 
Jane	White	1/31/09 18:10 
Cara	Brubaker	1/31/09 18:11 
Marcelino	O'Bryon	1/31/09 18:12 
Cristina	Simpson	1/31/09 18:12 
Paul	Barsky	1/31/09 18:13 
Jessica	Wang	1/31/09 18:14 
Robert	Kotlar	1/31/09 18:15 
Colette	Murphy	1/31/09 18:16 
Katie	Lewis	1/31/09 18:18 
Kirsten	Suzor	1/31/09 18:18 
Allie	De la Torre III	1/31/09 18:20 
Holly	Martini	1/31/09 18:20 
Jan-Erik	Bentley	1/31/09 18:20 
Amanda	Dougherty	1/31/09 18:21 
David	Nelson	1/31/09 18:23 
Michelle	McDermitt	1/31/09 18:23 
X	Griffard	1/31/09 18:24 
Leah	Norton	1/31/09 18:24 
Lindsay	Donahue	1/31/09 18:25 
Adrienne	Spector	1/31/09 18:27 
Ben	Ressler	1/31/09 18:27 
Ryan	Beall	1/31/09 18:27 
Chris	Yeskoo	1/31/09 18:28 
Sarah	Williams	1/31/09 18:28 
Stephan	last_Name	1/31/09 18:30 
Sandra	Roberts	1/31/09 18:31 
Sydney	Bunge	1/31/09 18:33 
Kelly	Santoro	1/31/09 18:34 
Eleanor	Roush	1/31/09 18:34 
Sarah	Brisbois	1/31/09 18:34 
Gigi	Hescock	1/31/09 18:37 
Alice	Ogutu	1/31/09 18:37 
Sebastian	Baird	1/31/09 18:37 
Sophia	Maiorana	1/31/09 18:37 
Stephen	Fonda-Bonardi	1/31/09 18:40 
Peter	Kohles	1/31/09 18:40 
Lindsay	Hunt	1/31/09 18:41 
Jordan	Pfeffer	1/31/09 18:42 
Leslie	Hillman	1/31/09 18:43 
Hilary	Nayeem	1/31/09 18:45 
Tim	Moyer	1/31/09 18:47 
Alicia	Ricker	1/31/09 18:49 
Lauren	Versig	1/31/09 18:49 
Andrea	Friedman	1/31/09 18:53 
James S	Weinstein	1/31/09 18:54 
Rajarshi	Wynn	1/31/09 18:56 
Kim	Mantey	1/31/09 18:56 
Jamie	Hildebrandt	1/31/09 18:57 
Josh	Finney	1/31/09 18:58 
Jessica	Dellacamera	1/31/09 19:00 
Ronnie	Becker	1/31/09 19:00 
Brandon	Albertson	1/31/09 19:01 
Lindsay	Lindsay	1/31/09 19:01 
Jen	Oldiges	1/31/09 19:02 
Gemini	Doe	1/31/09 19:03 
John	Catsos	1/31/09 19:05 
Lila	Hastings	1/31/09 19:05 
Erin	Clack	1/31/09 19:07 
Teen	Bolinger	1/31/09 19:08 
Mike	Maloney	1/31/09 19:08 
Jon	Hoefler	1/31/09 19:08 
Thomas	Sieben	1/31/09 19:11 
Michael	Hupart	1/31/09 19:11 
Ryan	Funk	1/31/09 19:12 
Martin	Mehta	1/31/09 19:15 
Anna	Saud	1/31/09 19:16 
Rayna	Bell	1/31/09 19:17 
Mori	Dordt	1/31/09 19:18 
Aesha	Carneal	1/31/09 19:21 
Patrick	Duck	1/31/09 19:24 
Alicia	Morris	1/31/09 19:26 
Marcella	Osborne Jelks	1/31/09 19:27 
Jon	Janny	1/31/09 19:28 
Jacqueline	Stephenson	1/31/09 19:29 
Maria	Byrnes	1/31/09 19:29 
Charlotte	Syrig	1/31/09 19:29 
Britta	Herberg	1/31/09 19:29 
Emma	Dordt	1/31/09 19:31 
Mignonne	Mcgowen	1/31/09 19:33 
Effy	Ibarra	1/31/09 19:34 
Zachary	Reinauer	1/31/09 19:36 
Doug	Pattantyus	1/31/09 19:38 
Emilie	Senor	1/31/09 19:39 
Sasha	Black	1/31/09 19:41 
Michaela	Beazley	1/31/09 19:42 
Camille	Hills	1/31/09 19:43 
Ramsey	Grant	1/31/09 19:44 
Sarah	Alderson	1/31/09 19:45 
Hannah	Spyrou	1/31/09 19:47 
Ben	Busker	1/31/09 19:47 
Kaylen	Anway	1/31/09 19:47 
Rachael	Quinn	1/31/09 19:48 
Charlotte	Staver	1/31/09 19:49 
Joe	Goff	1/31/09 19:51 
Austin	Lee	1/31/09 19:53 
Amy	Nesseth	1/31/09 19:53 
Catherine	Price	1/31/09 19:54 
Emma	Barker	1/31/09 19:56 
Lorena	Posner	1/31/09 19:56 
Isabelle	Perkins	1/31/09 19:57 
Phoenix	Richmond	1/31/09 19:58 
Jacquelyn	Wisotsky	1/31/09 1:12 
Brenna	Cheney	1/31/09 20:00 
Emily	Subramanian	1/31/09 20:01 
Gabriella	Mehu-Lebrun	1/31/09 20:02 
Cory	Archer	1/31/09 20:03 
David	Thompson	1/31/09 20:05 
Katie	Peterson	1/31/09 20:08 
Virginia	Bryant	1/31/09 20:09 
Jamie2	Joffe	1/31/09 20:09 
Tia	Goldfarb	1/31/09 20:09 
Renee	Nankam	1/31/09 20:10 
Rachel	McManus	1/31/09 20:11 
Alexandra	Holiliday	1/31/09 20:12 
Kaitlin	Fickers	1/31/09 20:13 
Deirdre	Goldberg	1/31/09 20:16 
Rebecca	Bolden	1/31/09 20:17 
Vanessa	Pell	1/31/09 20:17 
Taylor	Martin	1/31/09 20:17 
Brad	Romanov	1/31/09 20:18 
Robb	Jones	1/31/09 20:23 
Timothy	Woolfgang	1/31/09 20:28 
Rachel	Armstrong	1/31/09 20:28 
Anneka	Gross	1/31/09 20:31 
Kelsey	McCadney	1/31/09 20:32 
Jane	Toney	1/31/09 20:35 
Maggie	Gilchrist	1/31/09 20:35 
Michelle	Faison	1/31/09 20:39 
Eric	Null	1/31/09 20:40 
Claire	Potter	1/31/09 20:40 
John	Stork	1/31/09 20:41 
Adriana	Siegner	1/31/09 20:42 
Caitlin	Ferris	1/31/09 20:42 
Michael	Hughes	1/31/09 20:42 
Chris	Kane	1/31/09 20:43 
Jon	Oberholzer	1/31/09 20:43 
Jessica	Olsen	1/31/09 20:43 
Sophie	Meintel-Wade	1/31/09 20:44 
David	Post	1/31/09 20:44 
Leigh-Ann	Wentworth	1/31/09 20:48 
Bill	Goldman	1/31/09 20:48 
Diana	Leugers	1/31/09 20:50 
Sara	Roslcrich	1/31/09 20:50 
Esther	Jaquish	1/31/09 20:52 
Rouwenna	Piñero	1/31/09 20:53 
Dante	Sefat	1/31/09 20:55 
Maeve	Fenton	1/31/09 20:55 
Shannon	Brackett	1/31/09 20:56 
Hannah	Feldman	1/31/09 20:59 
Jasmine	Tolkan	1/31/09 21:01 
Spencer	Slaughter	1/31/09 21:01 
Sophie	Swinton	1/31/09 21:02 
Taylar	Shea	1/31/09 21:03 
Alle	Burnside	1/31/09 21:05 
Jessica	Kleintop	1/31/09 21:06 
Josh	Jones	1/31/09 21:06 
Null	Placona	1/31/09 21:08 
Dexter	Box	1/31/09 21:08 
Lira	Atkinson	1/31/09 21:08 
Chuck	Karra	1/31/09 21:09 
Janna	Gardiner	1/31/09 21:09 
Erica	Bunn	1/31/09 21:10 
Samantha	Butler	1/31/09 21:11 
Amber	Avalos	1/31/09 21:11 
David-Emmanuel	Holloway	1/31/09 21:12 
Thomas	Azer	1/31/09 21:12 
Devin	Fuchs	1/31/09 21:13 
Timothy	Heise	1/31/09 21:13 
Alexander	Margovsky	1/31/09 21:15 
Marlee	Buikema	1/31/09 21:16 
Sarah	Renner-Yeomans	1/31/09 21:17 
Ave	Schlather	1/31/09 21:18 
Danielle	F	1/31/09 21:18 
Avi	Thorlakson	1/31/09 21:19 
Rachel	Uris	1/31/09 21:19 
Fern	Saleh	1/31/09 21:20 
Jeanne	Randrup	1/31/09 21:20 
Staci	Veide	1/31/09 21:21 
Ashley	Ferguson	1/31/09 21:23 
Katherine	Pappas	1/31/09 21:23 
Glenn	Arnesen	1/31/09 21:24 
Jessica	Jeong	1/31/09 21:25 
Rachel	Lukas	1/31/09 21:25 
Danielle	Colquitt	1/31/09 21:26 
Kelsey	Johansen	1/31/09 21:27 
Matthew	Dixon	1/31/09 21:28 
Nicole	Chudacoff	1/31/09 21:29 
Anya	Brumfield	1/31/09 21:31 
Nina	Novak	1/31/09 21:31 
Annie	King	1/31/09 21:32 
Emily	Kramer	1/31/09 21:34 
Fay	Moriarty	1/31/09 21:35 
Alvin	Rennie	1/31/09 21:35 
Meosheka	Roy	1/31/09 21:36 
Elizabeth	Lindabury	1/31/09 21:36 
Kady	Chartrand	1/31/09 21:38 
Ashley	Day	1/31/09 21:38 
Ian	Monaghan	1/31/09 21:40 
Ian	Padron-Aguillon	1/31/09 21:41 
Lily	Shaw	1/31/09 21:42 
Tzega	Padilha	1/31/09 21:42 
Sumita	Zechter	1/31/09 21:43 
David	Larsson	1/31/09 21:44 
Jessica	Devenyi	1/31/09 21:45 
Breann	Woldorf	1/31/09 21:47 
Julia	Phillips	1/31/09 21:49 
Walter	Woods	1/31/09 21:51 
Elizabeth	Howell	1/31/09 21:51 
Janina	Mortellaro	1/31/09 21:52 
Vanessa	Smurf	1/31/09 21:54 
Rachel	White	1/31/09 21:57 
Robyn	Clark	1/31/09 22:00 
Nicky	Miracle	1/31/09 22:00 
Adrienne	Xx	1/31/09 22:01 
Emily	Karlstrom	1/31/09 22:02 
Julia	Davie	1/31/09 22:03 
Juan	Sherman	1/31/09 22:04 
Alison	Ortiona	1/31/09 22:07 
Dana	Pinkey-Drobnis	1/31/09 22:07 
Dylan	Duck	1/31/09 22:08 
Ellen	Kraus-Malett	1/31/09 22:09 
Hannah	Rossel	1/31/09 22:10 
Ildiko	Moger	1/31/09 22:12 
Rachel	Rosenthal	1/31/09 22:13 
Danny	Meyers	1/31/09 22:13 
Kate	McCormack	1/31/09 22:14 
Xie	Francis	1/31/09 22:14 
Emily	DeChristopher	1/31/09 22:15 
Margaret	Whitten	1/31/09 22:16 
Alanna	Lundberg	1/31/09 22:18 
Megan	Edelman	1/31/09 22:19 
Tyler	May	1/31/09 22:21 
Noam	Vackova	1/31/09 22:28 
Emily	Hoff	1/31/09 22:30 
Sarah	Robinson	1/31/09 22:36 
Emily	Pleat	1/31/09 22:37 
Jaque	Ruskin	1/31/09 22:38 
Ashley	Green	1/31/09 22:38 
Ali	Jones	1/31/09 22:43 
Matthew	Jones	1/31/09 22:46 
Gina	Rodriguez	1/31/09 22:47 
Ashley	Barnard	1/31/09 22:48 
Emily	Robinson	1/31/09 22:48 
Molly	Dodd	1/31/09 22:49 
Daniel	LaMotte	1/31/09 22:52 
Alisha	Berkun	1/31/09 22:53 
Jackie	Liuzzi	1/31/09 22:53 
Jason	Tisoczki	1/31/09 22:56 
Gregory	Parker	1/31/09 23:00 
Sarah	Beck	1/31/09 23:00 
Kimberly	Sikes	1/31/09 23:02 
Ramneek	Schall	1/31/09 23:04 
Hilary	Gerzevske	1/31/09 23:07 
Courtney	Laroche	1/31/09 23:09 
Judea	Sprinkle	1/31/09 23:12 
X	Cogan	1/31/09 23:18 
Emily	Waweru	1/31/09 23:21 
Amsie	Guerin	1/31/09 23:28 
Reuben	Two	1/31/09 23:31 
Sami	Levy	1/31/09 23:36 
Virginia	Maurer	1/31/09 23:43 
John	Abdulkarim	1/31/09 23:45 
Robin	Doe 1	1/31/09 23:48 
Sarah	Brown	1/31/09 23:50 
Caroline	White	1/31/09 23:55 
Petra	Anderson	1/31/09 23:57 
Tarini	Atcheson	1/31/09 6:44 
Adam	Fordyce	1/31/09 8:32 
Chris	Doane	1/31/09 8:55 
Ted	Cooke	1/31/09 9:12 
Jon	Holloway	1/31/09 9:18 
Naissa	Harrison	1/31/09 9:53 
Alena	Flanagan	1/31/09 9:55 
Chloe	Johnson	1/31/09 9:57 
Alexandra	Miller	1/31/09 9:59 
Patrick	St.Louis	1/4/09 0:00 
Sara	Dalley	1/4/09 15:16 
Naomi	Rahimi	1/4/09 1:11 
Nicole	Fogarty	1/4/09 21:51 
LaRae	Cusick	1/5/09 11:19 
Rueben	Pardick	1/5/09 12:17 
William	Kristian	1/5/09 15:32 
William	Stratton	1/5/09 15:33 
Robin	Petasne	1/5/09 16:32 
Lauren	Holland	1/5/09 16:36 
Lindsay	Butcavage	1/5/09 16:40 
Allison	Wilson	1/5/09 16:44 
Brittany	Cleary-Budge	1/5/09 16:48 
Raymond	Solis	1/5/09 16:50 
Max	Young	1/5/09 16:53 
PENG	Huhn	1/5/09 16:56 
Caitlin	Fobi	1/5/09 16:58 
Jessica	Schmidt	1/5/09 17:08 
Kevin	Macias	1/5/09 17:12 
Katherine	Cooper	1/5/09 17:15 
Katie	Kramer	1/5/09 17:16 
Jessica	Shiozaki	1/5/09 17:18 
Rachel	May	1/5/09 17:19 
Annie	Whittingham	1/5/09 17:22 
Nicki	Madian	1/5/09 17:23 
Sara	McKeever	1/5/09 17:31 
Mo-Ran	Babb	1/5/09 17:33 
Aaron	Morgan	1/5/09 17:34 
Amanda	Mushegian	1/5/09 17:36 
Timothy	Woolnough	1/5/09 17:37 
Tracey	Cohoe	1/5/09 17:39 
Josef	Bautista	1/5/09 17:40 
Ben	Rasco-Beerman	1/5/09 17:42 
Jason	Colman	1/5/09 17:43 
Jolene	Jennings	1/5/09 17:44 
Eric	Hockenberry	1/5/09 17:46 
Alexandra	Facemire	1/5/09 17:47 
Uncw3	Adebusola	1/5/09 17:51 
Michaela	Fox-Penner	1/5/09 17:52 
Laurie	Battla	1/5/09 17:54 
Sandra	Hastie	1/5/09 17:56 
Leah	Don	1/5/09 17:58 
Paige	Shaw	1/5/09 18:00 
Naomi	Stormoen	1/5/09 18:01 
Ali	Ketchem	1/5/09 18:01 
Sophia	Winston	1/5/09 18:03 
Peter	Muniz	1/5/09 18:06 
Maggie	Morris	1/5/09 18:07 
Tim	Ivory	1/5/09 18:07 
Garrett	Xx	1/5/09 18:08 
Gianna	Thurman	1/5/09 18:08 
Johannah	Carroll	1/5/09 18:15 
Sarah	Dernoga	1/5/09 18:23 
Olivia	Sarabia	1/5/09 18:31 
Janie	Sanders	1/5/09 18:32 
Trent	Slentz	1/5/09 18:38 
Heather	Carragee	1/5/09 18:50 
Adriel	Whiteman	1/5/09 18:58 
Holly	Doe	1/5/09 19:04 
Emmert	Brown	1/5/09 19:09 
Jesse	Tsimoyianis	1/5/09 19:15 
Jane	Pullen	1/5/09 19:24 
Scott	Portney	1/5/09 19:37 
Hannah	Holahan	1/5/09 20:09 
Armaan	Baugh	1/5/09 23:30 
Meagan	Matteson	1/5/09 23:31 
Meredith	Neilson	1/5/09 23:32 
Carl	Gagliardi	1/5/09 23:35 
Jake	Rush	1/5/09 23:36 
Andrew	Offerman	1/5/09 23:38 
Jane	Claiborne	1/5/09 23:39 
Mollie	Gross	1/5/09 23:40 
Leah	Markson	1/5/09 23:42 
Sara	Hall	1/5/09 23:43 
Maddy	Li	1/5/09 23:44 
JP	Mandel	1/5/09 23:46 
Nicole	Hanrahan	1/5/09 23:47 
Lindsey	Vendil	1/5/09 23:49 
David	Dean	1/5/09 23:50 
Sami	Smith	1/5/09 23:52 
Kara	Abrams	1/5/09 23:53 
Jean	Dasgupta	1/5/09 23:54 
Ben	Lewis	1/5/09 23:56 
Jocelin	Sanders	1/5/09 23:59 
Michael	Soker	1/5/09 9:16 
Adam	White	1/6/09 0:00 
Robert	Gibson	1/6/09 0:01 
Jon	Gaffey	1/6/09 0:03 
Kathleen	Brazell	1/6/09 0:04 
Jon	Perry	1/6/09 0:05 
Zachary	Gustafson	1/6/09 0:06 
Jerrica	Reinert	1/6/09 0:08 
Corey	Svenson	1/6/09 0:09 
Ian	Mitchell	1/6/09 0:10 
Quinn	Donatelli	1/6/09 0:11 
Cléa	Kalinkin	1/6/09 12:22 
Myron	Venable	1/6/09 12:24 
Noel	Sloan	1/6/09 12:25 
Nyair	Goler	1/6/09 12:28 
Kate	Stevens	1/6/09 12:32 
Lindsay	Neilan	1/6/09 12:33 
Caitlin	Brookes	1/6/09 12:35 
Carly	Sullivan	1/6/09 12:36 
Josh	Oculi	1/6/09 12:37 
Jaime	Shapiro	1/6/09 12:38 
One	Matusi	1/6/09 12:57 
Jessica	5	1/6/09 12:59 
Allison	Gray	1/6/09 13:00 
Gergely	Tm	1/6/09 13:02 
Cortland	Williams	1/6/09 13:04 
Paige	Shah	1/6/09 13:05 
Jillian	Disisdoro	1/6/09 13:07 
Leslie	Kemlitz	1/6/09 13:08 
Amanda	W	1/6/09 13:10 
Thomas	Carlson	1/6/09 13:11 
Ethan	Sweeney	1/6/09 13:13 
Ely	Lojek	1/6/09 13:14 
Ian	Thin	1/6/09 13:20 
Arla	Wallace	1/6/09 14:11 
Alexander	Gluk	1/6/09 14:14 
Phillip	Stephenson	1/6/09 14:16 
Jaclyn	Millward	1/6/09 14:18 
William	Doe	1/6/09 14:42 
Rachel	Eyerer	1/6/09 15:45 
Patricia	Christie	1/6/09 19:08 
Jessie	Kurdyla	1/7/09 10:57 
Mariana	Hayes	1/7/09 11:58 
Daryl	Waldvogel	1/7/09 13:03 
Heather	Bender	1/7/09 13:12 
Mo	Ota	1/7/09 13:27 
Robert	Larkins	1/7/09 14:52 
B	Head	1/7/09 17:56 
Erica	Koreshi	1/7/09 18:11 
Megen	Wessale	1/7/09 19:27 
Danielle	Growald	1/7/09 20:26 
Rachel	England	1/7/09 20:28 
Callie	Mariotti	1/8/09 14:41 
Brianna	Kauffman	1/8/09 14:45 
Colin	Achinivu	1/8/09 14:50 
Molly	Brekelmans	1/8/09 14:54 
Omid	Simon	1/8/09 14:58 
Brittany	Melhorn	1/8/09 15:02 
Rachel	Brown	1/8/09 15:06 
Olivia	Stewart	1/8/09 15:10 
Kara	Osborne	1/8/09 15:14 
Hannah	Rodriguez	1/8/09 15:18 
Emberly	Mercer	1/8/09 15:23 
Abu	Ruthenberg-Marshall	1/8/09 15:26 
Florencia	Braun	1/8/09 15:29 
Chris	Cowee	1/8/09 15:32 
Edwin	Antelmi	1/8/09 16:04 
Bonnie	Worthy	1/8/09 19:05 
Bryan	Blumenshine	1/8/09 23:07 
Brita	Nevens	1/8/09 9:22 
Rachel	Holland	1/9/09 16:16 
Samantha	Carter	1/9/09 23:37 
Shannon	Frink	1/9/09 5:53 
Allison	Nguyen	11/12/08 10:47 
SArah	Hankins	11/12/08 13:23 
Sarah	Xx	11/12/08 13:30 
Jennifer	Cope	11/12/08 14:04 
Douglas	Zimmerman	11/12/08 14:46 
Aya	Fuller	11/12/08 15:00 
Mary Kate	Curry	11/12/08 16:05 
Audrey	Hasegan	11/12/08 17:18 
Eli	Zielke	11/13/08 16:40 
Colin	Harmston	11/13/08 18:17 
Shiyu	Armideo	11/13/08 1:32 
Megan	Doe	11/13/08 21:19 
Meggie	Tippit	11/16/08 11:44 
Laura	Rapetsky	11/16/08 13:54 
Paul	Fulghum	11/16/08 20:20 
Shannon	Warner	11/17/08 19:41 
Shannon	Davis	11/19/08 21:56 
Nash	Okaty	11/20/08 16:25 
Amanda	Hartzell	11/23/08 20:44 
David	Thomas	11/25/08 19:21 
John	Hoy	11/28/08 22:44 
Peter	Hunt	11/30/08 17:49 
Jacqueline	Chan	12/10/08 11:51 
Anna	Brodie	12/10/08 12:24 
Emilu	Stamieszkin	12/10/08 16:37 
Eriel	Everett	12/10/08 19:56 
Susie	Gorman	12/10/08 21:03 
Katherine	Kemp	12/10/08 21:41 
Ann	MacConnell	12/10/08 21:42 
Greta	Kaufer	12/10/08 22:04 
Marysa	Dillie	12/11/08 0:16 
Katie	Baimas-George	12/11/08 11:56 
Emma	Landry	12/11/08 12:49 
Robin	Doe	12/11/08 13:45 
Patrick	Mufson	12/11/08 13:50 
Tatiana	PTAK	12/11/08 15:49 
Sarah	Geretz	12/11/08 16:55 
Caitlin	Spitz	12/11/08 18:00 
Katherine	Benjamin	12/11/08 21:25 
Aden	Stone	12/11/08 23:11 
Justin	Munson	12/11/08 23:17 
Rebecca	Eng	12/11/08 2:17 
Claire	Voigt	12/11/08 2:24 
Carrie	Greenwald	12/11/08 2:47 
Maria	Fenster	12/11/08 3:39 
Ella	Kutvirt	12/12/08 11:52 
Heidi	Fox	12/12/08 12:08 
Megan	DiCiaccio	12/12/08 12:45 
Blane	Maguire	12/12/08 12:50 
Victoria	Prue	12/12/08 13:06 
Kenneth	Simon	12/12/08 13:50 
Andrew	Nace	12/12/08 14:24 
Camila	Tackett	12/12/08 14:43 
Lauren	Brainard	12/12/08 21:40 
Thera	Maldonado	12/12/08 21:44 
Lily	Hadley	12/12/08 3:46 
Megan	Fea	12/13/08 10:34 
Kindle	Withelder	12/14/08 14:54 
Steve	Pierson	12/14/08 16:43 
Autumn	McCullough	12/14/08 16:50 
Rhona	Caputo	12/14/08 17:25 
Marc	Alt	12/14/08 1:49 
Emily	Mansfield	12/14/08 23:06 
Ashton	Zhu	12/15/08 0:01 
Gena	Taylor	12/15/08 0:39 
Anjali	Hai	12/15/08 14:06 
Bridget	Hazzard	12/15/08 14:57 
Kyle	Wolff	12/15/08 15:19 
Tess	Paul	12/15/08 15:46 
Kay	Stewart	12/15/08 16:32 
Sarah	Sample	12/15/08 17:45 
Abdulwahab	Detweiler	12/15/08 22:27 
Dannielle	Nance	12/15/08 23:08 
Rachel	Kimzey	12/15/08 9:45 
Jessy	Valen	12/16/08 12:36 
Angie	McGrath	12/16/08 12:40 
Jill	Randall	12/16/08 12:43 
Carolyn	Hayes	12/16/08 12:46 
Andrew	Pugh	12/16/08 12:48 
Maria	Sabo	12/16/08 12:50 
Thomas	Canton	12/16/08 12:54 
Joel	Hasty	12/16/08 12:57 
Sonum	Fefer	12/16/08 12:58 
Seyeon	KNight	12/16/08 13:00 
Annie	Rubin	12/16/08 13:02 
Tamera	Ginsburg	12/16/08 13:04 
Gina	Hesnan	12/16/08 13:04 
Mackenzie	Singh	12/16/08 13:06 
Catherine	Roche	12/16/08 13:08 
Shane	Bingham	12/16/08 13:10 
Shelby	Domske	12/16/08 13:11 
Devon	Vaughan	12/16/08 13:13 
Jessie	Hill	12/16/08 13:15 
Sarah	Gerow	12/16/08 13:16 
Ashley	Kerr	12/16/08 13:18 
X	Norris	12/16/08 13:20 
Grace	Lahey	12/16/08 13:22 
Rachael	Major	12/16/08 13:23 
Addie	Golec	12/16/08 13:24 
Casey	Mui	12/16/08 13:25 
Diamond	Reyes	12/16/08 13:27 
Sarah	Eden	12/16/08 13:44 
Chenchen	Peng	12/16/08 14:28 
Mark	Young	12/16/08 15:08 
Emma	Baldwin	12/16/08 17:38 
Edward	Fahay	12/16/08 19:10 
Jennifer	Dordt	12/16/08 19:16 
Jess	Frongillo	12/16/08 19:20 
Michelle	Ladle	12/16/08 21:25 
Kimberly	Williams	12/16/08 22:47 
Rachel	Slot	12/16/08 3:32 
Christina	Gerstenberger	12/17/08 12:03 
Shiquita	Schafer	12/17/08 13:21 
Summer Rayne	Straussman	12/17/08 13:51 
Megan	Woods	12/17/08 14:09 
Lesley	Fisher	12/17/08 14:27 
Amanda	Powell	12/17/08 14:44 
Ariana	Mossburg-Schall	12/17/08 14:58 
Kimber	Dolginow	12/17/08 15:09 
Sherman	Kemp	12/17/08 15:11 
Jenna	Lee	12/17/08 15:14 
Chloe	McWilliams	12/17/08 15:16 
Madeline	Mailloux	12/17/08 15:17 
Liana	Harkey	12/17/08 15:19 
Jackson	Sarhanis	12/17/08 15:21 
Lauren	Cook	12/17/08 15:25 
Emma	Soave	12/17/08 15:27 
Bethany	Segal	12/17/08 15:29 
Hillary	Weber	12/17/08 15:31 
Jamie	Piechocki	12/17/08 15:33 
Lisa	Phoenix	12/17/08 15:35 
Hila	Haber	12/17/08 15:46 
Jonathan	York	12/17/08 15:49 
X	Spelke	12/17/08 15:54 
Katherine	Atkatsh	12/17/08 15:58 
Five	Sady	12/17/08 16:02 
Diane	Boggess	12/17/08 16:05 
Mari	Whipple	12/17/08 16:09 
Adam	Cannon	12/17/08 16:12 
Megan	Lansdale	12/17/08 16:16 
Patrick	Gadhia	12/17/08 16:16 
Johanna	Bower	12/17/08 16:20 
Kacie	Doyle	12/17/08 17:14 
Erin	Siegel	12/17/08 17:49 
Page	Rubin	12/17/08 17:55 
Tara	Heopenlinger	12/17/08 19:59 
Lucrezia	Cornett	12/17/08 22:05 
Geoff	O'Brien	12/17/08 22:14 
Josh	Singer	12/17/08 23:20 
Simone	Hankin	12/17/08 7:41 
Caroline	Godine	12/18/08 10:03 
Michael	Ranquist	12/18/08 10:17 
Elizabeth	Socia	12/18/08 11:30 
Priya	Thomas	12/18/08 11:35 
Elizabeth	Johnson-Ulrich	12/18/08 12:13 
June	Bozzi	12/18/08 12:35 
Cassie	Bunny	12/18/08 12:56 
Emily	Malay	12/18/08 14:01 
Tara	Nelson	12/18/08 14:49 
Andrew	Campbell	12/18/08 15:34 
Danielle	Chaum	12/18/08 15:47 
Mary Dacey	Lombardi	12/18/08 15:47 
Abby	Riley	12/18/08 15:53 
Cimma	Seton	12/18/08 16:14 
Emma	Han	12/18/08 16:21 
Jordan	Neer	12/18/08 16:21 
Madeline	Applegate	12/18/08 16:30 
Kulia	Gross	12/18/08 16:31 
Amy	Phillips	12/18/08 16:35 
Elizabeth	Miller	12/18/08 16:36 
Anket	Myran	12/18/08 16:39 
Kevin	Thomsen	12/18/08 16:41 
Laura	Keville	12/18/08 16:43 
Kara	Soniat	12/18/08 16:46 
Catherine	Krajnik	12/18/08 16:48 
John	Dayananda	12/18/08 16:50 
Frederick	Motley	12/18/08 16:53 
Hailey	Kopp	12/18/08 16:55 
Philip	Lauth	12/18/08 16:57 
X	VanWallendael	12/18/08 17:35 
Sarah	Riordan	12/18/08 17:43 
Stacy	Ken	12/18/08 18:22 
Megan	Singh	12/18/08 18:55 
Cat	Posner	12/18/08 19:34 
Eric	Matos	12/18/08 1:10 
Carly	Van Roggen	12/18/08 20:18 
Emilyn	Bartolotta	12/18/08 20:43 
Cody	Yozzo	12/18/08 20:50 
Drucilla	Philips	12/18/08 21:13 
Hayley	Wright	12/18/08 22:30 
Brittany	Wright	12/18/08 22:30 
Angelique	Bauer	12/18/08 23:00 
Nathan	Frable	12/18/08 23:15 
Khalif	Stonehill	12/18/08 23:39 
Paymon	Cochran	12/18/08 23:54 
Rhys	Brotherton	12/18/08 3:34 
Lauren	De la Motte	12/18/08 9:12 
Andrew	Sagastegui	12/18/08 9:16 
Tabitha	Irwin	12/18/08 9:20 
Jennifer	Nebert	12/18/08 9:23 
Caitlin	Cuomo	12/18/08 9:24 
Hannah	Kohl-Riggs	12/18/08 9:26 
Cherisse	Liao	12/18/08 9:28 
Margie	Robinson	12/18/08 9:29 
Elizabeth	Wendel	12/18/08 9:30 
Robin	Asthana	12/18/08 9:31 
Brianna	Doe	12/18/08 9:32 
Nelson	Lemanski	12/18/08 9:33 
Katie	Robinson	12/18/08 9:35 
April	Sartor	12/19/08 10:00 
Jesse	Hirozawa	12/19/08 10:02 
Kelly	Durante	12/19/08 10:05 
Evelina	Raymond	12/19/08 10:07 
Kyle	Mitchell	12/19/08 10:09 
Emma	Bookstein	12/19/08 10:11 
Laura	Vargas	12/19/08 10:14 
Sierra	Andre	12/19/08 10:16 
Erik	Marrone	12/19/08 10:17 
Icy	Beslity	12/19/08 10:19 
Miranda	Harris	12/19/08 10:21 
Rachel	Namnoum	12/19/08 10:23 
Laura	Carson	12/19/08 10:26 
Wendi	Burke	12/19/08 10:28 
Emily	McGreal	12/19/08 10:30 
Rachel	Bollig	12/19/08 10:32 
Sherry	Fischer	12/19/08 10:34 
Nick	Acharya	12/19/08 10:36 
Jackie	Lyons	12/19/08 10:38 
Nate	Endres	12/19/08 10:40 
Jonathan	Speth	12/19/08 10:42 
Adam	Blue-Hitchens	12/19/08 10:44 
Courtney	Chandler	12/19/08 10:46 
Sean	Riedel	12/19/08 10:48 
Robyn	Levin	12/19/08 11:23 
Ryshelle	Ricks	12/19/08 11:28 
Keith	Parren	12/19/08 11:32 
Melanie	Stevenson	12/19/08 12:32 
Patricia	Suley	12/19/08 12:34 
Aurora	Ortega	12/19/08 12:38 
Justin	Chinana	12/19/08 12:44 
Lee	Sachs	12/19/08 12:49 
Lauren	Walker	12/19/08 12:50 
Amanda	Villa	12/19/08 12:53 
Sandra	Ludwig	12/19/08 12:56 
Kristina	Trowbridge	12/19/08 12:58 
Jon	Wilson	12/19/08 13:04 
Sean	Modawal	12/19/08 13:15 
Michael	Murphy	12/19/08 13:16 
Callie	McLaughlin	12/19/08 13:19 
Eva	Rotman	12/19/08 13:30 
Lani	Catron	12/19/08 14:00 
Anne	Layton	12/19/08 14:27 
Benjamin	Burns	12/19/08 14:30 
Claire	Piccinino	12/19/08 14:31 
Nadia	Law	12/19/08 14:32 
Sarah	Johnston	12/19/08 14:33 
Wendy	Sabo	12/19/08 14:34 
Eric	Adler	12/19/08 14:35 
Melissa	Werth	12/19/08 14:36 
Todd	Walsh	12/19/08 14:37 
Bradley	Spioch	12/19/08 14:38 
Sarah	Oddie	12/19/08 14:39 
Victoria	Tvergyak	12/19/08 14:40 
Robin	Dye	12/19/08 14:42 
Ilya	Plock	12/19/08 14:43 
Abram	Berman	12/19/08 14:45 
Alissa	Morris	12/19/08 14:47 
Owen	Nolan	12/19/08 14:53 
Sazzad	Xx	12/19/08 15:10 
Julia	Thorp	12/19/08 15:22 
Catherine	Holden	12/19/08 15:26 
Tiffany	Pskowski	12/19/08 15:55 
Sarah	Catlin	12/19/08 15:56 
Jenni	Gooljar	12/19/08 15:58 
Adam	Taylor	12/19/08 16:00 
Ann	Lewis	12/19/08 16:03 
Marie	Connerton	12/19/08 16:05 
Kate	VanDragt	12/19/08 16:07 
Jim	Hathaway	12/19/08 16:09 
Edward	Benstead	12/19/08 16:11 
Nick	Postone	12/19/08 16:13 
Melissa	Webb	12/19/08 16:15 
Serge	Doee	12/19/08 16:17 
Sam	Mom	12/19/08 16:22 
Traci	Reynoso	12/19/08 16:27 
Jane	Wenner	12/19/08 16:37 
Cristina	Revell	12/19/08 16:39 
One	Lipson	12/19/08 16:44 
Devin	Sloan	12/19/08 16:46 
Diana	Tufenkian	12/19/08 16:49 
Shantel	Malott	12/19/08 17:21 
Elisha	Finley	12/19/08 17:32 
Sara	Levi	12/19/08 17:34 
Emily	Davis	12/19/08 17:36 
Emily	Alderman-Tuttle	12/19/08 17:36 
Yo	Yeager	12/19/08 17:37 
Ryan	Sothoron	12/19/08 17:40 
Elizabeth	Robinson	12/19/08 17:40 
Margot	Braustein	12/19/08 17:41 
Matt	Shanker	12/19/08 17:41 
Camille	Perez	12/19/08 17:43 
Jenn	Rose	12/19/08 17:46 
Mary	Browne	12/19/08 17:47 
Justin	Wohlfeld	12/19/08 17:47 
Mike	Downs	12/19/08 17:49 
Jeff	Stout	12/19/08 17:49 
Julian	Aquilina	12/19/08 17:50 
Wamlin	Lennen	12/19/08 17:51 
9	Gayle	12/19/08 17:52 
Isabel	Englar	12/19/08 17:54 
Mairead	Arams	12/19/08 17:57 
Jim	Billerbeck	12/19/08 18:04 
Nikke	Lee	12/19/08 18:13 
Lindsay	Zubkousty	12/19/08 18:27 
Laura	Rios	12/19/08 18:35 
Lillian	Chen	12/19/08 18:36 
Allie	Puri	12/19/08 18:43 
Emily	Grossman	12/19/08 18:46 
John	Dowd	12/19/08 18:50 
Meredith	Lipinski	12/19/08 19:08 
Amy	Cossart	12/19/08 20:01 
Makailah	Braun	12/19/08 20:13 
Jacob	McKnight	12/19/08 20:15 
Leigh	Scofield	12/19/08 20:47 
Karina	Lynchburg	12/19/08 21:54 
Cindy	McBean	12/19/08 22:04 
Jen	Robbins	12/19/08 22:05 
Max	Kauders	12/19/08 22:06 
Zoey	Edmands	12/19/08 22:22 
Casey	Scully	12/19/08 22:47 
Martin	Student	12/19/08 23:31 
Benjamin	David	12/19/08 23:32 
Daniela	Mcshea	12/19/08 23:41 
Christine	Donovan	12/19/08 4:53 
Margaret	Larkin	12/19/08 4:57 
Nathan	Osborne	12/19/08 5:01 
Melanie	Rendes	12/19/08 5:04 
Andrea	Dube	12/19/08 5:06 
Rasheda	Gantt	12/19/08 5:10 
Eugene	Russo	12/19/08 5:13 
Julie	Buckingham	12/19/08 5:16 
Celeste	Duffy	12/19/08 5:19 
Alexander	Butler	12/19/08 5:22 
Alexandra	Shastry	12/19/08 5:25 
Ryan	Rudolph	12/19/08 5:28 
Sarah	Gordon	12/19/08 5:31 
X	Ranasinghe	12/19/08 5:33 
Tara	Simpson	12/19/08 5:36 
Tyler	Slaughter	12/19/08 5:38 
Stephanie	Green	12/19/08 5:42 
Cynthia	Chiang	12/19/08 5:46 
Michael	Seher	12/19/08 5:49 
Andie	Nerurkar	12/19/08 5:52 
Kim	Mitchell-Olds	12/19/08 5:56 
Zachary	Yu	12/19/08 5:59 
Keith	Moua	12/19/08 6:02 
Courtney	Summerset	12/19/08 6:05 
Elizabeth	Ogilvie	12/19/08 6:07 
Marie	Baer	12/19/08 6:10 
Cantrell	Brown	12/19/08 6:13 
Keith	Tolkan	12/19/08 8:22 
Dominique	Wigren	12/19/08 9:47 
Megan	Gross	12/19/08 9:50 
Brittany	MacKenzie	12/19/08 9:54 
Julia	Carnegie	12/19/08 9:57 
Dana	Williams	12/2/08 13:53 
Paige	Tompkins	12/2/08 18:21 
Maria	Brown	12/2/08 21:50 
Michael	Panek	12/2/08 23:19 
Gabe	Segal	12/20/08 0:09 
Casey	Saenz	12/20/08 0:10 
Justine	Hartin	12/20/08 0:23 
Matt	Yoon	12/20/08 0:30 
Katherine	Xx	12/20/08 0:37 
Brady	Manger	12/20/08 0:39 
Samanthe	Field	12/20/08 10:52 
Abby	Lam	12/20/08 11:32 
Tristan	DeMuth	12/20/08 11:37 
Edward	Mathieson	12/20/08 11:43 
Urs	Stein	12/20/08 11:47 
Kris	Forrester	12/20/08 11:53 
Helene	Van Beek	12/20/08 11:58 
Jane	Dahan	12/20/08 12:05 
Vinicio	Healey	12/20/08 12:18 
Peter	Farrell	12/20/08 12:21 
Emily	Wolochow	12/20/08 12:26 
Viktoria	Thibodeaux	12/20/08 12:34 
Bill	Epstein	12/20/08 12:40 
Jennifer	Jacobson	12/20/08 13:44 
Donna	Taylor	12/20/08 14:05 
Michael	Larochelle	12/20/08 15:35 
Dan	Fraissinet	12/20/08 16:43 
Alexander	Harney	12/20/08 16:56 
Katrina	Rector	12/20/08 17:18 
Kavita	Monk	12/20/08 20:43 
Emma	Thorndike	12/20/08 21:10 
Stacy	Rothstein	12/20/08 22:55 
Kaytlin	Riggeneach	12/20/08 22:56 
Dominic	Mayes	12/20/08 23:17 
Dana	Harwick	12/20/08 2:22 
Flora	Hebda	12/20/08 9:48 
Sara	Greenfield	12/21/08 15:03 
Katherine	Berg	12/22/08 11:31 
Amanda	Glustrom	12/22/08 12:03 
Keith	Harding	12/22/08 12:20 
Mary	Campbell	12/22/08 12:24 
Ali	Blumberg	12/22/08 12:27 
Valerie	Martin	12/22/08 23:39 
Jessica	Three	12/23/08 17:52 
Kaileen	Edwards	12/24/08 12:34 
Erin	Fritz	12/25/08 0:08 
Ann	Abdulwahab	12/26/08 13:35 
Kyle	Swier	12/26/08 16:58 
Anne-Marie	McManus	12/26/08 18:46 
Becky	Ballas	12/26/08 19:23 
Kristen	Packet	12/26/08 9:47 
Elizabeth	Bryant	12/27/08 11:50 
Emily	Jordan	12/27/08 12:23 
Austin	Shaughnessy	12/27/08 22:27 
Lisa	Esterman	12/27/08 23:17 
F	Tyler	12/28/08 0:30 
ETSU	De Haven	12/28/08 15:55 
Kathryn	Hardy	12/28/08 16:12 
Andrea	King	12/28/08 16:45 
Chris	Derricotte	12/28/08 21:56 
Laura	Cleary	12/28/08 22:00 
Holly	Martin	12/28/08 22:03 
Amanda	Howard	12/28/08 22:05 
Alaura	Wlostowski	12/28/08 22:06 
Isaac	Kasimova	12/28/08 22:08 
Emma	Steele	12/28/08 22:09 
Mandy	Dagavarian	12/28/08 22:10 
Tracy	Hancock	12/28/08 22:12 
Dave	Dougherty	12/28/08 22:13 
Rebecka	5175	12/28/08 22:14 
Jessica	Gore	12/28/08 22:15 
Andrew	McGee	12/28/08 22:17 
Eli	Dahlhausen	12/29/08 15:10 
Cristina	Hutton	12/29/08 15:27 
Heather	Hill	12/29/08 17:52 
Beth	Radcliffe	12/29/08 23:02 
Oliver	Bringe	12/3/08 0:47 
Kaitlyn	Applegate	12/3/08 17:53 
Brant	Berdis	12/3/08 19:25 
Sarah	Cordova	12/3/08 21:43 
Marta	Nguyen	12/3/08 22:21 
Sarah	Clatterbuck	12/30/08 11:28 
Erin	Solan	12/30/08 11:53 
Miriam	Middlebrook	12/30/08 12:47 
Four	Myers	12/30/08 14:37 
Andrew	Wiersma	12/31/08 0:02 
Victorio	Lucas	12/31/08 13:53 
Devon	James	12/31/08 18:23 
Jerry	Owens	12/31/08 20:40 
Curtis	Bailey	12/4/08 13:02 
Kelly	Zemel	12/4/08 14:58 
Meaghan	Ciolino	12/4/08 15:20 
Emma	O'donnell	12/4/08 21:35 
Greg	Dzara	12/4/08 9:21 
Matthew	Stitt	12/5/08 0:01 
Jonathan	Fahey	12/7/08 13:02 
Kristin	Tredeau	12/7/08 13:04 
Dan	Beneway	12/7/08 13:07 
Jeff	Shamon	12/7/08 13:10 
Stephanie	Trowbridge	12/7/08 13:12 
Yi	De Treville	12/7/08 13:14 
Stephanie	Bales	12/7/08 13:16 
Null	Habicht	12/7/08 13:18 
Nate	Terry	12/7/08 13:20 
Courtney	Ramirez	12/7/08 13:23 
Sherry	Cooper	12/7/08 14:01 
Kayla	Lee	12/7/08 14:04 
Portia	Gilyard	12/7/08 14:06 
Julie	Lagor	12/7/08 14:08 
Lydia	Faber	12/7/08 14:09 
Natalie	Levy	12/7/08 14:10 
Rachel	Full	12/7/08 14:20 
Rachel	Farnsworth	12/7/08 14:22 
Gabe	Poole	12/7/08 14:24 
Hannah	Singer	12/7/08 14:25 
Nolan	Withers	12/7/08 17:13 
Rose	Lemle	12/8/08 10:27 
Amanda	Monroe	12/8/08 14:29 
Brendan	Fisher	12/8/08 20:11 
Sam	Murphy	12/8/08 20:13 
Christie	Cleeves	12/8/08 20:20 
Naani	Rosenfeld	12/8/08 20:22 
Kate	Two	12/8/08 20:26 
Andrew	Null	12/8/08 20:28 
Kristen	Sneeringer	12/8/08 20:29 
Sofia	Murillo	12/8/08 20:31 
Jane	Breden	12/8/08 20:33 
Chloe	James	12/8/08 20:35 
Theodora	Crews	12/8/08 20:37 
England	Wilen	12/8/08 20:40 
Michelle	Normand	12/8/08 20:42 
Amy	Axe	12/8/08 20:43 
April	Durante	12/8/08 20:44 
Molly	Carey	12/8/08 20:46 
Angela	Burns	12/8/08 20:47 
James	Paglierani	12/8/08 20:49 
Amanda	Harris	12/8/08 20:51 
Brett	Nemeth	12/8/08 20:52 
Mike	Golembeck	12/8/08 20:54 
Jordan	Grunow	12/8/08 20:56 
Null	Turner	12/8/08 20:58 
Kyla	Leeper	12/8/08 20:59 
Laura	Ward	12/8/08 21:03 
Roger	Deng	12/8/08 21:05 
Brian	Martin	12/8/08 21:06 
Devin	Archambault	12/8/08 21:07 
Sarah	Irvine	12/8/08 21:09 
Eco	Donnellan	12/8/08 21:10 
Tyler	YANG	12/8/08 21:12 
Marisol	Braun	12/8/08 21:14 
Rose	Rockafellow	12/8/08 21:17 
Cate	Perry	12/8/08 21:18 
Natalie	Griswold	12/8/08 21:19 
Alisha	O'dell	12/8/08 21:20 
Martha	Hatch	12/8/08 21:22 
Maia	Allen	12/8/08 21:24 
Genna	Chudkowski	12/8/08 21:26 
Maria	Shen	12/8/08 21:27 
Tara	Howard	12/8/08 21:28 
Tara	Wolforf	12/8/08 21:30 
Jaime	Pratt	12/8/08 21:31 
Shawn	Rygg	12/8/08 21:33 
Jen	Freeman	12/8/08 21:34 
Derek	Ip	12/8/08 21:36 
Tannis Ruth	Klimas	12/8/08 21:38 
Ashley Morgan	Martino	12/8/08 9:38 
Samantha	Anderson	12/9/08 10:13 
Stephanie	Lamm	12/9/08 12:07 
Christina	Amiott	12/9/08 6:37 
Sarah	Hough	12/9/08 9:47 
Jon	Marcucci	2/1/09 0:03 
X	Griffin	2/1/09 0:05 
Kevin	Fowler	2/1/09 0:11 
Zachary	Carter	2/1/09 0:14 
Gwendolyn	Mangold	2/1/09 0:16 
Johanna	Donnelly	2/1/09 0:20 
Carly	Shurtz	2/1/09 0:23 
Jennifer	Sperrazza	2/1/09 0:30 
Lena	Raguza	2/1/09 0:30 
William	Driscoll	2/1/09 10:17 
Nathan	Rudolph	2/1/09 10:26 
Sarah	Larson	2/1/09 10:40 
Tiffani	Brinker	2/1/09 10:45 
Mary	Costantini	2/1/09 10:49 
Kirsten	Li	2/1/09 10:50 
Danielle	Van Nostrand	2/1/09 10:54 
Bethany	Rogers	2/1/09 10:57 
Sam	Smith	2/1/09 11:02 
Nick	Mack	2/1/09 11:07 
Ayal	Brownlee	2/1/09 11:10 
Ilse	Chavez	2/1/09 11:13 
Jason	Jamison	2/1/09 11:20 
Paul	Levedahl	2/1/09 11:24 
Steph	Zahn	2/1/09 11:29 
Brittany	Roosth	2/1/09 11:30 
Christelle	Davis	2/1/09 11:33 
Andrea	Stewart	2/1/09 11:37 
Yoji	Lau	2/1/09 11:38 
Elias	Matos	2/1/09 11:39 
Lizzy	Wall	2/1/09 11:40 
Tim	Burnett	2/1/09 11:43 
Brie	Zimmer	2/1/09 11:43 
Xueying	Sherman	2/1/09 11:46 
Dominic	Schaeffer	2/1/09 11:50 
Brendan	Dolgos	2/1/09 11:56 
Ilana	Korte	2/1/09 12:00 
Catherine	James	2/1/09 12:05 
Kate	Stodola	2/1/09 12:09 
Krystal	Kozelka	2/1/09 12:14 
Nina	Burhoe	2/1/09 12:14 
Yaicha	Ferrelli	2/1/09 12:18 
Alyssa	Mass	2/1/09 12:23 
Caitlin	Ries	2/1/09 12:24 
Laura	Skalican	2/1/09 12:26 
Isabel	Mehdi	2/1/09 12:31 
Kelly	Frazier	2/1/09 12:33 
James	Wightman	2/1/09 12:40 
Amanda	Lin	2/1/09 12:50 
Cara	Roe	2/1/09 12:54 
Natalie	Connelly	2/1/09 12:55 
Amanda	Lewy	2/1/09 12:58 
Katie	Porter	2/1/09 13:04 
Joe	Vernon	2/1/09 13:06 
Megan	Sager	2/1/09 13:07 
Glenn	Kelley	2/1/09 13:10 
William	Deranger	2/1/09 13:14 
Naomi	Dhakal	2/1/09 13:17 
Scott	Slukhov	2/1/09 13:19 
Emily	DuQue	2/1/09 13:23 
Glenn	Birkholz	2/1/09 13:24 
Knowledge Build	Chee	2/1/09 13:33 
Stephen	Goldberg	2/1/09 13:33 
Amy	Petryk	2/1/09 13:33 
Wallace	Kim	2/1/09 13:35 
Jamie	Schreck	2/1/09 13:35 
Matt	Doe	2/1/09 13:35 
Brian	Herman	2/1/09 13:39 
Li Yu	Kahn Russell	2/1/09 13:41 
Chris	Baird	2/1/09 13:42 
Anna	Chan	2/1/09 13:43 
Nick	Richter	2/1/09 13:43 
Julia	Xx	2/1/09 13:44 
Amanda	Silfies	2/1/09 13:47 
Franklin	Battla	2/1/09 13:48 
Chrsitian	Morgan	2/1/09 13:50 
Melanie	Malagodi	2/1/09 13:51 
Pete	Springer	2/1/09 13:55 
Kasey	Wilson	2/1/09 13:58 
NIal	Grigsby	2/1/09 14:00 
Amanda	Neas	2/1/09 14:02 
Jessie	Thanhauser	2/1/09 14:04 
Nic	Oh	2/1/09 14:04 
Matthew	Cordoba	2/1/09 14:04 
Charlotte	Seager	2/1/09 14:08 
Kristen	Lancaster	2/1/09 14:09 
Rebecca	Bolfo	2/1/09 14:09 
Andrew	Krueger	2/1/09 14:12 
Null	Gupta	2/1/09 14:14 
James	Shahidi	2/1/09 14:14 
Sophie	Ren	2/1/09 14:17 
Elizabeth	Brown	2/1/09 14:17 
Betty	Gregory	2/1/09 14:17 
Mindy	Bartolomei-Hill	2/1/09 14:18 
Alexandra	Kvasnak	2/1/09 14:21 
X	Fernandez	2/1/09 14:22 
Daniel	Loomis	2/1/09 14:22 
Joshua	Fuller	2/1/09 14:22 
Michael	Valley	2/1/09 14:26 
Anna	Melkumova	2/1/09 14:27 
Nicco	Higgins	2/1/09 14:29 
Ayodele	Hussey	2/1/09 14:30 
X	Rogala	2/1/09 14:30 
Bianca	Alva	2/1/09 14:31 
Nichole	Prime	2/1/09 14:32 
Marja	Jaeckel	2/1/09 14:33 
Tequil	Dorger	2/1/09 14:33 
Marty	Smith	2/1/09 14:33 
Angela	Brandt	2/1/09 14:34 
David	Kraft	2/1/09 14:35 
Brittany	Nakhoda	2/1/09 14:36 
Peter	Fisher	2/1/09 14:37 
Katherine	Youngman	2/1/09 14:37 
Amanda	Goodman	2/1/09 14:37 
Jean	Marrie	2/1/09 14:40 
Jessie	Northern	2/1/09 14:40 
Kasey	Smith	2/1/09 14:41 
Erica	Knodel	2/1/09 14:42 
Amy	Wolf	2/1/09 14:42 
Lauren	Walker	2/1/09 14:43 
Daniel	Zick	2/1/09 14:44 
Ashley	Zamorski	2/1/09 14:44 
John	Dubose	2/1/09 14:45 
Rebecca	Lazarus	2/1/09 14:46 
Angela	Widener	2/1/09 14:49 
Kaley	Gross	2/1/09 14:50 
Katie	Pelle	2/1/09 14:51 
Jennifer	Dickinson	2/1/09 14:52 
Bryan	Doe	2/1/09 14:53 
Christiana	Johnstone	2/1/09 14:54 
Rufio	Light	2/1/09 14:57 
Andrew	Buccelli	2/1/09 14:59 
Scott	Brady	2/1/09 14:59 
Jane	Brown	2/1/09 15:00 
Lisa	Newman	2/1/09 15:04 
Mark	Kunkel	2/1/09 15:07 
Sarah	Ruud	2/1/09 15:07 
Zach	Hessert	2/1/09 15:11 
Hannah	Brashares	2/1/09 15:11 
Tiare	Phillips	2/1/09 15:15 
Jason	Ross	2/1/09 15:15 
Laura	Anderson	2/1/09 15:16 
Oluwatoyin	Doe	2/1/09 15:17 
Daniel	Coburn	2/1/09 15:19 
Amanda	Ray	2/1/09 15:19 
Judy	Danilowicz	2/1/09 15:20 
Jon	White	2/1/09 15:21 
Daniel	Saunders	2/1/09 15:21 
Adam	Jimenez	2/1/09 15:21 
Gillian	Barnes	2/1/09 15:23 
Caty	Adamczewski	2/1/09 15:28 
Ethan	Chang	2/1/09 15:29 
Jennifer	Wiegard	2/1/09 15:30 
Lewis	Ochal	2/1/09 15:31 
Jason	Costantino	2/1/09 15:32 
Michaela	Shweitzer	2/1/09 15:35 
Dan	Bryant	2/1/09 15:37 
Tyler	Ryan	2/1/09 15:40 
Ashwin	Ortiz	2/1/09 15:41 
John	Zeller	2/1/09 15:44 
Veronica	Weiss	2/1/09 15:46 
Monica	Roth	2/1/09 15:47 
Leah	Longberry	2/1/09 15:48 
Mary	Bastias	2/1/09 15:50 
Jim	Byrd	2/1/09 15:52 
Imran	Wasterm	2/1/09 15:54 
Sam	Gerow	2/1/09 16:01 
Mary	Gray	2/1/09 16:02 
Cody	Kleeman	2/1/09 16:03 
Nelson	Raycraft	2/1/09 16:03 
James	Faber	2/1/09 16:05 
Alex	Eight	2/1/09 16:08 
Jennifer	Wiemken	2/1/09 16:08 
Bryce	King	2/1/09 16:13 
Stephen	Gonding	2/1/09 16:15 
Caitlin	Blaszczak	2/1/09 16:17 
Casey	Chalfin	2/1/09 16:17 
Brian	Ramos	2/1/09 16:18 
Sveta	Westerduin	2/1/09 16:19 
Amber	Morgan	2/1/09 16:19 
Valerie	Sam	2/1/09 16:21 
Emily	Aasen	2/1/09 16:21 
Cory	Siohan	2/1/09 16:21 
Lydia	Nelson	2/1/09 16:23 
Martine	Desai	2/1/09 16:23 
Marc	Fromuth	2/1/09 16:23 
Brian	Lkjljk	2/1/09 16:24 
Carrie	Miller	2/1/09 16:25 
X	Rohe	2/1/09 16:25 
Marcus	Larsen	2/1/09 16:26 
Zackari	Sparrow	2/1/09 16:26 
Chase	Cohn	2/1/09 16:26 
Tate	Harty	2/1/09 16:30 
Molly	Gibson	2/1/09 16:30 
Bethany	Younger	2/1/09 16:32 
Victoria	Embry	2/1/09 16:32 
Beth	Lekies	2/1/09 16:34 
Naomi	Howe	2/1/09 16:35 
Ellie	Klosterman	2/1/09 16:35 
Jonah	Davidson	2/1/09 16:35 
Veronica	Van Hook	2/1/09 16:36 
Emily	Prizer	2/1/09 16:37 
Molly	Rothkopf	2/1/09 16:38 
Alberto	Gallagher	2/1/09 16:38 
Amidia	Gross	2/1/09 16:39 
Lindsey	DeVries	2/1/09 16:39 
Claire	Burdick	2/1/09 16:40 
Danielle	Smith	2/1/09 16:40 
Ian	Lovell	2/1/09 16:41 
Britney	Nolan	2/1/09 16:41 
James	Galatioto	2/1/09 16:41 
Lakshmi	Croffut	2/1/09 16:42 
Anna	Roscoe	2/1/09 16:45 
Hilary	Rawlins	2/1/09 16:45 
Meredith	Doe	2/1/09 16:45 
Nigel	Taylor	2/1/09 16:47 
Jesse	Munnings	2/1/09 16:47 
Thomas	Smith	2/1/09 16:50 
Todd	Ljkljlkj	2/1/09 16:50 
Agnes	Angelo	2/1/09 16:50 
Karl	Face	2/1/09 16:51 
Kelli	Fevola	2/1/09 16:52 
Matt	Doe	2/1/09 16:53 
Kelly	Averbeck	2/1/09 16:54 
David	Doe	2/1/09 16:56 
Caitlin	Lagle	2/1/09 16:56 
Brittni	Gaskin	2/1/09 16:57 
Matt	Irle	2/1/09 16:59 
Maggie	McCaffrey	2/1/09 16:59 
Emma	Mink	2/1/09 16:59 
Leah	Trang	2/1/09 17:00 
Julie	Friedman	2/1/09 17:02 
Kerry	Cameron-Burr	2/1/09 17:02 
Elena	McKenna	2/1/09 17:03 
Sheena	Enright	2/1/09 17:04 
Zach	Fencl	2/1/09 17:05 
Patrick	Parker	2/1/09 17:05 
Gillian	Xx	2/1/09 17:06 
Becca	Hutchens	2/1/09 17:07 
Rachael	Viens	2/1/09 17:08 
Joe	Barker	2/1/09 17:09 
Claire	Roche	2/1/09 17:10 
Amy	Rossman	2/1/09 17:10 
John	Farshchi	2/1/09 17:12 
Madeline	Abdullah	2/1/09 17:12 
Danielle	Kleindienst	2/1/09 17:13 
Lindsey	Woolworth	2/1/09 17:14 
Paul	Oldfield	2/1/09 17:16 
Nate	Warman	2/1/09 17:16 
Anjali	Everett	2/1/09 17:16 
Jessie	Braithwaite	2/1/09 17:17 
Jessie	Bunkley	2/1/09 17:19 
Anasha	Broadbent	2/1/09 17:20 
Scott	Israel	2/1/09 17:21 
Chester	Widener	2/1/09 17:21 
Melanie	Bobarnac	2/1/09 17:22 
Myles	Born	2/1/09 17:22 
Jon	Fuller	2/1/09 17:23 
Cathleen	Galindo	2/1/09 17:26 
Derek	Hill	2/1/09 17:27 
Kristi	Coraggio	2/1/09 17:28 
Chelsea	Chun	2/1/09 17:28 
Megan	Holt	2/1/09 17:29 
Brittany	Glassman	2/1/09 17:30 
Jacques	Kirby	2/1/09 17:31 
Lindsay	Verdera	2/1/09 17:33 
Jessica	Bishop	2/1/09 17:35 
Dana	Pedro	2/1/09 17:35 
Nini	Gerson	2/1/09 17:37 
Kirsten	Van Tassel	2/1/09 17:37 
Jessica	Hovey	2/1/09 17:40 
Erika	Dunning	2/1/09 17:40 
Jill	Hale	2/1/09 17:41 
Patrick	Lavoie	2/1/09 17:41 
Eamon	Doran	2/1/09 17:42 
Kirsten	Meade	2/1/09 17:42 
Jeff	Zheng	2/1/09 17:45 
Chelsea	Costello	2/1/09 17:45 
Elliott	Kelly	2/1/09 17:46 
Jared	Mollengarden	2/1/09 17:47 
John	Fox	2/1/09 17:47 
Cassandra	O'Malley	2/1/09 17:51 
Joshua	Ramsey	2/1/09 17:51 
Kate	Esquivel	2/1/09 17:51 
Megan	Polk	2/1/09 17:53 
Brittny	Martin	2/1/09 17:54 
Kathryn	Jones	2/1/09 17:54 
Morgan	Knee	2/1/09 17:55 
Sam	Taylor	2/1/09 17:55 
Claire	Jiwa	2/1/09 17:55 
Null	Sheva	2/1/09 17:57 
Alex	Peery	2/1/09 17:58 
Elizabeth	Marshall	2/1/09 17:58 
Harrison	Nine	2/1/09 17:59 
Kaitlin	Chess	2/1/09 17:59 
David	Sousa	2/1/09 17:59 
Marcella	Turner	2/1/09 17:59 
Alissa	Brooking	2/1/09 17:59 
Ellen	Graham	2/1/09 17:59 
Levana	Peng	2/1/09 18:00 
Brian	Casselman	2/1/09 18:01 
Robert	Henn	2/1/09 18:02 
Ruby	Neuschatz	2/1/09 18:02 
Siiri	Bedell-Stiles	2/1/09 18:02 
Jason	Begley	2/1/09 18:03 
Corrie	Boreham	2/1/09 18:04 
Melissa	Harding	2/1/09 18:04 
Joshua	Geissler	2/1/09 18:04 
Jennifer	Doorenbos	2/1/09 18:04 
Joshua	Vaughan	2/1/09 18:05 
Lauraly	Sullivan	2/1/09 18:08 
Student	Conway	2/1/09 18:08 
Carl	Wishart	2/1/09 18:08 
Ryan	Hatheway	2/1/09 18:09 
Kelsey	Horn	2/1/09 18:11 
Daniel	Taber	2/1/09 18:12 
Brandon	Brown	2/1/09 18:13 
Russell	Zemskova	2/1/09 18:13 
Paige	Dantas-McCutcheon	2/1/09 18:14 
Susan	Doe	2/1/09 18:14 
Hope	Baker	2/1/09 18:16 
Kara	Daniel	2/1/09 18:16 
Ryan	Dilauria	2/1/09 18:16 
Nasim	Pierce	2/1/09 18:16 
Antonia	Auffret	2/1/09 18:17 
Jeff	Hayworth	2/1/09 18:17 
Mark	Xx	2/1/09 18:17 
Caitlin	Goetz	2/1/09 18:20 
Samantha	Cushman	2/1/09 18:21 
Julie	Sanford	2/1/09 18:22 
Bianca	Larrabee	2/1/09 18:23 
Mandy	Dong	2/1/09 18:24 
Cody	Foster	2/1/09 18:26 
Justyne	Halprin	2/1/09 18:27 
Aspen	Khemani	2/1/09 18:27 
Ben	Doe	2/1/09 18:29 
Stephanie	Nebenzahl	2/1/09 18:30 
Miranda	Lee Tan	2/1/09 18:30 
Rachel	Boochever	2/1/09 18:31 
Dan	Kemboi	2/1/09 18:32 
Mike	O-A	2/1/09 18:34 
Peter	Lipinski	2/1/09 18:38 
James	Hire	2/1/09 18:40 
Mia	Abens	2/1/09 18:41 
Jennah	Tippie	2/1/09 18:41 
Harry	Scott	2/1/09 18:44 
Robert	Firestone	2/1/09 18:44 
Brandon	Zimmer	2/1/09 18:45 
Pete	Wagner	2/1/09 18:45 
Gillian	Henzler	2/1/09 18:45 
Jen	Allen	2/1/09 18:46 
Meghan	Gray	2/1/09 18:48 
Molly	Frye	2/1/09 18:49 
Jenny	Moore	2/1/09 18:50 
Sophie	Wyman	2/1/09 18:51 
Kim	Flores	2/1/09 18:54 
Chris	Zanotti	2/1/09 18:54 
Nasreen	Abuouf	2/1/09 18:57 
Kara	Corcoran	2/1/09 18:57 
Sabrina	Petrescu	2/1/09 18:58 
Abbe	Lackaff	2/1/09 18:59 
Sriram	Green	2/1/09 18:59 
John Paul	Simmons	2/1/09 19:01 
Kyle	Hummon	2/1/09 19:01 
Michelle	Perkins	2/1/09 19:02 
Marley	Abdul-Wahab	2/1/09 19:04 
Kathryn	Sheikh	2/1/09 19:05 
Elenor	Brokken	2/1/09 19:05 
Julia	Finney	2/1/09 19:05 
Su	Thomas	2/1/09 19:06 
Jane	Schweikert	2/1/09 19:08 
Caroline	Cotton	2/1/09 19:08 
Kelly	Quinn	2/1/09 19:08 
Jeff	Richardson	2/1/09 19:10 
Kyle	Doe	2/1/09 19:10 
Taylor	Kemmick	2/1/09 19:10 
Graymon	Zachary	2/1/09 19:12 
Katie	Pecoraro	2/1/09 19:12 
Daniel	Giffin	2/1/09 19:13 
Whitney	Bennett	2/1/09 19:13 
Nancy	Davis	2/1/09 19:13 
Kelly	Oldershaw	2/1/09 19:13 
Pauline	Bolden	2/1/09 19:13 
Timothy	Walsh	2/1/09 19:15 
Becky	Washington	2/1/09 19:17 
Jasmine	Barclay	2/1/09 19:17 
Lance	Schreiber-Stainthorp	2/1/09 19:17 
Heather	Johnson	2/1/09 19:18 
first_Name	Devarajan	2/1/09 19:18 
Kristen	Hummon	2/1/09 19:19 
Alyssa	Averna	2/1/09 19:20 
Emily	Kahn	2/1/09 19:20 
Lacy	Sossa	2/1/09 19:23 
Nelle	Levinson	2/1/09 19:23 
Megan	Lavarnway	2/1/09 19:23 
Scott	Smith	2/1/09 19:24 
Connor	Lanning	2/1/09 19:24 
Robert	Cupp	2/1/09 19:26 
Patrick	Wilkins	2/1/09 19:27 
Harris	Limder	2/1/09 19:27 
Yuan	Samayoa	2/1/09 19:28 
Allison	Miller	2/1/09 19:29 
Hallie	Yassien	2/1/09 19:30 
J	Schleith	2/1/09 19:31 
Rachel	Stern	2/1/09 19:31 
Charles	Gray	2/1/09 19:31 
Leslie	Tubbesing	2/1/09 19:33 
Hillary	Treeck	2/1/09 19:33 
Melissa	Shaughnessy	2/1/09 19:36 
Molly	Kraft	2/1/09 19:36 
X	Null	2/1/09 19:36 
Jill	Futterman	2/1/09 19:37 
Adrienne	Hall	2/1/09 19:38 
Kelly	Mac	2/1/09 19:38 
Jared	Clark	2/1/09 19:38 
John	Alexander	2/1/09 19:39 
Deborah	Lamm	2/1/09 19:40 
Tori	9	2/1/09 19:40 
Tara	Ravichandran	2/1/09 19:40 
Will	Brumfield	2/1/09 19:41 
Calvin	Cai	2/1/09 19:41 
Ben	Hadel	2/1/09 19:41 
Dominique	Rasmussen	2/1/09 19:42 
Drew	Baker	2/1/09 19:43 
Russ	Ospina	2/1/09 19:43 
Nina	Williams	2/1/09 19:44 
Kelsey	Canepa	2/1/09 19:46 
Jeanna	De Soto	2/1/09 19:46 
Ashley	Leaphart	2/1/09 19:46 
Cassie	Hinkle	2/1/09 19:47 
Samantha	Odell	2/1/09 19:49 
Mackenzie	Davila	2/1/09 19:49 
Lora	Seo	2/1/09 19:50 
Lee	Parent	2/1/09 19:50 
Theo	Abington	2/1/09 19:51 
Morgan	McGurran	2/1/09 19:54 
Andrea	Martin	2/1/09 19:54 
Emily	Wolfe	2/1/09 19:54 
Heather	Corson-Knowles	2/1/09 19:55 
Megan	Silverstein	2/1/09 19:56 
Holly	McLoughlin	2/1/09 19:56 
Frieda	Housley	2/1/09 19:57 
Michael	Hemphill	2/1/09 19:57 
Devin	Zhao	2/1/09 19:57 
Kyle	Castricano	2/1/09 19:57 
Theresa	Rathkopf	2/1/09 19:57 
John	Rosenkvist	2/1/09 19:58 
Rebecca	Partymiller	2/1/09 19:58 
Callista	Kehs	2/1/09 19:59 
Kelsey	Wadsworth	2/1/09 19:59 
Zach	Peterson	2/1/09 19:59 
Emily	Malpica	2/1/09 1:15 
Savannah	Varoutas	2/1/09 1:31 
Michael	Stowman	2/1/09 1:58 
Aaron	Cappelli	2/1/09 20:00 
Kristen	Hasan	2/1/09 20:01 
Sophie	Reclam	2/1/09 20:01 
James	Joe	2/1/09 20:01 
Nikki	Crunkilton	2/1/09 20:02 
Elana	Collins	2/1/09 20:03 
Jennifer	Wichman	2/1/09 20:03 
Adam	Robbins	2/1/09 20:03 
Maxwell	Peters	2/1/09 20:04 
Michael	Bolger	2/1/09 20:05 
Jordan	Culver	2/1/09 20:05 
Stephen	Patton	2/1/09 20:05 
Lawrence	King	2/1/09 20:06 
Dan	Schwaller	2/1/09 20:07 
Rachael	Plowden	2/1/09 20:07 
John	Corkins	2/1/09 20:07 
Kelsey	Hymansmith	2/1/09 20:10 
Jeremy	Riggs	2/1/09 20:10 
Angela	Jasinski	2/1/09 20:10 
Eve	Reese	2/1/09 20:11 
Jorge	Kagan	2/1/09 20:11 
Marta	7	2/1/09 20:11 
Mitchell	Leonard	2/1/09 20:12 
Alessandra	Surprenant	2/1/09 20:12 
Aaron	Pilar	2/1/09 20:12 
Tanya	Biemer	2/1/09 20:14 
Perry	Shillingford	2/1/09 20:14 
William	Maggio	2/1/09 20:16 
Alana	Hoffmann	2/1/09 20:16 
Nicole	Taylor	2/1/09 20:17 
Alexis	Daniliuc	2/1/09 20:18 
Pamela	Khan	2/1/09 20:18 
Jeremy	Brown	2/1/09 20:18 
Francisca	Berry-Chaney	2/1/09 20:19 
Matthew	Oh	2/1/09 20:19 
Sam	Kneidinger	2/1/09 20:19 
Irene	Niaz	2/1/09 20:20 
Jon	Tsosie	2/1/09 20:20 
Lauren	Elion	2/1/09 20:20 
Chad	Shea	2/1/09 20:22 
Jack	Chapin	2/1/09 20:22 
Alexander	Skibbie	2/1/09 20:22 
Stephanie	Horning	2/1/09 20:23 
Vanessa	Dube	2/1/09 20:23 
Rashida	Hackett	2/1/09 20:24 
Kelsey	Demmitt	2/1/09 20:24 
Jennifer	McClandish	2/1/09 20:26 
Kelley	Boyyyyy	2/1/09 20:27 
Andrea	Montgomery-Baker	2/1/09 20:27 
Celeste	Willemesen	2/1/09 20:27 
Minh	Phadke	2/1/09 20:28 
Loric	Smith	2/1/09 20:28 
Ryan	McCabe	2/1/09 20:28 
Gabe	Friedmann	2/1/09 20:28 
Mariana	Polk	2/1/09 20:29 
Geron	Josa	2/1/09 20:30 
Chris	Edge	2/1/09 20:30 
Samuel	Miles	2/1/09 20:30 
Ryan	Shearer	2/1/09 20:30 
Chris	Annavajhala	2/1/09 20:32 
Jordan	Parkin	2/1/09 20:32 
Katrina	Dragich	2/1/09 20:32 
Katrina	Szczygiel	2/1/09 20:33 
Delaney	Dillon	2/1/09 20:34 
Sarah	Guethle	2/1/09 20:34 
Nikki	Murnen	2/1/09 20:34 
Teen	Powers	2/1/09 20:34 
Elizabeth	Null	2/1/09 20:35 
Alicia	Krautheim	2/1/09 20:36 
Trevor	Chaney	2/1/09 20:37 
Phebe	Zeligs	2/1/09 20:37 
Quameen	Riggi	2/1/09 20:37 
Troy	Seithers	2/1/09 20:38 
Monique	Milinichik	2/1/09 20:38 
Tyler	Stitt	2/1/09 20:38 
Jillian	Cooper	2/1/09 20:39 
Frances	Hill	2/1/09 20:39 
Hillary	Jost	2/1/09 20:39 
Justin	Grochmal	2/1/09 20:40 
Jordan	Doe	2/1/09 20:41 
Brandon	Espinal	2/1/09 20:42 
Karel	Lemos-Wade	2/1/09 20:42 
Mark	Powers	2/1/09 20:43 
Ileana	Meyer	2/1/09 20:43 
Anna	Semensi	2/1/09 20:44 
Paul	Lazarowski	2/1/09 20:44 
Alexandra	Oliker	2/1/09 20:44 
Kelsey	Davis	2/1/09 20:44 
Andrew	Haynes	2/1/09 20:48 
Carl	Joyce	2/1/09 20:48 
Lyndsey	Gelle	2/1/09 20:49 
Chris	Goodman	2/1/09 20:49 
Shane	August	2/1/09 20:49 
Breena	Ghaelian	2/1/09 20:50 
Ian	Callier	2/1/09 20:50 
Jordan	Pinkerton	2/1/09 20:52 
Leslie	Barns	2/1/09 20:52 
Megan	Stresing	2/1/09 20:52 
Kristen	Duggan	2/1/09 20:52 
Marcin	Grasmeder	2/1/09 20:52 
Scott	Parker	2/1/09 20:53 
Katherine	Mickiewicz	2/1/09 20:54 
Christine	Horak	2/1/09 20:54 
Matt	M	2/1/09 20:55 
Elizabeth	Dervin-Ackerman	2/1/09 20:56 
Dana	Powers	2/1/09 20:57 
Justin	Figliola	2/1/09 20:58 
Lindsay	Betancourt	2/1/09 20:59 
Avanti	Friesner	2/1/09 20:59 
Sean	Alderman	2/1/09 20:59 
Ambika	Jones	2/1/09 20:59 
Ciaran	Szym	2/1/09 20:59 
Abbie	Rapp	2/1/09 20:59 
Noah	Carr	2/1/09 21:00 
Praween	Green	2/1/09 21:01 
Kate	Cheslin	2/1/09 21:01 
Dennise	Elton	2/1/09 21:02 
Tony	Stoddard	2/1/09 21:03 
Lisa	Gallenstein	2/1/09 21:04 
Zoe	Cline	2/1/09 21:04 
Nevin	Keller	2/1/09 21:05 
Marisa	Brennan-Levine	2/1/09 21:06 
A	Xx	2/1/09 21:06 
Lindsey	Warren	2/1/09 21:07 
Ruth	Fessenden	2/1/09 21:07 
David	Cardinal	2/1/09 21:08 
Tarik	Ballard	2/1/09 21:08 
Shannon	Patrick	2/1/09 21:09 
Eddie	Bentsen	2/1/09 21:09 
Melissa	Ostafinski	2/1/09 21:09 
One	Sierra	2/1/09 21:10 
Yuri	Hanson	2/1/09 21:11 
Michele	Pelishek	2/1/09 21:11 
Lisa	Jafri	2/1/09 21:12 
Badger	Ingenito	2/1/09 21:12 
Paul	Davison	2/1/09 21:12 
Sophia	Haskell	2/1/09 21:13 
Kathryn	Fredston-Hermann	2/1/09 21:13 
Joy	Alpert	2/1/09 21:13 
Nicole	Adams	2/1/09 21:14 
Shannon	Mangles	2/1/09 21:14 
Jane	Serpe	2/1/09 21:14 
Scott	Sabo	2/1/09 21:15 
Chris	Kimmerle	2/1/09 21:15 
Sydney	Stewart	2/1/09 21:15 
X	Gasparek	2/1/09 21:15 
Rachel	Kang	2/1/09 21:16 
Anne	Null	2/1/09 21:16 
Joel	Taylor	2/1/09 21:16 
Jeremy	Winnike	2/1/09 21:17 
Mitchell	Goyal	2/1/09 21:18 
Blaine	Gandi	2/1/09 21:18 
Brandy	Kelley	2/1/09 21:19 
Zachary	Gergen	2/1/09 21:20 
Laura	Higgins	2/1/09 21:20 
Rose	Arnold	2/1/09 21:20 
Noah	Perry	2/1/09 21:21 
Kate	Ampudia	2/1/09 21:21 
Havely	Parris	2/1/09 21:21 
Connie	Swartwood	2/1/09 21:21 
Maya	Wolff	2/1/09 21:21 
Denise	Rivas	2/1/09 21:22 
Amie	Nordrum	2/1/09 21:22 
Heather	Pudlock	2/1/09 21:22 
Claire	Ryan	2/1/09 21:22 
Alison	Dickson	2/1/09 21:23 
Kristen	Korn	2/1/09 21:23 
Alex	Den Herder-Thomas	2/1/09 21:24 
Linghan	Beamesderfer	2/1/09 21:24 
Nicole	Jobson	2/1/09 21:24 
Julia	Mead	2/1/09 21:24 
Kara	Seger	2/1/09 21:25 
Jesse	Goldberg	2/1/09 21:25 
Leila	Bischoff	2/1/09 21:25 
Jarymar	Womble	2/1/09 21:25 
Elliot	Bansal	2/1/09 21:26 
Alexandra	Mahdi	2/1/09 21:26 
Chris	Mitchell	2/1/09 21:26 
Julie	McCabe	2/1/09 21:27 
Casey	Tumati	2/1/09 21:27 
Marissa	Austin	2/1/09 21:27 
Eliza	Xx	2/1/09 21:27 
Laura	Hardridge	2/1/09 21:27 
John	Kittner	2/1/09 21:28 
Sarah	Wilburn	2/1/09 21:28 
Iain	Bookhout	2/1/09 21:28 
Frances	Frey	2/1/09 21:28 
Michelle	Routt	2/1/09 21:28 
Winter	Parvaz	2/1/09 21:28 
Katie	Shenk	2/1/09 21:29 
Cameron	Bhalsod	2/1/09 21:29 
Nyla	Ghosh	2/1/09 21:30 
Abe	Morfei	2/1/09 21:30 
Lawrence	Weeks	2/1/09 21:30 
Alyssa	Cabral	2/1/09 21:30 
Laura	Phillips	2/1/09 21:31 
Mary Carol	Bortner	2/1/09 21:31 
Lum	Bishop	2/1/09 21:31 
Irene	Sozinho	2/1/09 21:31 
Jennifer	Null	2/1/09 21:31 
Caitlin	Porter	2/1/09 21:31 
Jenny	Greenberg	2/1/09 21:33 
Gretchen	Priest	2/1/09 21:34 
Anuja	Alstad	2/1/09 21:34 
Katelyn	Bogar	2/1/09 21:34 
Lizzie	Winson	2/1/09 21:34 
Alexander	Abbs	2/1/09 21:35 
X	Zampardo	2/1/09 21:35 
Tina	Charles	2/1/09 21:36 
Sarah	B	2/1/09 21:36 
Boris	Mostow	2/1/09 21:36 
Jason	Lawrence	2/1/09 21:36 
Kirsten	Chronis	2/1/09 21:37 
Jaya	Park	2/1/09 21:37 
Saundra	Germano	2/1/09 21:37 
Ally	Charlton	2/1/09 21:37 
Martin	Sims	2/1/09 21:38 
Jane	Askinazi	2/1/09 21:40 
Ryan	Cunningham	2/1/09 21:40 
Andrea	Cohen	2/1/09 21:41 
Neil	Weeks	2/1/09 21:41 
Astrid	Peffier	2/1/09 21:41 
Kela	Null	2/1/09 21:41 
Dominique	DeWolf	2/1/09 21:41 
Cyrus	Doee	2/1/09 21:42 
Caroline	Grove	2/1/09 21:43 
Julie	Schwarz	2/1/09 21:44 
Erica	Duval	2/1/09 21:44 
Nick	Burton	2/1/09 21:44 
Sam	Wetherill	2/1/09 21:45 
Daren	Moss	2/1/09 21:46 
Student	Ahmadian	2/1/09 21:46 
Lubaba	Geisinger	2/1/09 21:46 
Brian	Wells	2/1/09 21:46 
Reed	Keniry	2/1/09 21:46 
Jessica	Laines	2/1/09 21:47 
Josh	Strauss	2/1/09 21:47 
Austin	Pywell	2/1/09 21:47 
Caryn	Laume	2/1/09 21:47 
Jenna	Allan	2/1/09 21:48 
Brooke	Mccain	2/1/09 21:48 
Ryan	Axelrath	2/1/09 21:48 
X	Comer	2/1/09 21:48 
William	Bailey	2/1/09 21:50 
Dana	Aldrich	2/1/09 21:51 
Cameron	Kirkman	2/1/09 21:51 
Katie	Roy	2/1/09 21:52 
Matt	Small	2/1/09 21:53 
Jessica	Avendano	2/1/09 21:53 
Amy	Roup	2/1/09 21:53 
Amelia	O'Gallagher	2/1/09 21:54 
Ashley	Kubica	2/1/09 21:54 
Samantha	Dickens	2/1/09 21:54 
Sondra	Patterson	2/1/09 21:55 
Lauren	Marquis	2/1/09 21:56 
Amanda	Karabelas	2/1/09 21:56 
Nora	Steury	2/1/09 21:57 
Kait	Gonzalez	2/1/09 21:57 
Johanna	England	2/1/09 21:57 
Britten	Gupta	2/1/09 21:57 
B	James-Saadiya	2/1/09 21:57 
Mark	Dal Col	2/1/09 21:58 
Adrienne	Lutch	2/1/09 21:58 
Michael	Spero	2/1/09 21:59 
Melinda	Jaquish	2/1/09 21:59 
Jamie	Fucikova	2/1/09 22:00 
Tyler	Collins	2/1/09 22:00 
Rich	Wynn	2/1/09 22:00 
Katie	Connell	2/1/09 22:00 
Kate	Smith	2/1/09 22:01 
Lairen	Wang	2/1/09 22:01 
Haines	Venning	2/1/09 22:01 
Kevin	Franko	2/1/09 22:01 
Joslyn	Chandna	2/1/09 22:02 
Tahirih	Maloney	2/1/09 22:02 
Cody	Doe	2/1/09 22:02 
Avery	Feuer	2/1/09 22:03 
Valentina	Owen	2/1/09 22:03 
Haley	Christiani	2/1/09 22:04 
Dave	LaRussa	2/1/09 22:04 
Finn	Gloster	2/1/09 22:04 
Michael	Hattori	2/1/09 22:05 
Geneva	Flagg	2/1/09 22:06 
John	Dyment	2/1/09 22:06 
Katie	Luckey	2/1/09 22:07 
Gretchen	Woodruff	2/1/09 22:07 
Dan	Crugnale	2/1/09 22:07 
Patrick	Barbour	2/1/09 22:08 
Eli	Pfau	2/1/09 22:08 
Claire	Legron	2/1/09 22:08 
Liam	Theden	2/1/09 22:09 
Jason	Burton	2/1/09 22:10 
Michael	Judkins	2/1/09 22:11 
Eliana	Greenwood	2/1/09 22:11 
Melissa	Chitayat	2/1/09 22:11 
Chloe	Abbi	2/1/09 22:11 
Molly	Finneran	2/1/09 22:12 
Addie	Pathik	2/1/09 22:12 
Raymond	Amer	2/1/09 22:12 
Melissa	Bowling	2/1/09 22:13 
Stephanie	Siegler	2/1/09 22:13 
Margaret	Danielson	2/1/09 22:14 
Heidi	Cummings	2/1/09 22:15 
William	McPhee	2/1/09 22:15 
Latasha	Colquitt	2/1/09 22:16 
Andrew	Gedrath-Smith	2/1/09 22:16 
Nyssa	Russell	2/1/09 22:18 
Ruth	Wofford	2/1/09 22:19 
Aaron	Lemar	2/1/09 22:20 
Jennifer	Bevis	2/1/09 22:21 
Violette	Warren	2/1/09 22:21 
Gladys	Benepe	2/1/09 22:21 
Emily	Reyes	2/1/09 22:21 
Andrew	Phillips	2/1/09 22:22 
Nelson	Carmody	2/1/09 22:24 
Matt	Sandone	2/1/09 22:27 
Emily	Prater	2/1/09 22:27 
Michaela	Schwartz	2/1/09 22:27 
Jeff	Schiller	2/1/09 22:27 
Victoria	Davison	2/1/09 22:28 
Aakash	Buckley	2/1/09 22:28 
Jane	Schwaneke	2/1/09 22:30 
Brett	Young	2/1/09 22:31 
Allison	Sinclair	2/1/09 22:32 
Araina	Orr	2/1/09 22:32 
Becca	McCoy	2/1/09 22:32 
Alyssa	Zhe	2/1/09 22:33 
Khristina	Katz	2/1/09 22:34 
Nick	Yates	2/1/09 22:34 
Desmian	Kovnat	2/1/09 22:34 
Sajeewa	Tedrow	2/1/09 22:35 
Sonny	Deokaran	2/1/09 22:36 
Jessica	O'Meara	2/1/09 22:36 
Hannah	McKenzie	2/1/09 22:36 
Eleanor	Ratcliffe	2/1/09 22:36 
Rhiannon	McCall	2/1/09 22:37 
Tess	Mehrtens	2/1/09 22:37 
Shannen	Queen	2/1/09 22:38 
Leigh	Plomaritis	2/1/09 22:38 
Ariana	Waterman	2/1/09 22:39 
Dori	Hirsch	2/1/09 22:40 
Michelle	Rixey	2/1/09 22:40 
Thomas	Simmons	2/1/09 22:40 
Mona	Franze	2/1/09 22:41 
Sebastian	Berger	2/1/09 22:41 
Maria	Brown	2/1/09 22:41 
Sam	Gibbons	2/1/09 22:41 
J	LeFlore	2/1/09 22:42 
Daniel	Leet	2/1/09 22:42 
Erin	Crisman	2/1/09 22:43 
Lwam	Doe	2/1/09 22:43 
Meghan	Coleman	2/1/09 22:44 
Sarah	Hendler	2/1/09 22:44 
Ryan	Cox	2/1/09 22:45 
EFAON	Heller	2/1/09 22:45 
Colleen	Auwaerter	2/1/09 22:45 
Vanessa	Pelishek	2/1/09 22:45 
Brittany	Rodriguez	2/1/09 22:46 
Sonali	Leavesley	2/1/09 22:46 
Carolyn	Hernandez	2/1/09 22:46 
Shea	Noveras	2/1/09 22:47 
Tom	Swider	2/1/09 22:49 
Nicole	Porter	2/1/09 22:49 
Robert	Delano	2/1/09 22:50 
Ian	Garland	2/1/09 22:50 
Alex	Doe	2/1/09 22:50 
Rachel	Corbett	2/1/09 22:50 
Trevor	Friend34	2/1/09 22:51 
Chris	Clayton	2/1/09 22:51 
Alexa	Emery	2/1/09 22:51 
Dana	Rozendaal	2/1/09 22:53 
Anne	Diaz-Infante	2/1/09 22:53 
Jafar	Cotton	2/1/09 22:53 
Jillian	Moore	2/1/09 22:54 
Joeh	Derain Verneau	2/1/09 22:54 
Kenda	Parikh	2/1/09 22:54 
Christine	Saculo	2/1/09 22:54 
Margaret	Minitsky	2/1/09 22:55 
Grant	Fitch	2/1/09 22:55 
Amanda	Murphy	2/1/09 22:55 
Sharon	McLain	2/1/09 22:55 
Josephine	Becerra	2/1/09 22:56 
Jamie	Abram	2/1/09 22:57 
Heather	Blynn	2/1/09 22:58 
Nicole	Six	2/1/09 22:58 
Katie	Bernasco	2/1/09 22:58 
Tiffany	Bargebuhr	2/1/09 22:58 
Hilary	Wilk	2/1/09 22:59 
Joey	Waterfield	2/1/09 23:00 
Taylor	Silverson	2/1/09 23:01 
Mitchell	Bresler	2/1/09 23:01 
Ryan	Baby	2/1/09 23:01 
Aidan	O'Neill	2/1/09 23:01 
Craig	Brady	2/1/09 23:02 
Kai	Karamat	2/1/09 23:03 
Matt	Traore	2/1/09 23:03 
K	Rempel	2/1/09 23:05 
Brittney	Laplume	2/1/09 23:06 
Anna	Sane	2/1/09 23:06 
Majestic	Rhea	2/1/09 23:07 
Katelyn	Mohammed	2/1/09 23:07 
Elora	Hilton	2/1/09 23:07 
Carmen	Tay	2/1/09 23:08 
Sally	Pegado	2/1/09 23:08 
Kathryn	Mustatea	2/1/09 23:08 
Clary	Lee	2/1/09 23:08 
Rachel	Salsbury	2/1/09 23:09 
Amanda	Johnson	2/1/09 23:10 
Katherine	DeValue	2/1/09 23:10 
Amy	Pennington	2/1/09 23:11 
Lexy	Schneiderman	2/1/09 23:11 
Miranda	McGrew	2/1/09 23:11 
One	Dedrick	2/1/09 23:11 
Robin	Merriam	2/1/09 23:11 
Laura	SPRINGSTEAD	2/1/09 23:11 
Meg	Smith	2/1/09 23:11 
Nicole	Shapiro	2/1/09 23:12 
Gabriella	Rudick	2/1/09 23:12 
Arden	Lkjklljlkj	2/1/09 23:12 
Zach	Devore	2/1/09 23:12 
B	Liakos	2/1/09 23:13 
Kathryn	Cox	2/1/09 23:13 
Jennifer	Gilmore	2/1/09 23:14 
Kath	Herbert	2/1/09 23:14 
Jac	Xu	2/1/09 23:15 
Chelsea	Banerjee	2/1/09 23:15 
David	Van Horn	2/1/09 23:15 
Stephen	Stylman	2/1/09 23:15 
Joanna	McClary	2/1/09 23:15 
Emily	Hoepfinger	2/1/09 23:16 
Allan	Simkover	2/1/09 23:17 
Sarah	Waickman	2/1/09 23:17 
Falak	Van Der Linden	2/1/09 23:18 
Ishmael	Knox	2/1/09 23:18 
Kyle	Hoyles	2/1/09 23:18 
Allison	Wickman	2/1/09 23:19 
Anne	Byrd	2/1/09 23:19 
Ellie	Batista	2/1/09 23:20 
Melina	Tracey	2/1/09 23:20 
Ralph	Locascio	2/1/09 23:20 
Brady	Wayland	2/1/09 23:20 
Kara	Baker	2/1/09 23:20 
Cammie	Hargraves	2/1/09 23:21 
Alan	Petrie	2/1/09 23:21 
Ellie	Williams III	2/1/09 23:22 
JP	Mengel	2/1/09 23:22 
Luke	Randall	2/1/09 23:23 
Drew	Kazyak	2/1/09 23:23 
Hayley	Cohen	2/1/09 23:24 
Samuel	Lambert-Williams	2/1/09 23:24 
Sarah	Herring	2/1/09 23:24 
Baofeng	Morrison	2/1/09 23:24 
Clay	Spivey	2/1/09 23:24 
Alissa	Sinclair	2/1/09 23:25 
Sasha	Gallagher	2/1/09 23:25 
Genevieve	Catellacci	2/1/09 23:25 
Michelle	Name	2/1/09 23:26 
Eliza	Gromisch	2/1/09 23:26 
Laura	Bennett	2/1/09 23:26 
Collin	Chumbley	2/1/09 23:27 
Calvin	Knowlton	2/1/09 23:27 
Kenyatta	Bucceri	2/1/09 23:27 
Emily	Farrell	2/1/09 23:28 
Emily	Chambers	2/1/09 23:28 
Felicia	Charest	2/1/09 23:29 
Ashley	Grinevald	2/1/09 23:29 
Dordt	Tale	2/1/09 23:29 
Torsten	Weber-Shirk	2/1/09 23:30 
Caitlin	Easter	2/1/09 23:30 
Christian	Rueter	2/1/09 23:30 
Tyler	Kollen	2/1/09 23:30 
Bill	Jannetti	2/1/09 23:30 
John	McEachern	2/1/09 23:30 
Lauren	Quick	2/1/09 23:30 
Alex	Pickard	2/1/09 23:31 
Grenye	Speight	2/1/09 23:31 
will	Serrante	2/1/09 23:31 
Kyle	Schechter	2/1/09 23:31 
Mrinalini	Billman	2/1/09 23:31 
Abigail	DODGE	2/1/09 23:32 
Amanda	Moore	2/1/09 23:32 
Jane	Roberts	2/1/09 23:33 
Sarah	Gosse	2/1/09 23:33 
Joy	Malfroid	2/1/09 23:33 
Zoe	Connolly	2/1/09 23:33 
Austin	Brummel	2/1/09 23:33 
Tom	Pomeroy	2/1/09 23:34 
Kris	Shulman	2/1/09 23:34 
Katharine	Lewis	2/1/09 23:34 
NIcole	Yoder	2/1/09 23:34 
Katy	Minhas	2/1/09 23:34 
Ryan	Carter	2/1/09 23:34 
Alex	Miller	2/1/09 23:35 
Teri	Spathas	2/1/09 23:35 
Courtney	Tepper	2/1/09 23:35 
NIck	Shayler	2/1/09 23:36 
Daniel	Suk	2/1/09 23:36 
Rivers	Cook	2/1/09 23:36 
Sasha	Green	2/1/09 23:36 
MARSHALL	Panesso	2/1/09 23:36 
Benjamin	Reynolds	2/1/09 23:37 
Brian	Liebovich	2/1/09 23:37 
Veronica	Buermann	2/1/09 23:37 
Timmie	Nester	2/1/09 23:38 
Jenifer	Ekelem	2/1/09 23:38 
Sara	Schneider	2/1/09 23:38 
Stephanie	Null	2/1/09 23:38 
Andrew	Barron	2/1/09 23:39 
Joseph	Kolb	2/1/09 23:39 
Ashlee	Shepherd	2/1/09 23:39 
Julia	Wittig	2/1/09 23:39 
Danya	Hagger	2/1/09 23:40 
Tom	Young	2/1/09 23:40 
Annie	Penticoff	2/1/09 23:40 
Luah	Valdiva	2/1/09 23:41 
Tori	Duncan	2/1/09 23:41 
Dave	Bisceglia	2/1/09 23:41 
Corrinne	Costello	2/1/09 23:42 
Nicolette	Lapp	2/1/09 23:42 
Becky	Pendergast	2/1/09 23:42 
Seth	Holleb	2/1/09 23:43 
Katie	Blumenstock	2/1/09 23:43 
Elizabeth	Brunner	2/1/09 23:44 
ETSU	Bahir	2/1/09 23:44 
Alexander	Deabler	2/1/09 23:45 
Laura	Masters	2/1/09 23:45 
Jordan	Holdaway	2/1/09 23:47 
J	Thomas	2/1/09 23:47 
Georgia	Hannigan	2/1/09 23:47 
Natalie	Goorhouse	2/1/09 23:47 
Lindsay	Wasserman	2/1/09 23:48 
Nairuti	Dornfeld	2/1/09 23:48 
James	Strom	2/1/09 23:49 
Michelle	Weisser	2/1/09 23:49 
Kylie	Dodd	2/1/09 23:49 
Diane	Trento	2/1/09 23:50 
Matt	Zaragoza Ballesteros	2/1/09 23:50 
Rhae	Fowler	2/1/09 23:50 
Mitchell	Carpenter-Israel	2/1/09 23:52 
Jacob	Verderber	2/1/09 23:52 
Molly	Livesay	2/1/09 23:52 
Zoe	Rast	2/1/09 23:53 
Lorena	Gladfelter	2/1/09 23:53 
Mary	Rodgers	2/1/09 23:53 
Jackie	Dahlberg	2/1/09 23:53 
Null	Wotton	2/1/09 23:54 
Charlie	Lucas	2/1/09 23:54 
Melissa	Martin	2/1/09 23:55 
Maggie	Monrreal	2/1/09 23:55 
Mara	Castellano	2/1/09 23:55 
Katherine	Jones	2/1/09 23:55 
Kyle	Allan	2/1/09 23:56 
Harrison	Lyons	2/1/09 23:56 
Laurel	Kalbacker	2/1/09 23:57 
Matt	Fischer	2/1/09 23:57 
Milan	Simms	2/1/09 23:57 
Jessica	Johnson	2/1/09 23:57 
Emily	Alisjahbana	2/1/09 23:57 
Hilary	Rotter	2/1/09 23:58 
Dara	Smith	2/1/09 23:58 
Michelle	Royal	2/1/09 23:59 
Shaun	Doe	2/1/09 2:13 
Everett	Cyr	2/1/09 2:18 
Stephanie	Miller	2/1/09 2:36 
Arielle	Strand	2/1/09 2:53 
Michael	Lenkay	2/1/09 4:02 
Kelsey	Calhoun	2/1/09 4:33 
Chris	Aull	2/1/09 5:32 
Dane	Hodgetts	2/1/09 6:31 
Alex	Heyward	2/1/09 7:10 
Randy	Reliford	2/1/09 7:14 
Pamela	Burkhalter	2/1/09 7:17 
Ariella	Castillo	2/1/09 7:20 
Mark	Rosenberg	2/1/09 7:24 
Meredith	Brucker	2/1/09 7:32 
Sarah	Gladwin	2/1/09 7:35 
Christine	Buitelaar	2/1/09 7:40 
Etana	Stokes	2/1/09 7:43 
Morgan	Neal	2/1/09 7:46 
Ali	Starbuck	2/1/09 7:50 
Jake	Perez	2/1/09 7:53 
Tara	O'Donnell	2/1/09 7:56 
Sarah	Carter	2/1/09 7:59 
Jacqueline	Poindexter	2/1/09 9:05 
Alexandra	Connery	2/1/09 9:17 
Marilyn	Gayle	2/1/09 9:19 
Shelley	Skuffins	2/1/09 9:26 
Bradly	Zamudio	2/1/09 9:32 
Roger	Richards	2/1/09 9:35 
Benjamin	Deeley	2/1/09 9:39 
Damir	Fernandez	2/1/09 9:43 
Christine	Geary	2/1/09 9:45 
Antonio	Franklin	2/2/09 0:00 
Aditi	Bellino	2/2/09 0:00 
Sarah	Arnold	2/2/09 0:00 
Heather	Chee	2/2/09 0:00 
Carole	Bigalke	2/2/09 0:01 
Grayson	Akchin	2/2/09 0:01 
Ronald	Griffiths	2/2/09 0:01 
Anya	Foggo	2/2/09 0:01 
Guy	Clenergy	2/2/09 0:02 
Areeka	Zahor	2/2/09 0:02 
Miquette	Lohr	2/2/09 0:03 
Ben	Rawstron	2/2/09 0:03 
Tim	Murdock	2/2/09 0:03 
Lydia	F	2/2/09 0:04 
Jonathan	Xx	2/2/09 0:05 
Andrew	Cook	2/2/09 0:05 
Christopher	Battla	2/2/09 0:06 
Robert	MIller	2/2/09 0:07 
Laura	Butler	2/2/09 0:07 
Marilyn	Bellows	2/2/09 0:08 
Amanda	Faircloth	2/2/09 0:08 
Katherine	Blanton	2/2/09 0:09 
Carlos	Eastes	2/2/09 0:09 
Elizabeth	Fields	2/2/09 0:10 
Renee	Blair	2/2/09 0:12 
Kelly	Reardon	2/2/09 0:12 
Joseph	Miller	2/2/09 0:12 
Anna	Doe	2/2/09 0:13 
X	Guy	2/2/09 0:13 
Alyssa	Berger	2/2/09 0:16 
Gabrielle	Funkle	2/2/09 0:16 
Jennifer	Kelly	2/2/09 0:16 
Kelsey	Madeira	2/2/09 0:17 
Amancio	Doe	2/2/09 0:20 
Maggie	Hoffman	2/2/09 0:20 
Jake	Sorenson	2/2/09 0:22 
Noa	Kuhn	2/2/09 0:22 
Sam	Horn	2/2/09 0:22 
S	Lopez	2/2/09 0:22 
Shreema	Khoury	2/2/09 0:23 
Alexander	Weiner	2/2/09 0:24 
Amanda	Howson	2/2/09 0:26 
Maia	O'Malley	2/2/09 0:26 
Armand	Diamond	2/2/09 0:26 
Eric	Wheatley	2/2/09 0:27 
Hana	Tiburcio	2/2/09 0:27 
John	Wells	2/2/09 0:28 
Laura	2	2/2/09 0:29 
Johan	Bryant	2/2/09 0:29 
BRITA	Adler	2/2/09 0:29 
William	Hales	2/2/09 0:29 
Theodore	Tam-Claiborne	2/2/09 0:31 
Aar	Jones	2/2/09 0:34 
Elizabeth	Urbach	2/2/09 0:39 
Abby	Peterson	2/2/09 0:44 
Noah	Kozak	2/2/09 0:45 
Kate	Scholnick	2/2/09 0:50 
Michelle	Rudderman	2/2/09 0:52 
Ruarri	Watson	2/2/09 0:53 
Theodore R.	Doe	2/2/09 0:54 
Bryce	Lupolt	2/2/09 0:55 
Flo	Bosley	2/2/09 0:57 
Katie	Retos	2/2/09 0:58 
Tiffany	Emerson	2/2/09 0:58 
Shira	Lupine	2/2/09 0:59 
Kelly	Kasch	2/2/09 10:00 
Elli	Kisner	2/2/09 10:03 
Jane	Lim	2/2/09 10:05 
Simone	Sosin	2/2/09 10:07 
Dan	Aungst	2/2/09 10:30 
Allison	Coronado	2/2/09 10:38 
Dylan	Musial	2/2/09 10:38 
Mitchel	Nichols	2/2/09 10:44 
Anika	Roux	2/2/09 10:45 
Afton	Klinger	2/2/09 10:49 
Jess	Coull	2/2/09 10:52 
David	Williams	2/2/09 11:00 
Amanda	Wayne	2/2/09 11:03 
Mirinda	Holder	2/2/09 11:08 
Paul	Schweitzer	2/2/09 11:14 
Nirvana	Akiha	2/2/09 11:22 
Ian	Bojack	2/2/09 11:28 
Chris	Sackett	2/2/09 11:29 
Joshua	Pittenger	2/2/09 12:05 
Rebecca	Pentz	2/2/09 12:11 
Patrice	Obenreder	2/2/09 12:24 
Greg	SAUNDERS	2/2/09 12:34 
Zach	Franklin	2/2/09 1:01 
Jeff	Pasqualoni	2/2/09 1:03 
Amanda	Cumberdale	2/2/09 1:03 
Daniel	Null	2/2/09 1:04 
Brad	Sharrow	2/2/09 1:06 
Dan	Pan	2/2/09 1:09 
Desirea	Holcomb	2/2/09 1:15 
Irene	Higgins	2/2/09 1:18 
Joanna	Nwoga	2/2/09 1:20 
Tess	Ray	2/2/09 1:24 
Dj Jazzy	Hornick	2/2/09 1:27 
Todd	Lindstrom	2/2/09 1:31 
Tevyn (Kelly)	Butler	2/2/09 1:32 
John	Dowley	2/2/09 1:33 
Celia	Galloway	2/2/09 1:37 
Chris	Page	2/2/09 1:38 
Ainsley	Moudy	2/2/09 1:38 
Spencer	Kaiser	2/2/09 1:41 
Stephanie	Smith	2/2/09 1:42 
Jennifer	Bagga	2/2/09 1:43 
Tim	Kaufman	2/2/09 1:43 
Krista	Houck	2/2/09 1:44 
Elyse	Alizadeh Choobari	2/2/09 1:47 
Uruj	Matanovic	2/2/09 1:55 
Jamie	Clemente	2/2/09 2:19 
Ryan	Helferty	2/2/09 2:21 
Tiana	Fernandez	2/2/09 2:26 
Lydia	Berry	2/2/09 2:37 
Maria	Boyle	2/2/09 3:19 
Erica	Newcomer	2/2/09 6:05 
Kyle	Wolfson	2/2/09 6:55 
Justine	Jones	2/2/09 7:02 
Marco	Strohmayer	2/2/09 7:41 
Anna	Wright	2/2/09 7:44 
Patrick	Pallmeyer	2/2/09 7:46 
Lindsey	Wurzburg	2/2/09 7:48 
Jordan	Butler	2/2/09 7:50 
Lisbeth	Doe	2/2/09 7:58 
Limor	Ashby	2/2/09 8:17 
Adrienne	Toro	2/2/09 8:19 
Laquita	Bourgault	2/2/09 8:22 
Jenni	Simmons	2/2/09 8:24 
Shamilia	O'Neill	2/2/09 8:26 
Vincent	Foster	2/2/09 8:34 
Christopher	Holt	2/2/09 8:38 
Solomon	Smith	2/2/09 8:40 
Cara	Sluder	2/2/09 8:42 
Peter	Moore	2/2/09 8:45 
Stephanie	Hastings	2/2/09 8:47 
Heidi	Catlette	2/2/09 8:49 
Jamie	Alcazaren	2/2/09 8:53 
Chris	Hyde	2/2/09 8:55 
Student	Oneil	2/2/09 8:57 
Hannah	Bojanic	2/2/09 8:59 
Amanda	Booth	2/2/09 9:02 
Raghav	Engelman	2/2/09 9:04 
Brittany	Loomis	2/2/09 9:06 
Michael	Jensen	2/2/09 9:12 
Scott	Martin	2/2/09 9:17 
Chelsea	Edmonds	2/2/09 9:19 
Kyle	Pazdral	2/2/09 9:26 
Cassandra	Cooper	2/2/09 9:29 
Ian	Butcher	2/2/09 9:31 
Laura	Wallace	2/2/09 9:33 
Brittany	Rogers	2/2/09 9:35 
Reagan	O'Doherty	2/2/09 9:35 
Jessica	Pomrenke	2/2/09 9:37 
X	Sugerman	2/2/09 9:39 
Anant	Brummett	2/2/09 9:41 
Zachary	House	2/2/09 9:44 
X	Chan	2/2/09 9:47 
Kerry	Spence	2/2/09 9:47 
Andrew	Kenagy	2/2/09 9:49 
Sean	Wagner	2/2/09 9:51 
Kristian	Mitchell	2/2/09 9:54 
Janna	Silverstein	2/2/09 9:56 
Krishna	Oshun	2/2/09 9:58 
